NGELID,Station,City,Country,Lat,Lon
NGEL_OAPM_00000,ICRISAT-Patancheru--Hyderabad---TSPCB,Hyderabad,IN,,
NGEL_OAPM_00001,Arica,Arica,CL,-18.483427991456,-70.290550727043
NGEL_OAPM_00002,Alto-Hospicio,Alto-Hospicio,CL,-20.290466881209,-70.100192427636
NGEL_OAPM_00003,São-José-Do-Rio-Preto,São-José-Do-Rio-Preto,BR,-20.78468928,-49.39827779
NGEL_OAPM_00004,Ribeirão-Preto-Centro,Sao-Paulo,BR,-21.17706594,-47.81898767
NGEL_OAPM_00005,Escuela-E-10,Tocopilla,CL,-22.085518710314,-70.188682515839
NGEL_OAPM_00006,Bomberos,Tocopilla,CL,-22.111064,-70.210828
NGEL_OAPM_00007,Colegio-Pedro-Vergara-Keller,Calama,CL,-22.44283906304,-68.932546346863
NGEL_OAPM_00008,Complejo-Deportivo-23-de-Marzo,Calama,CL,-22.460270722943,-68.937706917007
NGEL_OAPM_00009,Estación-Centro,Calama,CL,-22.462144644634,-68.92806169339
NGEL_OAPM_00010,Piracicaba,Piracicaba,BR,-22.70122234,-47.64965269
NGEL_OAPM_00011,Sierra-Gorda-,Sierra-Gorda,CL,-22.888724142633,-69.318140714844
NGEL_OAPM_00012,Campinas-V.União,Campinas,BR,-22.94672842,-47.11928086
NGEL_OAPM_00013,Taubaté,Taubaté,BR,-23.03235096,-45.57580502
NGEL_OAPM_00014,S.José-dos-Campos-Jd.Satélite,Sao-Paulo,BR,-23.22364548,-45.8908
NGEL_OAPM_00015,Guarulhos-Pimentas,Guarulhos,BR,-23.44011701,-46.40994877
NGEL_OAPM_00016,Guarulhos-Paço-Municipal,Guarulhos,BR,-23.45553426,-46.5185334
NGEL_OAPM_00017,Pico-do-Jaraguá,Sao-Paulo,BR,-23.4562689,-46.76609776
NGEL_OAPM_00018,Itaim-Paulista,São-Paulo,BR,-23.50154736,-46.42073684
NGEL_OAPM_00019,Santana,São-Paulo,BR,-23.50599272,-46.6289603
NGEL_OAPM_00020,Marg.Tietê-Pte-Remédios,São-Paulo,BR,-23.51870583,-46.74332004
NGEL_OAPM_00021,Osasco,Osasco,BR,-23.52672142,-46.79207766
NGEL_OAPM_00022,Parque-D.Pedro-II,São-Paulo,BR,-23.54484566,-46.62767559
NGEL_OAPM_00023,Cid.Universitária-USP-Ipen,São-Paulo,BR,-23.56634178,-46.73741428
NGEL_OAPM_00024,Ibirapuera,São-Paulo,BR,-23.59184199,-46.6606875
NGEL_OAPM_00025,Antofagasta,Antofagasta,CL,-23.61354215815,-70.383315682411
NGEL_OAPM_00026,Congonhas,São-Paulo,BR,-23.61632008,-46.66346553
NGEL_OAPM_00027,S.Bernardo-Centro,São-Bernardo-do-Campo,BR,-23.69867109,-46.54623219
NGEL_OAPM_00028,Targinie,Gladstone,AU,-23.7744,151.1055
NGEL_OAPM_00029,Grajau-Parelheiros,Sao-Paulo,BR,-23.77626598,-46.69696108
NGEL_OAPM_00030,Fisherman's-Landing,Gladstone,AU,-23.7937,151.1601
NGEL_OAPM_00031,Boat-Creek,Gladstone,AU,-23.8199,151.1538
NGEL_OAPM_00032,South-Gladstone,Gladstone,AU,-23.8626,151.2705
NGEL_OAPM_00033,Boyne-Island,Gladstone,AU,-23.9408,151.3507
NGEL_OAPM_00034,Santos-Ponta-da-Praia,Santos,BR,-23.98129516,-46.30050959
NGEL_OAPM_00035,Copiapo-Sivica,Copiapó,CL,-27.370329154948,-70.323906678352
NGEL_OAPM_00036,Clinton,Gladstone,AU,-27.3713,151.5934
NGEL_OAPM_00037,Lytton,South-East-Queensland,AU,-27.4065,153.1527
NGEL_OAPM_00038,Wynnum,South-East-Queensland,AU,-27.4296,153.1581
NGEL_OAPM_00039,Wynnum-West,South-East-Queensland,AU,-27.4379,153.1495
NGEL_OAPM_00040,Cannon-Hill,South-East-Queensland,AU,-27.4654,153.0872
NGEL_OAPM_00041,South-Brisbane,South-East-Queensland,AU,-27.4848,153.0321
NGEL_OAPM_00042,Woolloongabba,South-East-Queensland,AU,-27.4975,153.035
NGEL_OAPM_00043,Rocklea,South-East-Queensland,AU,-27.5358,152.9934
NGEL_OAPM_00044,Springwood,South-East-Queensland,AU,-27.6125,153.1359
NGEL_OAPM_00045,Huasco-Sivica,Huasco,CL,-28.469998068842,-71.219652562817
NGEL_OAPM_00046,La-Serena,Coquimbo,CL,-29.933006518748,-71.261966365967
NGEL_OAPM_00047,Coquimbo,Coquimbo,CL,-29.970390235273,-71.336038250122
NGEL_OAPM_00048,Tamworth,North-west-Slopes,AU,-31.1105556,150.9141667
NGEL_OAPM_00049,Wyong,Central-Coast,AU,-32.195,150.6736111
NGEL_OAPM_00050,Muswellbrook,Upper-Hunter---Muswellbrook,AU,-32.2716667,150.8858333
NGEL_OAPM_00051,Singleton,Upper-Hunter---Singleton,AU,-32.5297222,151.1497222
NGEL_OAPM_00052,Ventanas,Puchuncaví,CL,-32.77898790221,-71.373031276855
NGEL_OAPM_00053,Wallsend,Lower-Hunter,AU,-32.8961111,151.6691667
NGEL_OAPM_00054,Viña-del-Mar,Viña-del-Mar,CL,-33.020419817382,-71.550092842922
NGEL_OAPM_00055,Valparaiso,Valparaíso,CL,-33.049743798096,-71.614167231712
NGEL_OAPM_00056,QUILICURA-,Quilicura,CL,-33.349626928347,-70.723792612552
NGEL_OAPM_00057,Las-Condes,Las-Condes,CL,-33.37677352033,-70.523326784061
NGEL_OAPM_00058,Bathurst,Central-Tablelands,AU,-33.4033333,149.5733333
NGEL_OAPM_00059,Independencia,Independencia,CL,-33.422301,-70.651162
NGEL_OAPM_00060,Cerro-Navia,Cerro-Navia,CL,-33.433089610143,-70.732147868717
NGEL_OAPM_00061,Pudahuel,Pudahuel,CL,-33.437811379126,-70.750171233135
NGEL_OAPM_00062,Parque-O'Higgins,Santiago,CL,-33.464142,-70.660797
NGEL_OAPM_00063,Cerrillos,Cerrillos,CL,-33.495821530652,-70.704282224178
NGEL_OAPM_00064,La-Florida,La-Florida,CL,-33.516630362266,-70.588123961971
NGEL_OAPM_00065,El-Bosque,El-Bosque,CL,-33.547099645619,-70.666204101852
NGEL_OAPM_00066,Puente-Alto,Puente-Alto,CL,-33.591390623022,-70.594788
NGEL_OAPM_00067,Richmond,Sydney-North-west,AU,-33.6183333,150.7458333
NGEL_OAPM_00068,Talagante,Talagante,CL,-33.673752071375,-70.953064737434
NGEL_OAPM_00069,Randwick,Sydney-East,AU,-33.9333333,151.2419444
NGEL_OAPM_00070,Rancagua-II,Rancagua,CL,-34.143888375919,-70.737131207664
NGEL_OAPM_00071,Rancagua-I,Rancagua,CL,-34.162314609087,-70.713919225517
NGEL_OAPM_00072,Bargo,Sydney-South-west,AU,-34.3075,150.58
NGEL_OAPM_00073,Rengo,Rengo,CL,-34.394541417902,-70.852981542328
NGEL_OAPM_00074,Wollongong,Illawarra,AU,-34.4186111,150.8863889
NGEL_OAPM_00075,San-Fernando,San-Fernando,CL,-34.579759917069,-70.989685186508
NGEL_OAPM_00076,Curicó,Curicó,CL,-34.974925077541,-71.233967512329
NGEL_OAPM_00077,Universidad-de-Talca,Talca,CL,-35.406582744695,-71.633396474869
NGEL_OAPM_00078,La-Florida,Talca,CL,-35.435141887663,-71.678261499336
NGEL_OAPM_00079,U.C.-Maule,Maule,CL,-35.435725588722,-71.619553864003
NGEL_OAPM_00080,Linares,Linares,CL,-35.836942234921,-71.592865853985
NGEL_OAPM_00081,Albury,South-west-Slopes,AU,-36.0516667,146.9741667
NGEL_OAPM_00082,INIA--Chillán,Chillán,CL,-36.594880886514,-72.089253650482
NGEL_OAPM_00083,Liceo-Polivalente,Tomé,CL,-36.601713211434,-72.958522830688
NGEL_OAPM_00084,Puren,Chillán,CL,-36.616167751711,-72.093040558483
NGEL_OAPM_00085,Consultorio---San-Vicente,Talcahuano,CL,-36.723695141848,-73.123658865174
NGEL_OAPM_00086,Nueva-Libertad,Talcahuano,CL,-36.735998,-73.118693
NGEL_OAPM_00087,Kingston-College,Concepción,CL,-36.784653741124,-73.052063025795
NGEL_OAPM_00088,Punteras,Chiguayante,CL,-36.923329602986,-73.036132300941
NGEL_OAPM_00089,Hualqui,Hualqui,CL,-36.97743148785,-72.932017713268
NGEL_OAPM_00090,Cerro-Merquín,Coronel,CL,-37.021182877699,-73.149555550926
NGEL_OAPM_00091,21-de-mayo,Los-Angeles,CL,-37.471182288689,-72.36146284977
NGEL_OAPM_00092,Balneario-Curanilahue,Curanilahue,CL,-37.485131692556,-73.331626473541
NGEL_OAPM_00093,Ñielol,Temuco,CL,-38.727003260042,-72.580001950264
NGEL_OAPM_00094,Las-Encinas-Temuco,Temuco,CL,-38.74869912298,-72.620788228172
NGEL_OAPM_00095,Padre-Las-Casas-II,Padre-las-Casas,CL,-38.764767451719,-72.598795682209
NGEL_OAPM_00096,Valdivia,Valdivia,CL,-39.831316104673,-73.22851282209
NGEL_OAPM_00097,Osorno,Osorno,CL,-40.584478665958,-73.11871982209
NGEL_OAPM_00098,Smithton,Tasmania-Region,AU,-40.8505,145.133
NGEL_OAPM_00099,Wynyard,Tasmania-Region,AU,-40.9918,145.719
NGEL_OAPM_00100,Emu-River,Tasmania-Region,AU,-41.1081,145.883
NGEL_OAPM_00101,George-Town,Tasmania-Region,AU,-41.1109,146.836
NGEL_OAPM_00102,Derby,Tasmania-Region,AU,-41.1499,147.804
NGEL_OAPM_00103,Scottsdale,Tasmania-Region,AU,-41.1574,147.514
NGEL_OAPM_00104,West-Ulverstone,Tasmania-Region,AU,-41.1586,146.146
NGEL_OAPM_00105,Devonport,Tasmania-Region,AU,-41.1848,146.346
NGEL_OAPM_00106,Lilydale,Tasmania-Region,AU,-41.2417,147.214
NGEL_OAPM_00107,Exeter,Tasmania-Region,AU,-41.3056,146.951
NGEL_OAPM_00108,St-Helens,Tasmania-Region,AU,-41.3061,148.219
NGEL_OAPM_00109,Sheffield,Tasmania-Region,AU,-41.3936,146.338
NGEL_OAPM_00110,Alerce,Puerto-Montt,CL,-41.399169537038,-72.899522781372
NGEL_OAPM_00111,Ti-Tree-Bend,Tasmania-Region,AU,-41.4174,147.125
NGEL_OAPM_00112,South-Launceston,Tasmania-Region,AU,-41.4441,147.148
NGEL_OAPM_00113,Mirasol,Puerto-Montt,CL,-41.4795069236,-72.968755930145
NGEL_OAPM_00114,Hadspen,Tasmania-Region,AU,-41.5032,147.067
NGEL_OAPM_00115,Deloraine,Tasmania-Region,AU,-41.5224,146.66
NGEL_OAPM_00116,Westbury,Tasmania-Region,AU,-41.5301,146.835
NGEL_OAPM_00117,Perth,Tasmania-Region,AU,-41.5724,147.174
NGEL_OAPM_00118,Longford,Tasmania-Region,AU,-41.6015,147.119
NGEL_OAPM_00119,Fingal,Tasmania-Region,AU,-41.6432,147.981
NGEL_OAPM_00120,Poatina,Tasmania-Region,AU,-41.7866,146.988
NGEL_OAPM_00121,Campbell-Town,Tasmania-Region,AU,-41.9281,147.491
NGEL_OAPM_00122,Oatlands,Tasmania-Region,AU,-42.3003,147.372
NGEL_OAPM_00123,Triabunna,Tasmania-Region,AU,-42.5089,147.913
NGEL_OAPM_00124,Gretna,Tasmania-Region,AU,-42.6833,146.936
NGEL_OAPM_00125,New-Norfolk,Tasmania-Region,AU,-42.776,147.054
NGEL_OAPM_00126,Bream-Creek,Tasmania-Region,AU,-42.8194,147.817
NGEL_OAPM_00127,Glenorchy,Tasmania-Region,AU,-42.8419,147.271
NGEL_OAPM_00128,Hobart,Tasmania-Region,AU,-42.8546,147.315
NGEL_OAPM_00129,Mornington,Tasmania-Region,AU,-42.8608,147.404
NGEL_OAPM_00130,Judbury,Tasmania-Region,AU,-43.0092,146.944
NGEL_OAPM_00131,Huonville,Tasmania-Region,AU,-43.0322,147.051
NGEL_OAPM_00132,Cygnet,Tasmania-Region,AU,-43.1587,147.072
NGEL_OAPM_00133,Geeveston,Tasmania-Region,AU,-43.1689,146.927
NGEL_OAPM_00134,Coyhaique-II,Coyhaique,CL,-45.579045667164,-72.049964505825
NGEL_OAPM_00135,Coyhaique,Coyhaique,CL,-45.57996447948,-72.061125987766
NGEL_OAPM_00136,Punta-Arenas,Punta-Arenas,CL,-53.158295492238,-70.921497482453
NGEL_OAPM_00137,US-Diplomatic-Post:-Jakarta-Central,Jakarta,ID,-6.182536,106.834236
NGEL_OAPM_00138,US-Diplomatic-Post:-Kampala,Kampala,UG,0.300225,32.591553
NGEL_OAPM_00139,US-Diplomatic-Post:-Ho-Chi-Minh-City,Ho-Chi-Minh-City,VN,10.782773,106.700035
NGEL_OAPM_00140,BTM-Layout,Bengaluru,IN,12.91281111,77.60921944
NGEL_OAPM_00141,BWSSB-Kadabesanahalli,Bengaluru,IN,12.93890556,77.69727222
NGEL_OAPM_00142,Alandur-Bus-Depot,Chennai,IN,12.99711389,80.19151667
NGEL_OAPM_00143,Peenya,Bengaluru,IN,13.0339,77.51321111
NGEL_OAPM_00144,US-Diplomatic-Post:-Chennai,Chennai,IN,13.08784,80.27847
NGEL_OAPM_00145,Manali,Chennai,IN,13.164544,80.26285
NGEL_OAPM_00146,ZooPark--Hyderabad---TSPCB,Hyderabad,IN,17.349694,78.451437
NGEL_OAPM_00147,US-Diplomatic-Post:-Hyderabad,Hyderabad,IN,17.38405,78.45636
NGEL_OAPM_00148,Sanathnagar--Hyderabad---TSPCB,Hyderabad,IN,17.42329722,78.47469722
NGEL_OAPM_00149,Maharashtra-Pollution-Control-Board---Solapur,Solapur,IN,17.6599188,75.9063906
NGEL_OAPM_00150,Ponce,PONCE,US,18.009556,-66.62725
NGEL_OAPM_00151,Bayamon-37-(NCore),BAYAMON,US,18.41923,-66.15042
NGEL_OAPM_00152,Cataño-40,CATANO,US,18.428388,-66.141657
NGEL_OAPM_00153,AAQMS-Karve-Road-Pune,Pune,IN,18.497484,73.81349
NGEL_OAPM_00154,Maharashtra-Pollution-Control-Board-Bandra,Mumbai,IN,19.041847,72.865513
NGEL_OAPM_00155,US-Diplomatic-Post:-Mumbai,Mumbai,IN,19.07283,72.88261
NGEL_OAPM_00156,Ocean-View,Hilo,US,19.117561,-155.778137
NGEL_OAPM_00157,Navi-Mumbai-Municipal-Corporation-Airoli,Mumbai,IN,19.1494,72.9986
NGEL_OAPM_00158,Pahala,Hilo,US,19.2065,-155.4689
NGEL_OAPM_00159,UAM-Xochimilco,DISTRITO-FEDERAL,MX,19.3044,-99.0738
NGEL_OAPM_00160,Coyoacán,DISTRITO-FEDERAL,MX,19.3502,-99.1571
NGEL_OAPM_00161,Santa-Fe,DISTRITO-FEDERAL,MX,19.3573,-99.2628
NGEL_OAPM_00162,Nezahualcóyotl,MEXICO-STATE,MX,19.3919,-99.0281
NGEL_OAPM_00163,Hospital-General-de,DISTRITO-FEDERAL,MX,19.4116,-99.1522
NGEL_OAPM_00164,Merced,DISTRITO-FEDERAL,MX,19.4246,-99.1195
NGEL_OAPM_00165,Camarones,DISTRITO-FEDERAL,MX,19.4684,-99.1697
NGEL_OAPM_00166,Kona,Hilo,US,19.5097,-155.9133
NGEL_OAPM_00167,Tlalnepantla,MEXICO-STATE,MX,19.529,-99.2045
NGEL_OAPM_00168,San-Agustín,MEXICO-STATE,MX,19.5329,-99.0303
NGEL_OAPM_00169,Mountain-View,HAWAII,US,19.555445,-155.102036
NGEL_OAPM_00170,Hilo,Hilo,US,19.717562,-155.110535
NGEL_OAPM_00171,Chandrapur,Chandrapur,IN,19.95,79.3
NGEL_OAPM_00172,Estación-Teódula,GUANAJUATO,MX,20.657939,-101.34915
NGEL_OAPM_00173,Estación-Bomberos,GUANAJUATO,MX,20.67495,-101.35595
NGEL_OAPM_00174,Kihei--Maui,Kahului-Wailuku,US,20.7808,-156.4461
NGEL_OAPM_00175,KAHULUI,MAUI,US,20.869444,-156.492417
NGEL_OAPM_00176,US-Diplomatic-Post:-Hanoi,Hanoi,VN,21.021938,105.81881
NGEL_OAPM_00177,SAND-ISLAND-2---ANUE,Honolulu,US,21.3039,-157.8711
NGEL_OAPM_00178,Honolulu,Honolulu,US,21.310301,-157.858093
NGEL_OAPM_00179,Kapolei,Honolulu,US,21.323601,-158.088593
NGEL_OAPM_00180,Pearl-City,Honolulu,US,21.392834,-157.969131
NGEL_OAPM_00181,US-Diplomatic-Post:-Kolkata,Kolkata,IN,22.56263,88.36304
NGEL_OAPM_00182,Guangzhou,Guangzhou,CN,23.12,113.32
NGEL_OAPM_00183,US-Diplomatic-Post:-Dhaka,Dhaka,BD,23.796373,90.424614
NGEL_OAPM_00184,Ardhali-Bazar,Varanasi,IN,25.35055556,82.97833333
NGEL_OAPM_00185,NCORE,BROWARD,US,26.054047,-80.257608
NGEL_OAPM_00186,V_VIEW,Miami-Fort-Lauderdale-Miami-Beach,US,26.0732,-80.3386
NGEL_OAPM_00187,Near-Road,BROWARD,US,26.131256,-80.167847
NGEL_OAPM_00188,US-Diplomatic-Post:-Manama,Manama,BH,26.204697,50.57083
NGEL_OAPM_00189,Mission-C43,McAllen-Edinburg-Mission,US,26.226226,-98.29107
NGEL_OAPM_00190,Collectorate-Jodhpur---RSPCB,Jodhpur,IN,26.2920639,73.0379111111111
NGEL_OAPM_00191,Laurel-Oaks-Elementa,Naples-Marco-Island,US,26.2992,-81.72
NGEL_OAPM_00192,Nehru-Nagar,Kanpur,IN,26.4703088,80.3251749
NGEL_OAPM_00193,Winkler-Pump-Station,Cape-Coral-Fort-Myers,US,26.6028,-81.8789
NGEL_OAPM_00194,Belle-Glade,PALM-BEACH,US,26.724167,-80.663055
NGEL_OAPM_00195,Talkatora-District-Industries-Center,Lucknow,IN,26.83399722,80.8917361
NGEL_OAPM_00196,Lalbagh--DN-Park,Lucknow,IN,26.84578611,80.93874444
NGEL_OAPM_00197,Central-School,Lucknow,IN,26.85272778,80.99632778
NGEL_OAPM_00198,Jackson-Road,Sarasota-Bradenton-Venice,US,27.0892,-82.3625
NGEL_OAPM_00199,Stuart,MARTIN,US,27.172459,-80.240692
NGEL_OAPM_00200,Sanjay-Palace,Agra,IN,27.19865833,78.00598056
NGEL_OAPM_00201,Bee-Ridge,Sarasota-Bradenton-Venice,US,27.2906,-82.5072
NGEL_OAPM_00202,Laredo-C313,Laredo,US,27.5994,-99.5333
NGEL_OAPM_00203,US-Diplomatic-Post:-Phora-Durbar-Kathmandu,Kathmandu,NP,27.712463,85.315704
NGEL_OAPM_00204,US-Diplomatic-Post:-Embassy-Kathmandu,Kathmandu,NP,27.738703,85.336205
NGEL_OAPM_00205,APOLLO-BEACH,HILLSBOROUGH,US,27.779712,-82.419835
NGEL_OAPM_00206,Azalea,Tampa-St.-Petersburg-Clearwater,US,27.7858,-82.74
NGEL_OAPM_00207,GANDY,Tampa-St.-Petersburg-Clearwater,US,27.8928,-82.5383
NGEL_OAPM_00208,SYDNEY,Tampa-St.-Petersburg-Clearwater,US,27.9659,-82.230617
NGEL_OAPM_00209,Fl.-Baptist-Children,Lakeland,US,28.0294,-81.9719
NGEL_OAPM_00210,Melbourne,Palm-Bay-Melbourne-Titusville,US,28.0542,-80.6283
NGEL_OAPM_00211,John-A.-Chesnut-Sr.,Tampa-St.-Petersburg-Clearwater,US,28.0903,-82.7008
NGEL_OAPM_00212,Sector16A-Faridabad,Faridabad,IN,28.41012222,77.313775
NGEL_OAPM_00213,Vikas-Sadan-Gurgaon---HSPCB,Gurgaon,IN,28.4501285,77.0263051
NGEL_OAPM_00214,NSIT-Dwarka,Delhi,IN,28.591,77.05
NGEL_OAPM_00215,Winter-Park,Orlando-Kissimmee,US,28.5997,-81.3628
NGEL_OAPM_00216,Income-Tax-Office,Delhi,IN,28.6235,77.2494
NGEL_OAPM_00217,US-Diplomatic-Post:-New-Delhi,Delhi,IN,28.63576,77.22445
NGEL_OAPM_00218,Shadipur,Delhi,IN,28.6517,77.1581
NGEL_OAPM_00219,IHBAS,Delhi,IN,28.6821,77.305
NGEL_OAPM_00220,Eagle-Pass-C319,Eagle-Pass,US,28.704607,-100.451155
NGEL_OAPM_00221,Delhi-Technological-University,Delhi,IN,28.744,77.12
NGEL_OAPM_00222,Crystal-River-Preser,Homosassa-Springs,US,28.958372,-82.643094
NGEL_OAPM_00223,YMCA---Marion-County,Ocala,US,29.170799,-82.1008
NGEL_OAPM_00224,Blind-Services;-1185,Deltona-Daytona-Beach-Ormond-Beach,US,29.2069,-81.0531
NGEL_OAPM_00225,Calaveras-Lake-C59,San-Antonio,US,29.275299,-98.311699
NGEL_OAPM_00226,US-Diplomatic-Post:-Kuwait-City,Kuwait-City,KW,29.292316,48.04768
NGEL_OAPM_00227,San-Antonio-Palo-Alt,San-Antonio,US,29.332803,-98.551396
NGEL_OAPM_00228,Heritage-Middle-Scho,San-Antonio,US,29.35291,-98.332838
NGEL_OAPM_00229,San-Antonio-Old-Hwy9,San-Antonio,US,29.423933,-98.580505
NGEL_OAPM_00230,San-Antonio-Northwes,San-Antonio,US,29.514999,-98.620003
NGEL_OAPM_00231,Selma-C301,San-Antonio,US,29.5875,-98.3122
NGEL_OAPM_00232,Thibodaux,Houma-Bayou-Cane-Thibodaux,US,29.7639,-90.7653
NGEL_OAPM_00233,Fayette-C601,FAYETTE,US,29.962474,-96.745875
NGEL_OAPM_00234,City-Park,New-Orleans-Metairie-Kenner,US,29.9933,-90.1014
NGEL_OAPM_00235,Kenner,New-Orleans-Metairie-Kenner,US,30.0411,-90.2728
NGEL_OAPM_00236,St.-Andrews-Park,Panama-City-Lynn-Haven,US,30.128901,-85.738098
NGEL_OAPM_00237,Mandarin,Jacksonville,US,30.1358,-81.6339
NGEL_OAPM_00238,Lake-City,Lake-City,US,30.1783,-82.6192
NGEL_OAPM_00239,Lafayette,Lafayette,US,30.2258,-92.042801
NGEL_OAPM_00240,Mayo-Clinic,Jacksonville,US,30.2603,-81.4533
NGEL_OAPM_00241,Westlake,Lake-Charles,US,30.2625,-93.285
NGEL_OAPM_00242,Pepsi-Place,Jacksonville,US,30.262808,-81.606834
NGEL_OAPM_00243,French-Settlement,Baton-Rouge,US,30.315,-90.8114
NGEL_OAPM_00244,Conroe-Relocated-C78,Houston-Sugar-Land-Baytown,US,30.3503,-95.425
NGEL_OAPM_00245,Austin-Northwest-C3,Austin-Round-Rock,US,30.3542,-97.760002
NGEL_OAPM_00246,GPORT-YC,Gulfport-Biloxi,US,30.39,-89.0497
NGEL_OAPM_00247,White-Springs,HAMILTON,US,30.4264,-82.7947
NGEL_OAPM_00248,Madisonville,New-Orleans-Metairie-Kenner,US,30.4293,-90.1997
NGEL_OAPM_00249,Tallahassee-Communit,Tallahassee,US,30.4397,-84.3483
NGEL_OAPM_00250,Capitol,Baton-Rouge,US,30.4622,-91.1769
NGEL_OAPM_00251,Sheffield-Elementary,Jacksonville,US,30.4758,-81.5869
NGEL_OAPM_00252,Audubon-C38,Austin-Round-Rock,US,30.483168,-97.8723
NGEL_OAPM_00253,Yulee,Jacksonville,US,30.62673,-81.53597
NGEL_OAPM_00254,Chengdu,Chengdu,CN,30.63,104.07
NGEL_OAPM_00255,Sector-6-Panchkula---HSPCB,Panchkula,IN,30.7057778,76.8531805555555
NGEL_OAPM_00256,CHICK.,Mobile,US,30.7697,-88.0875
NGEL_OAPM_00257,Bonifay,HOLMES,US,30.8475,-85.6044
NGEL_OAPM_00258,Valdosta,Valdosta,US,30.8486,-83.2933
NGEL_OAPM_00259,Shanghai,Shanghai,CN,31.21,121.44
NGEL_OAPM_00260,Hattiesburg,Hattiesburg,US,31.322779,-89.287498
NGEL_OAPM_00261,Nogales-Post-Office,Nogales,US,31.337204,-110.936722
NGEL_OAPM_00262,Douglas-Red-Cross,Sierra-Vista-Douglas,US,31.3492,-109.539683
NGEL_OAPM_00263,Waco-C1037,Waco,US,31.6531,-97.0706
NGEL_OAPM_00264,Socorro-Hueco-C49,El-Paso,US,31.66752,-106.28774
NGEL_OAPM_00265,Ascarate-Park-Southe,El-Paso,US,31.7467,-106.402802
NGEL_OAPM_00266,El-Paso-UTEP-C12,El-Paso,US,31.768056,-106.501111
NGEL_OAPM_00267,Odessa-Gonzales-C101,Odessa,US,31.870253,-102.334756
NGEL_OAPM_00268,Green-Valley,Tucson,US,31.8794,-110.9964
NGEL_OAPM_00269,Anthony,Las-Cruces,US,32.0036,-106.5992
NGEL_OAPM_00270,Corsicana-C1051,Corsicana,US,32.0319,-96.3992
NGEL_OAPM_00271,Savannah-L&A,Savannah,US,32.0903,-81.1306
NGEL_OAPM_00272,Rose-Elementary,Tucson,US,32.1731,-110.9797
NGEL_OAPM_00273,Geronimo,Tucson,US,32.25,-110.9667
NGEL_OAPM_00274,Children's-Park-Site,Tucson,US,32.2953,-110.9822
NGEL_OAPM_00275,Hinds-CC,Jackson,US,32.346905,-90.225928
NGEL_OAPM_00276,Ward,SUMTER,US,32.36253,-88.27792
NGEL_OAPM_00277,Coachline,Tucson,US,32.3806,-111.1272
NGEL_OAPM_00278,MONTG,Montgomery,US,32.4069,-86.2564
NGEL_OAPM_00279,Midlothian-OFW-C52,Dallas-Fort-Worth-Arlington,US,32.482081,-97.026922
NGEL_OAPM_00280,Columbus-Airport,Columbus,US,32.5214,-84.9436
NGEL_OAPM_00281,Shreveport-Airport,Shreveport-Bossier-City,US,32.5364,-93.7492
NGEL_OAPM_00282,Kaufman-C71,Dallas-Fort-Worth-Arlington,US,32.565,-96.3175
NGEL_OAPM_00283,Otay-Mesa---Donovan,San-Diego-Carlsbad-San-Marcos,US,32.579361,-116.929486
NGEL_OAPM_00284,Warner-Robins,Warner-Robins,US,32.6056,-83.5979
NGEL_OAPM_00285,Arlington-Municipal,Dallas-Fort-Worth-Arlington,US,32.6558,-97.0886
NGEL_OAPM_00286,Karnack-C85,Marshall,US,32.6706,-94.1681
NGEL_OAPM_00287,Calexico---Ethel-Str,El-Centro,US,32.676102,-115.483299
NGEL_OAPM_00288,Yuma-Supersite,Yuma,US,32.690277,-114.614441
NGEL_OAPM_00289,Haws-Athletic-Center,Dallas-Fort-Worth-Arlington,US,32.7592,-97.3414
NGEL_OAPM_00290,El-Cajon---Lexington,San-Diego-Carlsbad-San-Marcos,US,32.789561,-116.944222
NGEL_OAPM_00291,Charleston-Public-Wo,Charleston-North-Charleston,US,32.791,-79.959
NGEL_OAPM_00292,Macon-Forestry,Macon,US,32.8031,-83.5447
NGEL_OAPM_00293,Alpine,San-Diego-Carlsbad-San-Marcos,US,32.842297,-116.768326
NGEL_OAPM_00294,Cape-Romain,Charleston-North-Charleston,US,32.941002,-79.656998
NGEL_OAPM_00295,Ashton,Walterboro,US,33.007801,-80.964996
NGEL_OAPM_00296,Denton-Airport-South,Dallas-Fort-Worth-Arlington,US,33.1944,-97.1933
NGEL_OAPM_00297,Niland---English-Roa,El-Centro,US,33.2136,-115.5444
NGEL_OAPM_00298,El-Dorado,El-Dorado,US,33.215,-92.6689
NGEL_OAPM_00299,Camp-Pendleton,San-Diego-Carlsbad-San-Marcos,US,33.217026,-117.396156
NGEL_OAPM_00300,MCADORY,Birmingham-Hoover,US,33.3311,-87.0036
NGEL_OAPM_00301,HOOVER,Birmingham-Hoover,US,33.3864,-86.8167
NGEL_OAPM_00302,Diablo,Phoenix-Mesa-Scottsdale,US,33.3961,-111.968
NGEL_OAPM_00303,South-Phoenix,Phoenix-Mesa-Scottsdale,US,33.4033,-112.0731
NGEL_OAPM_00304,Newnan,Atlanta-Sandy-Springs-Marietta,US,33.4039,-84.7461
NGEL_OAPM_00305,Mesa---Brooks-Reserv,Phoenix-Mesa-Scottsdale,US,33.4105,-111.8651
NGEL_OAPM_00306,Tempe,Phoenix-Mesa-Scottsdale,US,33.4124,-111.9347
NGEL_OAPM_00307,Durango,Phoenix-Mesa-Scottsdale,US,33.4265,-112.1181
NGEL_OAPM_00308,Augusta,Augusta-Richmond-County,US,33.4333,-82.0219
NGEL_OAPM_00309,McDonough,Atlanta-Sandy-Springs-Marietta,US,33.4347,-84.1617
NGEL_OAPM_00310,West-Phoenix,Phoenix-Mesa-Scottsdale,US,33.483799,-112.142601
NGEL_OAPM_00311,WYLAM,Birmingham-Hoover,US,33.4997,-86.9242
NGEL_OAPM_00312,Phoenix-JLG-Supersit,Phoenix-Mesa-Scottsdale,US,33.503601,-112.095001
NGEL_OAPM_00313,LEEDS,Birmingham-Hoover,US,33.5453,-86.5492
NGEL_OAPM_00314,NO.-BHAM,Birmingham-Hoover,US,33.5531,-86.815
NGEL_OAPM_00315,North-Phoenix,Phoenix-Mesa-Scottsdale,US,33.560299,-112.066299
NGEL_OAPM_00316,Glendale-Community-C,Phoenix-Mesa-Scottsdale,US,33.5694,-112.1915
NGEL_OAPM_00317,Temecula-(Lake-Skinn,Riverside-San-Bernardino-Ontario,US,33.583099,-117.072197
NGEL_OAPM_00318,Lake-Elsinore---W.-F,Riverside-San-Bernardino-Ontario,US,33.676535,-117.331027
NGEL_OAPM_00319,South-DeKalb,Atlanta-Sandy-Springs-Marietta,US,33.6906,-84.2731
NGEL_OAPM_00320,Confederate-Ave,Atlanta-Sandy-Springs-Marietta,US,33.7206,-84.3578
NGEL_OAPM_00321,Trenton,Augusta-Richmond-County,US,33.7397,-81.8536
NGEL_OAPM_00322,South-Long-Beach,Los-Angeles-Long-Beach-Santa-Ana,US,33.792221,-118.175278
NGEL_OAPM_00323,CORNER,Birmingham-Hoover,US,33.8017,-86.9425
NGEL_OAPM_00324,Anaheim,Los-Angeles-Long-Beach-Santa-Ana,US,33.830586,-117.938509
NGEL_OAPM_00325,710-Near-Road,LOS-ANGELES,US,33.859662,-118.200707
NGEL_OAPM_00326,Banning---South-Hath,Riverside-San-Bernardino-Ontario,US,33.920758,-116.858419
NGEL_OAPM_00327,Athens,Athens-Clarke-County,US,33.925,-83.3575
NGEL_OAPM_00328,Gwinnett-Tech,Atlanta-Sandy-Springs-Marietta,US,33.9636,-84.0664
NGEL_OAPM_00329,GADSDEN,Gadsden,US,33.991341,-85.992653
NGEL_OAPM_00330,Mira-Loma---Van-Bure,Riverside-San-Bernardino-Ontario,US,33.996387,-117.4925
NGEL_OAPM_00331,Riverside---Rubidoux,Riverside-San-Bernardino-Ontario,US,33.999449,-117.415831
NGEL_OAPM_00332,60-Near-Road,SAN-BERNARDINO,US,34.0309,-117.617403
NGEL_OAPM_00333,Irmo,Columbia,US,34.051102,-81.154999
NGEL_OAPM_00334,Los-Angeles---N.-Mai,Los-Angeles-Long-Beach-Santa-Ana,US,34.066429,-118.226755
NGEL_OAPM_00335,Parklane,Columbia,US,34.093899,-80.962196
NGEL_OAPM_00336,Upland,Riverside-San-Bernardino-Ontario,US,34.10366,-117.629096
NGEL_OAPM_00337,Glendora---Laurel,Los-Angeles-Long-Beach-Santa-Ana,US,34.1439,-117.8508
NGEL_OAPM_00338,Reseda,Los-Angeles-Long-Beach-Santa-Ana,US,34.1992,-118.5331
NGEL_OAPM_00339,Thousand-Oaks---Moor,Oxnard-Thousand-Oaks-Ventura,US,34.21,-118.8694
NGEL_OAPM_00340,Williams-Middle-Scho,Florence,US,34.2143,-79.7673
NGEL_OAPM_00341,Crestline---Lake-Gre,Riverside-San-Bernardino-Ontario,US,34.243132,-117.272275
NGEL_OAPM_00342,Alamo-Lake,LA-PAZ,US,34.243889,-113.558611
NGEL_OAPM_00343,Healdton,Ardmore,US,34.256901,-97.474197
NGEL_OAPM_00344,El-Rio---Rio-Mesa-Sc,Oxnard-Thousand-Oaks-Ventura,US,34.2653,-119.1336
NGEL_OAPM_00345,Simi-Valley---Cochra,Oxnard-Thousand-Oaks-Ventura,US,34.2775,-118.6847
NGEL_OAPM_00346,CASTLE-H,Wilmington,US,34.3561,-77.8617
NGEL_OAPM_00347,Santa-Clarita,Los-Angeles-Long-Beach-Santa-Ana,US,34.3833,-118.5283
NGEL_OAPM_00348,Piru---Pacific,Oxnard-Thousand-Oaks-Ventura,US,34.4044,-118.81
NGEL_OAPM_00349,Goleta,Santa-Barbara-Santa-Maria,US,34.445301,-119.827797
NGEL_OAPM_00350,Ojai---Ojai-Ave.,Oxnard-Thousand-Oaks-Ventura,US,34.4483,-119.2303
NGEL_OAPM_00351,DECATUR,Decatur,US,34.5286,-86.9706
NGEL_OAPM_00352,Chesterfield,CHESTERFIELD,US,34.615299,-80.198898
NGEL_OAPM_00353,Lawton-North,Lawton,US,34.632999,-98.428802
NGEL_OAPM_00354,Lompoc-H-Street,Santa-Barbara-Santa-Maria,US,34.637798,-120.456703
NGEL_OAPM_00355,Lancaster-Division,Los-Angeles-Long-Beach-Santa-Ana,US,34.669589,-118.130689
NGEL_OAPM_00356,ADEQ-DSR,Little-Rock-North-Little-Rock,US,34.6811,-92.3283
NGEL_OAPM_00357,Huntsville-Old-Airpo,Huntsville,US,34.6917,-86.591698
NGEL_OAPM_00358,PARR,Little-Rock-North-Little-Rock,US,34.7561,-92.2758
NGEL_OAPM_00359,Long-Creek,Seneca,US,34.805,-83.237503
NGEL_OAPM_00360,HERNANDO,Memphis,US,34.8275,-89.9889
NGEL_OAPM_00361,Lebec,KERN,US,34.8416,-118.8647
NGEL_OAPM_00362,Greenville-ESC,Greenville,US,34.843899,-82.414597
NGEL_OAPM_00363,McAlester,McAlester,US,34.906082,-95.794128
NGEL_OAPM_00364,Santa-Maria---Broadw,Santa-Barbara-Santa-Maria,US,34.9481,-120.4344
NGEL_OAPM_00365,TK-Gregg,Spartanburg,US,34.955601,-81.924797
NGEL_OAPM_00366,Rossville,Chattanooga,US,34.9789,-85.3009
NGEL_OAPM_00367,South-Valley,Albuquerque,US,35.0186,-106.651901
NGEL_OAPM_00368,Mesa-2-/Nipomo,San-Luis-Obispo-Paso-Robles,US,35.02079,-120.56389
NGEL_OAPM_00369,W-OWEN-SCH,Fayetteville,US,35.041401,-78.953102
NGEL_OAPM_00370,Nipomo-Mesa-CDF,SAN-LUIS-OBISPO,US,35.04676,-120.58777
NGEL_OAPM_00371,Mojave---923-Poole-S,Bakersfield,US,35.0506,-118.1464
NGEL_OAPM_00372,Riverside,Chattanooga,US,35.0508,-85.2931
NGEL_OAPM_00373,Del-Norte,Albuquerque,US,35.1353,-106.584702
NGEL_OAPM_00374,Montclaire,Charlotte-Gastonia-Concord,US,35.1514,-80.8669
NGEL_OAPM_00375,SHELBY-FARMS,Memphis,US,35.151588,-89.85022
NGEL_OAPM_00376,Tramway,Albuquerque,US,35.185,-106.5077
NGEL_OAPM_00377,MARION,Memphis,US,35.1967,-90.1911
NGEL_OAPM_00378,Amarillo-Texas-A&M-C,Amarillo,US,35.2006,-101.9083
NGEL_OAPM_00379,Remount,Charlotte-Gastonia-Concord,US,35.213171,-80.874084
NGEL_OAPM_00380,GARINGER,Charlotte-Gastonia-Concord,US,35.2411,-80.7831
NGEL_OAPM_00381,San-Luis-Obispo---Hi,SAN-LUIS-OBISPO,US,35.25639,-120.668892
NGEL_OAPM_00382,Candor-FRO,MONTGOMERY,US,35.2632,-79.8635
NGEL_OAPM_00383,Moore,Oklahoma-City,US,35.32,-97.4883
NGEL_OAPM_00384,Bakersfield---Califo,Bakersfield,US,35.356667,-119.062778
NGEL_OAPM_00385,ROLAND,Fort-Smith,US,35.408138,-94.524414
NGEL_OAPM_00386,Blackstone,LEE,US,35.4325,-79.2887
NGEL_OAPM_00387,BRYSON,SWAIN,US,35.4356,-83.4436
NGEL_OAPM_00388,ATHENS,Athens,US,35.4511,-84.5992
NGEL_OAPM_00389,Atascadero2,San-Luis-Obispo-Paso-Robles,US,35.494556,-120.666203
NGEL_OAPM_00390,JOHNSTON,Raleigh-Cary,US,35.5,-78.4375
NGEL_OAPM_00391,BDED,Asheville,US,35.6075,-82.5833
NGEL_OAPM_00392,North-OKC,Oklahoma-City,US,35.612801,-97.472198
NGEL_OAPM_00393,Look-Rock---GSMNP,Knoxville,US,35.6322,-83.9422
NGEL_OAPM_00394,PITTAGCT,Greenville,US,35.638599,-77.358002
NGEL_OAPM_00395,Columbia,Nashville-Davidson--Murfreesboro,US,35.65188,-87.0096
NGEL_OAPM_00396,Jackson,Jackson,US,35.6567,-88.8092
NGEL_OAPM_00397,HICKORY,Hickory-Lenoir-Morganton,US,35.73,-81.37
NGEL_OAPM_00398,STILWELL-CASTNET-&-N,ADAIR,US,35.750599,-94.669701
NGEL_OAPM_00399,MARYVILL,Knoxville,US,35.7683,-83.9422
NGEL_OAPM_00400,Jean,Las-Vegas-Paradise,US,35.785672,-115.357047
NGEL_OAPM_00401,LWATTOWR,Thomasville-Lexington,US,35.8142,-80.2633
NGEL_OAPM_00402,Millbrook-NCore,Raleigh-Cary,US,35.856098,-78.574203
NGEL_OAPM_00403,Triple-Oak---Near-Ro,Raleigh-Cary,US,35.8652,-78.8197
NGEL_OAPM_00404,Burdens-Creek,Durham,US,35.889402,-78.8747
NGEL_OAPM_00405,Spruce-Pine,MITCHELL,US,35.912487,-82.062082
NGEL_OAPM_00406,Harriman,Harriman,US,35.9386,-84.5439
NGEL_OAPM_00407,Glenpool,Tulsa,US,35.9525,-96.0033
NGEL_OAPM_00408,AIR-LAB,Knoxville,US,35.9803,-83.9306
NGEL_OAPM_00409,LEGGETT,Rocky-Mount,US,35.9889,-77.5867
NGEL_OAPM_00410,Durham-Armory,Durham,US,35.9919,-78.8964
NGEL_OAPM_00411,Clemmons-Middle,Winston-Salem,US,36.0261,-80.3419
NGEL_OAPM_00412,Porterville-NFS,TULARE,US,36.0319,-119.055
NGEL_OAPM_00413,GreenValley,Las-Vegas-Paradise,US,36.048739,-115.052881
NGEL_OAPM_00414,DYERTEOM,Dyersburg,US,36.0528,-89.3819
NGEL_OAPM_00415,MENDNHAL,Greensboro-High-Point,US,36.1092,-79.8011
NGEL_OAPM_00416,HATTIEAVEN,Winston-Salem,US,36.1106,-80.2267
NGEL_OAPM_00417,RT,CLARK,US,36.139881,-115.175572
NGEL_OAPM_00418,Seiling,DEWEY,US,36.1589,-98.9353
NGEL_OAPM_00419,Sunrise-Acres,Las-Vegas-Paradise,US,36.163958,-115.113917
NGEL_OAPM_00420,SPRNGDLE,Fayetteville-Springdale-Rogers,US,36.1797,-94.1167
NGEL_OAPM_00421,Cookeville,PUTNAM,US,36.1857,-85.4921
NGEL_OAPM_00422,J.-D.-Smith,Las-Vegas-Paradise,US,36.191261,-115.122931
NGEL_OAPM_00423,Huron,FRESNO,US,36.1994,-120.0991
NGEL_OAPM_00424,Tulsa,Tulsa,US,36.206699,-95.976402
NGEL_OAPM_00425,HVILLE,Nashville-Davidson--Murfreesboro,US,36.2975,-86.6525
NGEL_OAPM_00426,Hanford---S.-Irwin-S,Hanford-Corcoran,US,36.3144,-119.6436
NGEL_OAPM_00427,Visalia---N.-Church,Visalia-Porterville,US,36.3322,-119.2903
NGEL_OAPM_00428,Taos-Fire-Station,Taos,US,36.3833,-105.5833
NGEL_OAPM_00429,Keeler,Bishop,US,36.4878,-117.871
NGEL_OAPM_00430,Sequoia-and-Kings-Ca,Visalia-Porterville,US,36.489399,-118.826897
NGEL_OAPM_00431,Clarksville,Clarksville,US,36.5144,-87.3278
NGEL_OAPM_00432,Kingsport,Kingsport-Bristol-Bristol,US,36.5408,-82.5217
NGEL_OAPM_00433,Lone-Pine-Paiute/Sho,Bishop,US,36.5975,-118.04
NGEL_OAPM_00434,Tranquillity,FRESNO,US,36.6324,-120.3822
NGEL_OAPM_00435,Ponca-City,KAY,US,36.697189,-97.081278
NGEL_OAPM_00436,Fresno---Garland,FRESNO,US,36.785378,-119.773206
NGEL_OAPM_00437,Mobile-Wyandotte,OTTAWA,US,36.804669,-94.725024
NGEL_OAPM_00438,Copan,WASHINGTON,US,36.908115,-95.88235
NGEL_OAPM_00439,Miami,Miami,US,36.922222,-94.83889
NGEL_OAPM_00440,Madera-City,Madera,US,36.9533,-120.0341
NGEL_OAPM_00441,Gilory---9th-Street,San-Jose-Sunnyvale-Santa-Clara,US,36.999571,-121.574684
NGEL_OAPM_00442,Ute-3,Durango,US,37.10258,-107.870219
NGEL_OAPM_00443,Mammoth-Cave-NP,Bowling-Green,US,37.1314,-86.1481
NGEL_OAPM_00444,Hurricane,WASHINGTON,US,37.179,-113.3052
NGEL_OAPM_00445,Hillcrest-HS,Springfield,US,37.256069,-93.299692
NGEL_OAPM_00446,Merced---S.-Coffee-A,Merced,US,37.2817,-120.433601
NGEL_OAPM_00447,HAZ2,PERRY,US,37.2831,-83.2203
NGEL_OAPM_00448,EAST-VINTON-ELEMENTA,Roanoke,US,37.285599,-79.884201
NGEL_OAPM_00449,San-Jose---Knox-Ave,San-Jose-Sunnyvale-Santa-Clara,US,37.338202,-121.849892
NGEL_OAPM_00450,San-Jose---Jackson-S,San-Jose-Sunnyvale-Santa-Clara,US,37.3483,-121.8947
NGEL_OAPM_00451,NCore---White-Mounta,Bishop,US,37.360701,-118.330835
NGEL_OAPM_00452,Redwood-City,San-Francisco-Oakland-Fremont,US,37.4828,-122.2022
NGEL_OAPM_00453,Turlock---S.-Minaret,Modesto,US,37.4883,-120.8358
NGEL_OAPM_00454,MATH-&-SCIENCE-CTR,Richmond,US,37.55652,-77.40027
NGEL_OAPM_00455,Modesto---14th-Stree,Modesto,US,37.6583,-120.9936
NGEL_OAPM_00456,TracyAP,Stockton,US,37.6825,-121.4406
NGEL_OAPM_00457,Livermore---Rincon,San-Francisco-Oakland-Fremont,US,37.687526,-121.784217
NGEL_OAPM_00458,ELDOSPGS,CEDAR,US,37.70097,-94.03474
NGEL_OAPM_00459,WHlthDpt,Wichita,US,37.7011,-97.3139
NGEL_OAPM_00460,ETOWN2,Elizabethtown,US,37.7064,-85.8517
NGEL_OAPM_00461,Oakland,San-Francisco-Oakland-Fremont,US,37.743061,-122.169907
NGEL_OAPM_00462,Yosemite-Village---V,MARIPOSA,US,37.7486,-119.5869
NGEL_OAPM_00463,San-Francisco,San-Francisco-Oakland-Fremont,US,37.7658,-122.3978
NGEL_OAPM_00464,OWENPRI,Owensboro,US,37.7808,-87.0756
NGEL_OAPM_00465,Laney-College,San-Francisco-Oakland-Fremont,US,37.793624,-122.263376
NGEL_OAPM_00466,Manteca,SAN-JOAQUIN,US,37.8027,-121.2208
NGEL_OAPM_00467,Oakland-West,San-Francisco-Oakland-Fremont,US,37.8148,-122.282402
NGEL_OAPM_00468,Berkeley-Aquatic-Par,ALAMEDA,US,37.864767,-122.302741
NGEL_OAPM_00469,BASKETT,Evansville,US,37.8714,-87.4633
NGEL_OAPM_00470,Concord,San-Francisco-Oakland-Fremont,US,37.9383,-122.025
NGEL_OAPM_00471,Stockton---Hazelton,Stockton,US,37.9508,-121.2675
NGEL_OAPM_00472,GBUAPCD-EBAM-@-Lee-V,GBU,US,37.956873,-119.120979
NGEL_OAPM_00473,GBUAPCD-EBAM-@-Lee-V,GBU,US,37.956948,-119.120979
NGEL_OAPM_00474,San-Pablo---Rumrill,San-Francisco-Oakland-Fremont,US,37.9604,-122.3571
NGEL_OAPM_00475,San-Rafael,San-Francisco-Oakland-Fremont,US,37.9722,-122.5189
NGEL_OAPM_00476,WATSON,Louisville,US,38.0608,-85.8961
NGEL_OAPM_00477,NEWTWN,Lexington-Fayette,US,38.065,-84.5
NGEL_OAPM_00478,Vallejo,Vallejo-Fairfield,US,38.102507,-122.237976
NGEL_OAPM_00479,BATES,Louisville,US,38.1372,-85.5783
NGEL_OAPM_00480,San-Andreas,CALAVERAS,US,38.2019,-120.680603
NGEL_OAPM_00481,Rio-Vista,Vallejo-Fairfield,US,38.2183,-121.77
NGEL_OAPM_00482,Cannons-Lane,Louisville,US,38.2286,-85.6544
NGEL_OAPM_00483,Southwick-Community,Louisville,US,38.2317,-85.8156
NGEL_OAPM_00484,Elk-Grove,Sacramento--Arden-Arcade--Roseville,US,38.302591,-121.420838
NGEL_OAPM_00485,Napa---Jefferson-St,Napa,US,38.3108,-122.295
NGEL_OAPM_00486,CHARLESTON,KANAWHA,US,38.346258,-81.621161
NGEL_OAPM_00487,Vacaville,Vallejo-Fairfield,US,38.3525,-121.9617
NGEL_OAPM_00488,Sebastopol,Santa-Rosa-Petaluma,US,38.403765,-122.818294
NGEL_OAPM_00489,ARNOLD,St.-Louis,US,38.448581,-90.398436
NGEL_OAPM_00490,FIVCO,Huntington-Ashland,US,38.4592,-82.6339
NGEL_OAPM_00491,Sloughhouse,Sacramento--Arden-Arcade--Roseville,US,38.494475,-121.211131
NGEL_OAPM_00492,Ironton---ODOT,Portsmouth,US,38.508114,-82.659301
NGEL_OAPM_00493,Shenandoah-NP,MADISON,US,38.5231,-78.4347
NGEL_OAPM_00494,Davis---UCD-Campus,Sacramento--Arden-Arcade--Roseville,US,38.53455,-121.7734
NGEL_OAPM_00495,BROADWAY-(South),St.-Louis,US,38.5425,-90.263611
NGEL_OAPM_00496,Downtown-Sacramento,Sacramento--Arden-Arcade--Roseville,US,38.56844,-121.49311
NGEL_OAPM_00497,Horn-Point,DORCHESTER,US,38.5876,-76.1408
NGEL_OAPM_00498,East-St.-Louis,St.-Louis,US,38.611893,-90.160614
NGEL_OAPM_00499,Arden-Arcade---Del-P,Sacramento--Arden-Arcade--Roseville,US,38.613804,-121.368007
NGEL_OAPM_00500,Forest-Park,St.-Louis,US,38.631057,-90.281144
NGEL_OAPM_00501,SEAFORD,Seaford,US,38.6444,-75.6131
NGEL_OAPM_00502,Ladue,St.-Louis,US,38.650259,-90.350463
NGEL_OAPM_00503,Branch-Street,ST.-LOUIS-(CITY),US,38.65643,-90.18977
NGEL_OAPM_00504,BLAIR-STREET,St.-Louis,US,38.656449,-90.198548
NGEL_OAPM_00505,Woodland,Sacramento--Arden-Arcade--Roseville,US,38.6619,-121.7278
NGEL_OAPM_00506,Folsom,Sacramento--Arden-Arcade--Roseville,US,38.683304,-121.164457
NGEL_OAPM_00507,GC_MAD,St.-Louis,US,38.7045,-90.1397
NGEL_OAPM_00508,Roseville---N.Sunris,Sacramento--Arden-Arcade--Roseville,US,38.7458,-121.2653
NGEL_OAPM_00509,RG_SOUTH,Kansas-City,US,38.75961,-94.57983
NGEL_OAPM_00510,GBUAPCD-EBAM-@-Alpin,GBU,US,38.766214,-119.807625
NGEL_OAPM_00511,GBUAPCD-EBAM-@-Alpin,GBU,US,38.76631,-119.807625
NGEL_OAPM_00512,Cedrbluf,TREGO,US,38.7703,-99.7636
NGEL_OAPM_00513,FRANCONIA,Washington-Arlington-Alexandria,US,38.771702,-77.108902
NGEL_OAPM_00514,West-Union,ADAMS,US,38.79471,-83.533988
NGEL_OAPM_00515,Heritage-Park,Kansas-City,US,38.8386,-94.7464
NGEL_OAPM_00516,Colorado-College,Colorado-Springs,US,38.848,-104.8286
NGEL_OAPM_00517,Lincoln,Sacramento--Arden-Arcade--Roseville,US,38.89,-121.3
NGEL_OAPM_00518,Ranchos,DOUGLAS,US,38.897611,-119.732101
NGEL_OAPM_00519,McMillan-NCORE,WASHINGTON,US,38.921848,-77.013176
NGEL_OAPM_00520,Auburn,Sacramento--Arden-Arcade--Roseville,US,38.937801,-121.103897
NGEL_OAPM_00521,KILLENS,Dover,US,38.9847,-75.5556
NGEL_OAPM_00522,Cortina-Rancheria,COLUSA,US,39.015,-122.286111
NGEL_OAPM_00523,NKU,Cincinnati-Middletown,US,39.0217,-84.4744
NGEL_OAPM_00524,KNI-Topeka,Topeka,US,39.0242,-95.7114
NGEL_OAPM_00525,Blue-Ridge-I-70,Kansas-City,US,39.047911,-94.450513
NGEL_OAPM_00526,HU-Beltsville,Washington-Arlington-Alexandria,US,39.055302,-76.878304
NGEL_OAPM_00527,Grand-Junction---Pow,Grand-Junction,US,39.063599,-108.561096
NGEL_OAPM_00528,Batavia,Cincinnati-Middletown,US,39.0828,-84.1441
NGEL_OAPM_00529,Colfax,Sacramento--Arden-Arcade--Roseville,US,39.1003,-120.9528
NGEL_OAPM_00530,Troost,Kansas-City,US,39.10465,-94.57055
NGEL_OAPM_00531,Rockville,Washington-Arlington-Alexandria,US,39.114399,-77.106903
NGEL_OAPM_00532,WY/KC,Kansas-City,US,39.1175,-94.6356
NGEL_OAPM_00533,Yuba-City,Yuba-City,US,39.1389,-121.6175
NGEL_OAPM_00534,Howard-County-Near-R,HOWARD,US,39.143197,-76.846192
NGEL_OAPM_00535,CC_Armory,CARSON-CITY,US,39.144804,-119.766409
NGEL_OAPM_00536,Cincinnati-Near-Road,Cincinnati-Middletown,US,39.146025,-84.538375
NGEL_OAPM_00537,Bloomington,Bloomington,US,39.159372,-86.504747
NGEL_OAPM_00538,Tahoe-City,PLACER,US,39.166,-120.1488
NGEL_OAPM_00539,Colerain,Cincinnati-Middletown,US,39.21494,-84.69086
NGEL_OAPM_00540,Grass-Valley,Truckee-Grass-Valley,US,39.234402,-121.055603
NGEL_OAPM_00541,Sycamore,Cincinnati-Middletown,US,39.2787,-84.36612
NGEL_OAPM_00542,BUTLER-MANUF.-CO-NEA,Winchester,US,39.282799,-78.081398
NGEL_OAPM_00543,Oldtown,Baltimore-Towson,US,39.2981,-76.604698
NGEL_OAPM_00544,LIBERTY,Kansas-City,US,39.303056,-94.376389
NGEL_OAPM_00545,Millington,KENT,US,39.305199,-75.797203
NGEL_OAPM_00546,Gridley,Chico,US,39.32756,-121.66881
NGEL_OAPM_00547,Truckee-BAM,Truckee-Grass-Valley,US,39.3386,-120.170303
NGEL_OAPM_00548,Edgewood,Baltimore-Towson,US,39.41,-76.2967
NGEL_OAPM_00549,WIllits-Justice-Cent,Ukiah,US,39.411743,-123.352661
NGEL_OAPM_00550,Millville,Vineland-Millville-Bridgeton,US,39.422272,-75.0252
NGEL_OAPM_00551,Lebanon,Cincinnati-Middletown,US,39.42689,-84.20077
NGEL_OAPM_00552,Brigantine,Atlantic-City,US,39.46487,-74.448738
NGEL_OAPM_00553,Yankee-Road,BUTLER,US,39.472436,-84.394952
NGEL_OAPM_00554,Amanda--Elementary,BUTLER,US,39.478849,-84.407675
NGEL_OAPM_00555,Reno3,Reno-Sparks,US,39.525082,-119.807716
NGEL_OAPM_00556,Willows-Colusa,GLENN,US,39.533889,-122.190833
NGEL_OAPM_00557,Chatfield-Park---115,Denver-Aurora,US,39.5339,-105.07
NGEL_OAPM_00558,Sparks,Reno-Sparks,US,39.540916,-119.746758
NGEL_OAPM_00559,Hagerstown,Hagerstown-Martinsburg,US,39.565601,-77.721901
NGEL_OAPM_00560,Spanish-Springs,Reno-Sparks,US,39.621417,-119.718806
NGEL_OAPM_00561,Fair-Hill,Philadelphia-Camden-Wilmington,US,39.701099,-75.860001
NGEL_OAPM_00562,Piney-Run,GARRETT,US,39.705799,-79.011902
NGEL_OAPM_00563,Denver---NJH---14th,Denver-Aurora,US,39.7386,-104.9394
NGEL_OAPM_00564,MLK,Philadelphia-Camden-Wilmington,US,39.7394,-75.5581
NGEL_OAPM_00565,St.-Joseph,St.-Joseph,US,39.741667,-94.858333
NGEL_OAPM_00566,Denver---CAMP---2105,Denver-Aurora,US,39.751099,-104.987198
NGEL_OAPM_00567,Paradise-Theater,BUTTE,US,39.753889,-121.624444
NGEL_OAPM_00568,Dayton---Sinclair,Dayton,US,39.758235,-84.197375
NGEL_OAPM_00569,Chico----East,BUTTE,US,39.76161,-121.84048
NGEL_OAPM_00570,La-Casa-NCORE---4545,Denver-Aurora,US,39.7794,-105.00523
NGEL_OAPM_00571,Globeville,DENVER,US,39.785622,-104.988469
NGEL_OAPM_00572,Indpls---I-70-E,Indianapolis,US,39.787933,-86.13088
NGEL_OAPM_00573,Indpls-W.18th-St,Indianapolis,US,39.7889,-86.2147
NGEL_OAPM_00574,Portola,PLUMAS,US,39.808334,-120.471664
NGEL_OAPM_00575,Yellow-Springs,Dayton,US,39.80834,-83.88711
NGEL_OAPM_00576,MARCUS-HOOK,DELAWARE,US,39.818715,-75.413973
NGEL_OAPM_00577,Adams,Denver-Aurora,US,39.828387,-104.938463
NGEL_OAPM_00578,NEWG,Philadelphia-Camden-Wilmington,US,39.8344,-75.7678
NGEL_OAPM_00579,CHES,Philadelphia-Camden-Wilmington,US,39.8356,-75.3725
NGEL_OAPM_00580,Preble-County,Dayton,US,39.83562,-84.72049
NGEL_OAPM_00581,DECATUR,Decatur,US,39.8669,-88.9256
NGEL_OAPM_00582,MOUNDSVILLE,Wheeling,US,39.9158,-80.7342
NGEL_OAPM_00583,AREN,Gettysburg,US,39.9233,-77.3081
NGEL_OAPM_00584,Springfield-PM,Springfield,US,39.92882,-83.80949
NGEL_OAPM_00585,Camden-Spruce-St,Philadelphia-Camden-Wilmington,US,39.934446,-75.125291
NGEL_OAPM_00586,Quincy-BAM,PLUMAS,US,39.9369,-120.9478
NGEL_OAPM_00587,Beijing-US-Embassy,Beijing,CN,39.95,116.47
NGEL_OAPM_00588,YORK,York-Hanover,US,39.9653,-76.6994
NGEL_OAPM_00589,NEW,PHILADELPHIA,US,39.991389,-75.080833
NGEL_OAPM_00590,US-Diplomatic-Post:-Bogota,Bogota,CO,4.637735,-74.09486
NGEL_OAPM_00591,Columbus---Fairgroun,Columbus,US,40.002734,-82.994404
NGEL_OAPM_00592,Boulder---CU---2102,Boulder,US,40.0128,-105.2667
NGEL_OAPM_00593,LAN1,Lancaster,US,40.0439,-76.1125
NGEL_OAPM_00594,LANC,Lancaster,US,40.0467,-76.2833
NGEL_OAPM_00595,BONDVILLE,CHAMPAIGN,US,40.052241,-88.372549
NGEL_OAPM_00596,New-Albany,Columbus,US,40.0845,-82.81552
NGEL_OAPM_00597,Rangely--CO,RIO-BLANCO,US,40.086941,-108.761002
NGEL_OAPM_00598,NORR,Philadelphia-Camden-Wilmington,US,40.1122,-75.3092
NGEL_OAPM_00599,Anderson-Eastside-El,Anderson,US,40.125557,-85.652222
NGEL_OAPM_00600,CHAR,Pittsburgh,US,40.1469,-79.9033
NGEL_OAPM_00601,Longmont,Boulder,US,40.164585,-105.100861
NGEL_OAPM_00602,WASH,Pittsburgh,US,40.17,-80.2617
NGEL_OAPM_00603,CARL,Harrisburg-Carlisle,US,40.2464,-77.1867
NGEL_OAPM_00604,North-Provo,Provo-Orem,US,40.253502,-111.6632
NGEL_OAPM_00605,Rider-University,Trenton-Ewing,US,40.283092,-74.742645
NGEL_OAPM_00606,Roosvelt,DUCHESNE,US,40.2943,-110.009
NGEL_OAPM_00607,Chester-BAM,PLUMAS,US,40.301899,-121.235001
NGEL_OAPM_00608,GREE,Pittsburgh,US,40.3053,-79.5061
NGEL_OAPM_00609,JOHN,Johnstown,US,40.3097,-78.9158
NGEL_OAPM_00610,South-Allegheny-High,Pittsburgh,US,40.323898,-79.868301
NGEL_OAPM_00611,Lebanon,LEBANON,US,40.33733,-76.383446
NGEL_OAPM_00612,Steubenville,Weirton-Steubenville,US,40.366452,-80.615691
NGEL_OAPM_00613,Greeley-Hospital,Greeley,US,40.4147,-104.7061
NGEL_OAPM_00614,Parkway-East-(Near-R,Pittsburgh,US,40.437431,-79.863572
NGEL_OAPM_00615,Anderson,Redding,US,40.4531,-122.2978
NGEL_OAPM_00616,Rutgers-University,New-York-Northern-New-Jersey-Long-Island,US,40.462181,-74.429436
NGEL_OAPM_00617,Vernal-#4,UINTAH,US,40.464722,-109.56083
NGEL_OAPM_00618,BAPC-301-39TH-STREET,Pittsburgh,US,40.4656,-79.9611
NGEL_OAPM_00619,ALTO,Altoona,US,40.515,-78.3889
NGEL_OAPM_00620,Flemington,New-York-Northern-New-Jersey-Long-Island,US,40.515251,-74.806755
NGEL_OAPM_00621,NORMAL,Bloomington-Normal,US,40.5169,-88.9975
NGEL_OAPM_00622,Ft.-Collins---CSU-Fa,LARIMER,US,40.571259,-105.079765
NGEL_OAPM_00623,FKILL,New-York-Northern-New-Jersey-Long-Island,US,40.5802,-74.1994
NGEL_OAPM_00624,Erda,TOOELE,US,40.600556,-112.355
NGEL_OAPM_00625,Rahway-PM,New-York-Northern-New-Jersey-Long-Island,US,40.603943,-74.276176
NGEL_OAPM_00626,ALLE,Allentown-Bethlehem-Easton,US,40.6119,-75.4325
NGEL_OAPM_00627,FREE,Allentown-Bethlehem-Easton,US,40.6281,-75.3411
NGEL_OAPM_00628,Elizabeth-Trailer,New-York-Northern-New-Jersey-Long-Island,US,40.641441,-74.208366
NGEL_OAPM_00629,PS-314,KINGS,US,40.641819,-74.018707
NGEL_OAPM_00630,Lake-Sugema,VAN-BUREN,US,40.693298,-92.006104
NGEL_OAPM_00631,Brooklyn---PS274,New-York-Northern-New-Jersey-Long-Island,US,40.694401,-73.928596
NGEL_OAPM_00632,PEORIA_J,Peoria,US,40.6978,-89.5889
NGEL_OAPM_00633,Newark-Firehouse,New-York-Northern-New-Jersey-Long-Island,US,40.720989,-74.192894
NGEL_OAPM_00634,Jersey-City-FH,New-York-Northern-New-Jersey-Long-Island,US,40.725452,-74.052292
NGEL_OAPM_00635,MSPTH,New-York-Northern-New-Jersey-Long-Island,US,40.7269,-73.8933
NGEL_OAPM_00636,PS-19,NEW-YORK,US,40.73,-73.984459
NGEL_OAPM_00637,Hawthorne,Salt-Lake-City,US,40.733501,-111.871696
NGEL_OAPM_00638,Queens,New-York-Northern-New-Jersey-Long-Island,US,40.7375,-73.8244
NGEL_OAPM_00639,Eisenhower-Park,New-York-Northern-New-Jersey-Long-Island,US,40.7447,-73.5869
NGEL_OAPM_00640,BEAV,Pittsburgh,US,40.747799,-80.316704
NGEL_OAPM_00641,Lima,Lima,US,40.771,-84.0539
NGEL_OAPM_00642,Rose-Park,Salt-Lake-City,US,40.7955,-111.9309
NGEL_OAPM_00643,Canton,Canton-Massillon,US,40.800797,-81.372853
NGEL_OAPM_00644,STAT,State-College,US,40.8114,-77.8769
NGEL_OAPM_00645,LLCHD-BAM,Lincoln,US,40.812558,-96.675733
NGEL_OAPM_00646,KITT,Pittsburgh,US,40.8142,-79.565
NGEL_OAPM_00647,IS52,New-York-Northern-New-Jersey-Long-Island,US,40.816101,-73.902199
NGEL_OAPM_00648,CCNY,New-York-Northern-New-Jersey-Long-Island,US,40.8197,-73.9481
NGEL_OAPM_00649,Holtsville,New-York-Northern-New-Jersey-Long-Island,US,40.8278,-73.0575
NGEL_OAPM_00650,IS143,New-York-Northern-New-Jersey-Long-Island,US,40.8492,-73.9319
NGEL_OAPM_00651,Fort-Lee-Near-Road,New-York-Northern-New-Jersey-Long-Island,US,40.85355,-73.9661
NGEL_OAPM_00652,Columbia,WARREN,US,40.924606,-75.067825
NGEL_OAPM_00653,Viking-Lake-State-Pa,MONTGOMERY,US,40.970001,-95.044998
NGEL_OAPM_00654,White-Plains,New-York-Northern-New-Jersey-Long-Island,US,41.0522,-73.7642
NGEL_OAPM_00655,Chippewa-Lake,Cleveland-Elyria-Mentor,US,41.0604,-81.9239
NGEL_OAPM_00656,East-High-School,Akron,US,41.063526,-81.468956
NGEL_OAPM_00657,Pocono,East-Stroudsburg,US,41.083099,-75.3283
NGEL_OAPM_00658,Youngstown---Head-St,Youngstown-Warren-Boardman,US,41.095938,-80.658467
NGEL_OAPM_00659,2912-Coffey,Omaha-Council-Bluffs,US,41.133317,-95.956078
NGEL_OAPM_00660,Bridgeport,Bridgeport-Stamford-Norwalk,US,41.171398,-73.195297
NGEL_OAPM_00661,Rockland-Cty,ROCKLAND,US,41.182079,-74.028191
NGEL_OAPM_00662,Cheyenne-NCore,Cheyenne,US,41.18222,-104.778336
NGEL_OAPM_00663,Ogden-#2,Ogden-Clearfield,US,41.206402,-111.975197
NGEL_OAPM_00664,Farrell---PA,Youngstown-Warren-Boardman,US,41.215,-80.485
NGEL_OAPM_00665,BRAIDWD,Chicago-Naperville-Joliet,US,41.2222,-88.1906
NGEL_OAPM_00666,Youngstown---Laird-A,Youngstown-Warren-Boardman,US,41.23172,-80.80116
NGEL_OAPM_00667,NCORE,Omaha-Council-Bluffs,US,41.2474,-95.9731
NGEL_OAPM_00668,New-Haven---Criscuol,New-Haven-Milford,US,41.3011,-72.9028
NGEL_OAPM_00669,Laramie-Mobile,Laramie,US,41.302831,-105.586
NGEL_OAPM_00670,Groton-Fort-Griswold,Norwich-New-London,US,41.3536,-72.0789
NGEL_OAPM_00671,Muscatine--High-Scho,MUSCATINE,US,41.4014,-91.0684
NGEL_OAPM_00672,SCRA,Scranton--Wilkes-Barre,US,41.4428,-75.6231
NGEL_OAPM_00673,Barr-School,Cleveland-Elyria-Mentor,US,41.463071,-82.114261
NGEL_OAPM_00674,Brigham-City,Brigham-City,US,41.492802,-112.0187
NGEL_OAPM_00675,Narragansett,Providence-New-Bedford-Fall-River,US,41.4942,-71.4219
NGEL_OAPM_00676,NBURG,Poughkeepsie-Newburgh-Middletown,US,41.4994,-74.0097
NGEL_OAPM_00677,Davenport--10th-&-Vi,Davenport-Moline-Rock-Island,US,41.529999,-90.587502
NGEL_OAPM_00678,Waterbury,New-Haven-Milford,US,41.5503,-73.0442
NGEL_OAPM_00679,CARPENTER,Des-Moines,US,41.6031,-93.643303
NGEL_OAPM_00680,W-Greenwich,Providence-New-Bedford-Fall-River,US,41.615,-71.7197
NGEL_OAPM_00681,Erie,Toledo,US,41.644067,-83.54625
NGEL_OAPM_00682,TIOG,TIOGA,US,41.6447,-76.9392
NGEL_OAPM_00683,Iowa-City--Hoover-Sc,Iowa-City,US,41.658195,-91.503471
NGEL_OAPM_00684,ALSIP,Chicago-Naperville-Joliet,US,41.6708,-87.7325
NGEL_OAPM_00685,Fall-River,Providence-New-Bedford-Fall-River,US,41.6833,-71.169701
NGEL_OAPM_00686,Towanda,BRADFORD,US,41.705226,-76.512726
NGEL_OAPM_00687,Painesville---JFS,Cleveland-Elyria-Mentor,US,41.726811,-81.242156
NGEL_OAPM_00688,CHI_COM,Chicago-Naperville-Joliet,US,41.7547,-87.7136
NGEL_OAPM_00689,Hartford-Huntley,Hartford-West-Hartford-East-Hartford,US,41.771444,-72.679923
NGEL_OAPM_00690,Shenyang,Shenyang,CN,41.78,123.42
NGEL_OAPM_00691,East-Hartford,Hartford-West-Hartford-East-Hartford,US,41.7847,-72.6297
NGEL_OAPM_00692,Providence,Providence-New-Bedford-Fall-River,US,41.8081,-71.415
NGEL_OAPM_00693,Clinton--Chancy-Park,Clinton,US,41.823101,-90.211899
NGEL_OAPM_00694,Near-Road,Providence-New-Bedford-Fall-River,US,41.829495,-71.417457
NGEL_OAPM_00695,E-Providence,Providence-New-Bedford-Fall-River,US,41.840302,-71.361702
NGEL_OAPM_00696,Smithfield,CACHE,US,41.842778,-111.85194
NGEL_OAPM_00697,Cicero2,COOK,US,41.864329,-87.748826
NGEL_OAPM_00698,CHI_SP,Chicago-Naperville-Joliet,US,41.9136,-87.7239
NGEL_OAPM_00699,PUBLIC-HEALTH,Cedar-Rapids,US,41.9767,-91.6878
NGEL_OAPM_00700,PUBLIC-HEALTH-4,Cedar-Rapids,US,41.97677,-91.68766
NGEL_OAPM_00701,TECUMSEH,Adrian,US,41.995602,-83.946701
NGEL_OAPM_00702,Franklin,FRANKLIN,US,42.013333,-111.80916
NGEL_OAPM_00703,DESPLNS,Chicago-Naperville-Joliet,US,42.0603,-87.8631
NGEL_OAPM_00704,Brockton,PLYMOUTH,US,42.065119,-71.012686
NGEL_OAPM_00705,Springfield,Springfield,US,42.1086,-72.5911
NGEL_OAPM_00706,NORTHBRK,Chicago-Naperville-Joliet,US,42.1406,-87.7994
NGEL_OAPM_00707,ERIE,Erie,US,42.1428,-80.0372
NGEL_OAPM_00708,Cave-Junction-Forest,JOSEPHINE,US,42.1617,-123.64835
NGEL_OAPM_00709,Lakeview---Center-&,LAKE,US,42.189215,-120.353969
NGEL_OAPM_00710,Klamath-Falls---Pete,Klamath-Falls,US,42.190296,-121.731369
NGEL_OAPM_00711,Ashland-Fire-Dept,JACKSON,US,42.1941,-122.7086
NGEL_OAPM_00712,CARY,Chicago-Naperville-Joliet,US,42.2211,-88.2411
NGEL_OAPM_00713,ALLEN-PARK,Detroit-Warren-Livonia,US,42.2283,-83.2092
NGEL_OAPM_00714,YPSILANTI,Ann-Arbor,US,42.24,-83.5997
NGEL_OAPM_00715,NMH48217,WAYNE,US,42.261669,-83.157893
NGEL_OAPM_00716,Worcester,Worcester,US,42.263901,-71.794701
NGEL_OAPM_00717,KALAMAZOO,Kalamazoo-Portage,US,42.2781,-85.5419
NGEL_OAPM_00718,Provolt---Seed-Orcha,Grants-Pass,US,42.290094,-123.2321
NGEL_OAPM_00719,WARE,Springfield,US,42.298302,-72.334396
NGEL_OAPM_00720,DEARBORN,Detroit-Warren-Livonia,US,42.3075,-83.15
NGEL_OAPM_00721,Medford---Grant-&-Be,Medford,US,42.31411,-122.87923
NGEL_OAPM_00722,Windsor-Downtown,ONTARIO,CA,42.3144,-83.0433
NGEL_OAPM_00723,DETROIT---W-LAFAYETT,Detroit-Warren-Livonia,US,42.3231,-83.0689
NGEL_OAPM_00724,Boston-Von-Hillern,SUFFOLK,US,42.325197,-71.056056
NGEL_OAPM_00725,Boston---Roxbury,Boston-Cambridge-Quincy,US,42.329399,-71.082497
NGEL_OAPM_00726,Boston---North-End,Boston-Cambridge-Quincy,US,42.3631,-71.0542
NGEL_OAPM_00727,Eliza-Howell--Roadwa,WAYNE,US,42.38599,-83.266319
NGEL_OAPM_00728,Chatham,ONTARIO,CA,42.4033,-82.2086
NGEL_OAPM_00729,LIVONIA-NEAR-ROAD,WAYNE,US,42.421494,-83.425168
NGEL_OAPM_00730,Grants-Pass---Parksi,Grants-Pass,US,42.434149,-123.348466
NGEL_OAPM_00731,PITTSFIELD,Pittsfield,US,42.4478,-73.2547
NGEL_OAPM_00732,LYNN,Boston-Cambridge-Quincy,US,42.474701,-70.971901
NGEL_OAPM_00733,Waterloo--Water-Towe,Waterloo-Cedar-Falls,US,42.5014,-92.315804
NGEL_OAPM_00734,CHIWAUKEE,Chicago-Naperville-Joliet,US,42.5047,-87.8111
NGEL_OAPM_00735,South-Pass,Riverton,US,42.5275,-108.7203
NGEL_OAPM_00736,Twin-Falls-PM25,TWIN-FALLS,US,42.565089,-114.494717
NGEL_OAPM_00737,Shoshone-Bannock-Tri,BANNOCK,US,42.589833,-112.458889
NGEL_OAPM_00738,Greenfield,FRANKLIN,US,42.605816,-72.596689
NGEL_OAPM_00739,Paul-E-Sampler,MINIDOKA,US,42.607817,-113.786817
NGEL_OAPM_00740,Shady-Cove---Shady-C,Medford,US,42.623225,-122.810158
NGEL_OAPM_00741,US-Diplomatic-Post:-Pristina,Pristina,XK,42.661995,21.15055
NGEL_OAPM_00742,Port-Stanley,ONTARIO,CA,42.6725,-81.1647
NGEL_OAPM_00743,Minidoka-National-Hi,JEROME,US,42.68,-114.2525
NGEL_OAPM_00744,Potosi,GRANT,US,42.692131,-90.696373
NGEL_OAPM_00745,LANSING,Lansing-East-Lansing,US,42.737499,-84.536102
NGEL_OAPM_00746,UC1,UNION,US,42.751518,-96.707208
NGEL_OAPM_00747,Haverhill,Boston-Cambridge-Quincy,US,42.7708,-71.1028
NGEL_OAPM_00748,Casper-Mobile,Casper,US,42.846297,-106.27767
NGEL_OAPM_00749,Miller-State-Park,Manchester-Nashua,US,42.86183,-71.878626
NGEL_OAPM_00750,Londonderry---Moose,ROCKINGHAM,US,42.862531,-71.38014
NGEL_OAPM_00751,Pocatello-Garrett-an,Pocatello,US,42.876701,-112.460297
NGEL_OAPM_00752,Buffalo,Buffalo-Niagara-Falls,US,42.8781,-78.8094
NGEL_OAPM_00753,Bennington,Bennington,US,42.887501,-73.249702
NGEL_OAPM_00754,Keene,Keene,US,42.930521,-72.272332
NGEL_OAPM_00755,Milwaukee-College-Av,MILWAUKEE,US,42.930569,-87.932106
NGEL_OAPM_00756,MILWAUKEE-COLLEGE-AV,MILWAUKEE,US,42.93257,-87.93434
NGEL_OAPM_00757,PORT-HURON,Detroit-Warren-Livonia,US,42.9533,-82.4564
NGEL_OAPM_00758,London,ONTARIO,CA,42.974461,-81.200858
NGEL_OAPM_00759,GRAND-RAPIDS,Grand-Rapids-Wyoming,US,42.984699,-85.671097
NGEL_OAPM_00760,Tonawanda-II,ERIE,US,42.9981,-78.8993
NGEL_OAPM_00761,MILWAUKEE-16TH-ST,Milwaukee-Waukesha-West-Allis,US,43.0178,-87.9333
NGEL_OAPM_00762,WAUKESHA---CLEVELAND,Milwaukee-Waukesha-West-Allis,US,43.0203,-88.215
NGEL_OAPM_00763,FLINT,Flint,US,43.0289,-83.669403
NGEL_OAPM_00764,MILWAUKEE-SER-DNR,Milwaukee-Waukesha-West-Allis,US,43.0611,-87.9125
NGEL_OAPM_00765,Portsmouth,Boston-Cambridge-Quincy,US,43.075371,-70.748017
NGEL_OAPM_00766,UTICA,Utica-Rome,US,43.0994,-75.225
NGEL_OAPM_00767,MADISON-EAST,Madison,US,43.1008,-89.3572
NGEL_OAPM_00768,Emmetsburg--ILCC,PALO-ALTO,US,43.123299,-94.693298
NGEL_OAPM_00769,Brantford,ONTARIO,CA,43.1403,-80.2961
NGEL_OAPM_00770,St.-Catharines,ONTARIO,CA,43.1583,-79.235
NGEL_OAPM_00771,Roseburg---Garden-Va,Roseburg,US,43.2266,-123.36479
NGEL_OAPM_00772,Hamilton-Downtown,ONTARIO,CA,43.2561,-79.8617
NGEL_OAPM_00773,Glide-Fire-Dept,DOUGLAS,US,43.2994,-123.0979
NGEL_OAPM_00774,Grand-Bend,ONTARIO,CA,43.3306,-81.7425
NGEL_OAPM_00775,Kitchener,ONTARIO,CA,43.4419,-80.5044
NGEL_OAPM_00776,Horicon-Wildlife-Are,DODGE,US,43.46611,-88.621109
NGEL_OAPM_00777,Idaho-Falls-/-Penfor,Idaho-Falls,US,43.4683,-112.053101
NGEL_OAPM_00778,HARRINGTON-BCH,Milwaukee-Waukesha-West-Allis,US,43.4981,-87.81
NGEL_OAPM_00779,Sioux-Falls,MINNEHAHA,US,43.54792,-96.700768
NGEL_OAPM_00780,BAY-CITY,Bay-City,US,43.5714,-83.8908
NGEL_OAPM_00781,Nampa-Fire-Station,Boise-City-Nampa,US,43.58031,-116.562676
NGEL_OAPM_00782,Burns---Washington-S,HARNEY,US,43.58925,-119.048302
NGEL_OAPM_00783,St.-Lukes-Meridian,Boise-City-Nampa,US,43.600699,-116.347853
NGEL_OAPM_00784,RUTLAND,Rutland,US,43.608528,-72.98246
NGEL_OAPM_00785,Lebanon,Lebanon,US,43.629605,-72.309499
NGEL_OAPM_00786,Toronto-Downtown,ONTARIO,CA,43.6619,-79.3853
NGEL_OAPM_00787,Ketchum,BLAINE,US,43.682556,-114.371094
NGEL_OAPM_00788,Oakridge---Willamett,Eugene-Springfield,US,43.74436,-122.480506
NGEL_OAPM_00789,Badlands,JACKSON,US,43.746944,-101.941109
NGEL_OAPM_00790,LACROSSE-DOT,La-Crosse,US,43.7781,-91.225
NGEL_OAPM_00791,Cottage-Grove-City-S,Eugene-Springfield,US,43.7995,-123.0535
NGEL_OAPM_00792,Rexburg-PM25,MADISON,US,43.809486,-111.800475
NGEL_OAPM_00793,Idaho-City,BOISE,US,43.823017,-115.838557
NGEL_OAPM_00794,Rochester,Rochester,US,43.9947,-92.4497
NGEL_OAPM_00795,Eugene---Amazon-Park,Eugene-Springfield,US,44.0263,-123.08377
NGEL_OAPM_00796,Springfield-City-Hal,Eugene-Springfield,US,44.046683,-123.017736
NGEL_OAPM_00797,Bend---Pump-Station,Bend,US,44.063916,-121.312554
NGEL_OAPM_00798,Eugene---Highway-99,Eugene-Springfield,US,44.067223,-123.14135
NGEL_OAPM_00799,Credit-Union,Rapid-City,US,44.087397,-103.273777
NGEL_OAPM_00800,Lewiston,Lewiston-Auburn,US,44.089355,-70.214134
NGEL_OAPM_00801,Garden-Valley,BOISE,US,44.104498,-115.972386
NGEL_OAPM_00802,Belleville,ONTARIO,CA,44.1503,-77.3956
NGEL_OAPM_00803,Weiser-Neph,WASHINGTON,US,44.261694,-116.979172
NGEL_OAPM_00804,Sisters-Forest-Servi,DESCHUTES,US,44.2921,-121.5555
NGEL_OAPM_00805,Tiverton,ONTARIO,CA,44.2994,-81.5753
NGEL_OAPM_00806,Prineville---Davidso,Prineville,US,44.299787,-120.844773
NGEL_OAPM_00807,Peterborough,ONTARIO,CA,44.3,-78.35
NGEL_OAPM_00808,APPLETON-AAL,Appleton,US,44.3069,-88.3956
NGEL_OAPM_00809,HOUGHTON-LAKE,Cadillac,US,44.3106,-84.891899
NGEL_OAPM_00810,Research-Farm,BROOKINGS,US,44.348604,-96.807299
NGEL_OAPM_00811,Acadia-NP---McFarlan,HANCOCK,US,44.377048,-68.260902
NGEL_OAPM_00812,Barrie,ONTARIO,CA,44.3922,-79.3922
NGEL_OAPM_00813,Sweet-Home---Fire-De,Albany-Lebanon,US,44.3958,-122.7305
NGEL_OAPM_00814,John-Day-Dayton-St,GRANT,US,44.417999,-118.951302
NGEL_OAPM_00815,Živinice,Živinice,BA,44.45388888888889,18.648333333333333
NGEL_OAPM_00816,Marshall,Marshall,US,44.4572,-95.835
NGEL_OAPM_00817,Burlington,Burlington-South-Burlington,US,44.476101,-73.210297
NGEL_OAPM_00818,GREEN-BAY-E-HIGH,Green-Bay,US,44.5167,-87.9939
NGEL_OAPM_00819,Bukinje,Tuzla,BA,44.52361111111111,18.60027777777778
NGEL_OAPM_00820,Underhill,Burlington-South-Burlington,US,44.528389,-72.868973
NGEL_OAPM_00821,BKC,Tuzla,BA,44.53194444444444,18.654722222222222
NGEL_OAPM_00822,Lukavac,Lukavac,BA,44.53330277777778,18.534891666666667
NGEL_OAPM_00823,Skver,Tuzla,BA,44.54083333333333,18.673333333333336
NGEL_OAPM_00824,Rumford,OXFORD,US,44.5514,-70.5463
NGEL_OAPM_00825,Corvallis---Circle-B,Corvallis,US,44.5884,-123.2673
NGEL_OAPM_00826,Albany---Calapooia-S,Albany-Lebanon,US,44.61569,-123.091457
NGEL_OAPM_00827,Madras---Westside-Sc,JEFFERSON,US,44.6306,-121.131599
NGEL_OAPM_00828,Lakeville---Near-Roa,DAKOTA,US,44.706123,-93.285803
NGEL_OAPM_00829,Detroit-Lake,MARION,US,44.728314,-122.182756
NGEL_OAPM_00830,Apple-Valley,Minneapolis-St.-Paul-Bloomington,US,44.7383,-93.2372
NGEL_OAPM_00831,Mill-City,LINN,US,44.752092,-122.479672
NGEL_OAPM_00832,Eau-Claire,EAU-CLAIRE,US,44.761398,-91.413002
NGEL_OAPM_00833,Lyons,LINN,US,44.778743,-122.617048
NGEL_OAPM_00834,Baker-City---Forest,BAKER,US,44.78822,-117.8446
NGEL_OAPM_00835,McCall,VALLEY,US,44.890197,-116.1065
NGEL_OAPM_00836,Watertown,CODINGTON,US,44.89965,-97.128802
NGEL_OAPM_00837,Salem---State-Hospit,Salem,US,44.943114,-123.005934
NGEL_OAPM_00838,Minneapolis-Phillips,Minneapolis-St.-Paul-Bloomington,US,44.9536,-93.2581
NGEL_OAPM_00839,St.-Paul-Harding-H.S,Minneapolis-St.-Paul-Bloomington,US,44.9594,-93.0356
NGEL_OAPM_00840,Sipayik-ME,WASHINGTON,US,44.9636,-67.060799
NGEL_OAPM_00841,Minneapolis-Near-Roa,Minneapolis-St.-Paul-Bloomington,US,44.9653,-93.2551
NGEL_OAPM_00842,St-Regis-Mohawk-NY,Malone,US,44.980598,-74.695297
NGEL_OAPM_00843,AYLESFORD-MOUNTAIN,NOVA-SCOTIA,CA,45.0061,-65
NGEL_OAPM_00844,Minneapolis---Bottin,HENNEPIN,US,45.013611,-93.272049
NGEL_OAPM_00845,Silverton,MARION,US,45.014998,-122.790382
NGEL_OAPM_00846,Cornwall,ONTARIO,CA,45.0294,-74.7394
NGEL_OAPM_00847,Carrabassett-Valley,FRANKLIN,US,45.08029,-70.211887
NGEL_OAPM_00848,ST-ANDREWS,NEW-BRUNSWICK,CA,45.0892,-67.0786
NGEL_OAPM_00849,Blaine,Minneapolis-St.-Paul-Bloomington,US,45.1425,-93.2139
NGEL_OAPM_00850,Salmon-PM2.5,LEMHI,US,45.178699,-113.892998
NGEL_OAPM_00851,MMMT10001,MT1,US,45.206448,-112.642518
NGEL_OAPM_00852,St.-Michael,Minneapolis-St.-Paul-Bloomington,US,45.2108,-93.6686
NGEL_OAPM_00853,Dorset,ONTARIO,CA,45.2211,-78.9314
NGEL_OAPM_00854,SAINT-JOHN-WEST,NEW-BRUNSWICK,CA,45.2536,-66.0803
NGEL_OAPM_00855,Portland---Spangler,Portland-Vancouver-Beaverton,US,45.25928,-122.588151
NGEL_OAPM_00856,CASTLE-ST.-SAINT-JO,NEW-BRUNSWICK,CA,45.2803,-66.0561
NGEL_OAPM_00857,Multorpor,CLACKAMAS,US,45.28845,-121.782775
NGEL_OAPM_00858,Cove---City-Hall,La-Grande,US,45.300884,-117.812896
NGEL_OAPM_00859,FOREST-HILLS,NEW-BRUNSWICK,CA,45.3092,-66.0092
NGEL_OAPM_00860,La-Grande-Hall-&-N-S,La-Grande,US,45.3235,-118.0778
NGEL_OAPM_00861,Parry-Sound,ONTARIO,CA,45.3378,-80.0378
NGEL_OAPM_00862,Birney,ROSEBUD,US,45.366151,-106.48982
NGEL_OAPM_00863,Enterprise---US-Fore,WALLOWA,US,45.426351,-117.296066
NGEL_OAPM_00864,Ottawa,ONTARIO,CA,45.4322,-75.6764
NGEL_OAPM_00865,Broadus,POWDER-RIVER,US,45.440295,-105.37028
NGEL_OAPM_00866,Beaverton---Highland,Portland-Vancouver-Beaverton,US,45.4702,-122.8159
NGEL_OAPM_00867,Portland---SE-Lafaye,Portland-Vancouver-Beaverton,US,45.496641,-122.602877
NGEL_OAPM_00868,Gresham,MULTNOMAH,US,45.511984,-122.482029
NGEL_OAPM_00869,Hillsboro---Hare-Fie,Portland-Vancouver-Beaverton,US,45.528501,-122.972398
NGEL_OAPM_00870,St.-Cloud,Minneapolis-St.-Paul-Bloomington,US,45.55,-94.1333
NGEL_OAPM_00871,POTAWATOMI,FOREST,US,45.5639,-88.81
NGEL_OAPM_00872,The-Dalles---Cherry,City-of-The-Dalles,US,45.602419,-121.203387
NGEL_OAPM_00873,PORT-HAWKESBURY,NOVA-SCOTIA,CA,45.61394,-61.36235
NGEL_OAPM_00874,Vancouver-NE-84th-Av,CLARK,US,45.64336,-122.58737
NGEL_OAPM_00875,Pendleton---McKay-Cr,Pendleton-Hermiston,US,45.652231,-118.823033
NGEL_OAPM_00876,Bozeman-High-School,GALLATIN,US,45.683765,-111.056282
NGEL_OAPM_00877,Hood-River,HOOD-RIVER,US,45.7035,-121.5296
NGEL_OAPM_00878,Portland---Sauvie-Is,Portland-Vancouver-Beaverton,US,45.768531,-122.7721
NGEL_OAPM_00879,Billings-St.-Luke's,Billings,US,45.782181,-108.511528
NGEL_OAPM_00880,Yacolt-Yacolt-Rd,CLARK,US,45.863899,-122.410889
NGEL_OAPM_00881,Grangeville,IDAHO,US,45.931301,-116.115196
NGEL_OAPM_00882,Butte-Greely-School,SILVER-BOW,US,46.002399,-112.500893
NGEL_OAPM_00883,Saint-Faustin,QUEBEC,CA,46.035,-74.4819
NGEL_OAPM_00884,Zéphirin,QUEBEC,CA,46.0419,-72.66
NGEL_OAPM_00885,Walla-Walla-12th-St,Walla-Walla,US,46.0588,-118.3514
NGEL_OAPM_00886,Cottonwood-E-sampler,IDAHO,US,46.061322,-116.3467
NGEL_OAPM_00887,MONCTON,NEW-BRUNSWICK,CA,46.11,-64.79
NGEL_OAPM_00888,Longview-30th-Ave,Longview,US,46.1394,-122.9619
NGEL_OAPM_00889,SYDNEY,NOVA-SCOTIA,CA,46.1425,-60.1728
NGEL_OAPM_00890,Kamiah-ID,IDAHO,US,46.2094,-116.027496
NGEL_OAPM_00891,Kennewick-Metaline,Kennewick-Richland-Pasco,US,46.2183,-119.2015
NGEL_OAPM_00892,Littleton,AROOSTOOK,US,46.228731,-67.882566
NGEL_OAPM_00893,Hamilton-PS-46,RAVALLI,US,46.243621,-114.158889
NGEL_OAPM_00894,SENEY,SCHOOLCRAFT,US,46.2889,-85.9503
NGEL_OAPM_00895,North-Bay,ONTARIO,CA,46.3175,-79.4453
NGEL_OAPM_00896,Dayton-W-Main,COLUMBIA,US,46.318,-117.985
NGEL_OAPM_00897,Sunnyside-S-16th,YAKIMA,US,46.32033,-119.9981
NGEL_OAPM_00898,Reubens-ID,NEZ-PERCE,US,46.3349,-116.535797
NGEL_OAPM_00899,Bécancour-(Aréna),QUEBEC,CA,46.35,-72.4333
NGEL_OAPM_00900,White-Swan-Yakama-Tr,YAKIMA,US,46.375431,-120.729317
NGEL_OAPM_00901,Toppenish-Yakama-Tri,Yakima,US,46.380199,-120.332603
NGEL_OAPM_00902,SOUTHAMPTON,PRINCE-EDWARD-ISLAND,CA,46.3864,-62.5828
NGEL_OAPM_00903,Brainerd,Brainerd,US,46.3944,-94.1433
NGEL_OAPM_00904,Lapwai-ID,Lewiston,US,46.397202,-116.806198
NGEL_OAPM_00905,Lewiston,Lewiston,US,46.408501,-116.991402
NGEL_OAPM_00906,Clarkston-13th-St,ASOTIN,US,46.425598,-117.059799
NGEL_OAPM_00907,WELLINGTON,PRINCE-EDWARD-ISLAND,CA,46.4783,-63.9869
NGEL_OAPM_00908,SAULT-STE-MARIE,Sault-Ste.-Marie,US,46.49361,-84.364197
NGEL_OAPM_00909,MMMT10004,MT1,US,46.502902,-110.906273
NGEL_OAPM_00910,Sault-Ste-Marie,ONTARIO,CA,46.5331,-84.3094
NGEL_OAPM_00911,Mesa-Pepoit-Way-(tem,Kennewick-Richland-Pasco,US,46.5754,-119.0021
NGEL_OAPM_00912,Juliaetta-E-sampler,LATAH,US,46.578731,-116.708958
NGEL_OAPM_00913,Yakima-4th-Ave,Yakima,US,46.594952,-120.512283
NGEL_OAPM_00914,Rossiter-Pump-House,Helena,US,46.6588,-112.0131
NGEL_OAPM_00915,Chehalis-Market-Blvd,LEWIS,US,46.664089,-122.967323
NGEL_OAPM_00916,Presque-Isle-Riversi,AROOSTOOK,US,46.682299,-68.016195
NGEL_OAPM_00917,MICMAC,AROOSTOOK,US,46.6964,-68.033096
NGEL_OAPM_00918,Pullman-Dexter-Ave,Pullman,US,46.7245,-117.1801
NGEL_OAPM_00919,Moscow,Moscow,US,46.728199,-116.954597
NGEL_OAPM_00920,West-Duluth,Duluth,US,46.743889,-92.166946
NGEL_OAPM_00921,Parc-Primavere,QUEBEC,CA,46.77417,-71.36972
NGEL_OAPM_00922,Missoula-Boyd-Park,MISSOULA,US,46.842297,-114.020549
NGEL_OAPM_00923,NCORE,LEWIS-AND-CLARK,US,46.8505,-111.987164
NGEL_OAPM_00924,Detroit-Lakes,BECKER,US,46.8511,-95.8467
NGEL_OAPM_00925,MMMT10005,MT1,US,46.955999,-112.655398
NGEL_OAPM_00926,Aberdeen-Division-St,Aberdeen,US,46.9772,-123.8317
NGEL_OAPM_00927,Ellensburg-Ruby-St,Ellensburg,US,46.9936,-120.545
NGEL_OAPM_00928,MMMT10003,MT1,US,46.998809,-113.384844
NGEL_OAPM_00929,French-Town---Beckwi,MISSOULA,US,47.012907,-114.224273
NGEL_OAPM_00930,Lacey-College-St,Olympia,US,47.029301,-122.821503
NGEL_OAPM_00931,Lewistown,FERGUS,US,47.048537,-109.455315
NGEL_OAPM_00932,Moses-Lake-Balsam-St,Moses-Lake,US,47.1303,-119.2726
NGEL_OAPM_00933,Puyallup-128th-St,Seattle-Tacoma-Bellevue,US,47.140499,-122.299202
NGEL_OAPM_00934,Seeley-Elementary-Sc,MISSOULA,US,47.17563,-113.476182
NGEL_OAPM_00935,Tacoma-L-St,Seattle-Tacoma-Bellevue,US,47.1864,-122.4517
NGEL_OAPM_00936,Shelton-W-Franklin,Shelton,US,47.213551,-123.100807
NGEL_OAPM_00937,Tacoma-S-36th-St,Seattle-Tacoma-Bellevue,US,47.22634,-122.46256
NGEL_OAPM_00938,Rosalia-Josephine-St,Pullman,US,47.2313,-117.3685
NGEL_OAPM_00939,Tacoma-Alexander-Ave,Seattle-Tacoma-Bellevue,US,47.2656,-122.3858
NGEL_OAPM_00940,St.-Maries,BENEWAH,US,47.3167,-116.570297
NGEL_OAPM_00941,Dunn-Center,DUNN,US,47.320301,-102.526398
NGEL_OAPM_00942,Plummer-CDA-Tribe,BENEWAH,US,47.3386,-116.885902
NGEL_OAPM_00943,MMMT10002,MT1,US,47.347397,-113.589791
NGEL_OAPM_00944,Madawaska-PSB,AROOSTOOK,US,47.3553,-68.3211
NGEL_OAPM_00945,Kent-James-&-Central,Seattle-Tacoma-Bellevue,US,47.386101,-122.230202
NGEL_OAPM_00946,Wenatchee-Fifth-St,CHELAN,US,47.43061,-120.34195
NGEL_OAPM_00947,North-Bend-North-Ben,Seattle-Tacoma-Bellevue,US,47.4902,-121.772697
NGEL_OAPM_00948,Great-Falls-Overlook,CASCADE,US,47.494318,-111.303317
NGEL_OAPM_00949,Mount-Pearl,NEWFOUNDLAND,CA,47.505,-52.7947
NGEL_OAPM_00950,Seattle-South-Park,Seattle-Tacoma-Bellevue,US,47.5309,-122.3208
NGEL_OAPM_00951,Pinehurst,SHOSHONE,US,47.536712,-116.236867
NGEL_OAPM_00952,Seattle-Duwamish,Seattle-Tacoma-Bellevue,US,47.562,-122.3405
NGEL_OAPM_00953,Seattle-Beacon-Hill,Seattle-Tacoma-Bellevue,US,47.568236,-122.308628
NGEL_OAPM_00954,Bremerton-Spruce-Ave,KITSAP,US,47.592675,-122.627397
NGEL_OAPM_00955,Seattle-10th-&-Welle,Seattle-Tacoma-Bellevue,US,47.597222,-122.319722
NGEL_OAPM_00956,Leavenworth-Evans-St,Wenatchee,US,47.5988,-120.6647
NGEL_OAPM_00957,Bellevue-SE-12th,KING,US,47.600863,-122.148397
NGEL_OAPM_00958,BATHURST,NEW-BRUNSWICK,CA,47.6094,-65.6333
NGEL_OAPM_00959,Airway-Heights-West,SPOKANE,US,47.645351,-117.589027
NGEL_OAPM_00960,Spokane-E-Broadway-A,Spokane,US,47.663963,-117.257652
NGEL_OAPM_00961,Spokane-Augusta-Ave,Spokane,US,47.672501,-117.364899
NGEL_OAPM_00962,Spokane-Monroe-St.,Spokane,US,47.6997,-117.4263
NGEL_OAPM_00963,Lancaster,Coeur-d'Alene,US,47.7889,-116.8044
NGEL_OAPM_00964,Lynnwood-212th,Seattle-Tacoma-Bellevue,US,47.8064,-122.3167
NGEL_OAPM_00965,Colbert-Greenbluff,SPOKANE,US,47.808226,-117.34327
NGEL_OAPM_00966,Chelan-Woodin-Ave,CHELAN,US,47.83861,-120.02306
NGEL_OAPM_00967,Nisekh,Ulaanbaatar,MN,47.863943,106.779094
NGEL_OAPM_00968,Sidney-201,RICHLAND,US,47.8679,-104.676864
NGEL_OAPM_00969,Wellpinit-Spokane-Tr,STEVENS,US,47.885201,-117.988602
NGEL_OAPM_00970,Amgalan,Ulaanbaatar,MN,47.913429,106.997907
NGEL_OAPM_00971,Baruun-4-zam,Ulaanbaatar,MN,47.9153833,106.8941944
NGEL_OAPM_00972,Bukhiin-urguu,Ulaanbaatar,MN,47.9176056,106.9373611
NGEL_OAPM_00973,Tolgoit,Ulaanbaatar,MN,47.922495,106.794805
NGEL_OAPM_00974,US-Diplomatic-Post:-Ulaanbaatar,Ulaanbaatar,MN,47.928387,106.92947
NGEL_OAPM_00975,MNB,Ulaanbaatar,MN,47.929732,106.888629
NGEL_OAPM_00976,Ely,LAKE,US,47.9464,-91.4953
NGEL_OAPM_00977,Grand-Portage,COOK,US,47.9721,-89.6908
NGEL_OAPM_00978,Marysville-7th-Ave,Seattle-Tacoma-Bellevue,US,48.055,-122.175797
NGEL_OAPM_00979,Port-Angeles-E-5th-S,CLALLAM,US,48.115,-123.436434
NGEL_OAPM_00980,Port-Townsend-San-Ju,JEFFERSON,US,48.129101,-122.7789
NGEL_OAPM_00981,Darrington-Fir-St,Seattle-Tacoma-Bellevue,US,48.246799,-121.603104
NGEL_OAPM_00982,Cheeka-Peak,Port-Angeles,US,48.2867,-124.6203
NGEL_OAPM_00983,Sandpoint-U-of-I,BONNER,US,48.291821,-116.556557
NGEL_OAPM_00984,Oak-Harbor-SW-6th-(U,ISLAND,US,48.294399,-122.660004
NGEL_OAPM_00985,Malta,PHILLIPS,US,48.317507,-107.862471
NGEL_OAPM_00986,Columbia-Falls,FLATHEAD,US,48.363694,-114.189272
NGEL_OAPM_00987,Twisp-Glover-St,CHELAN,US,48.3645,-120.1211
NGEL_OAPM_00988,Neah-Bay-2-Makah-Tri,Port-Angeles,US,48.366058,-124.610046
NGEL_OAPM_00989,M_Okanogan2,OKANOGAN,US,48.374739,-119.568756
NGEL_OAPM_00990,Libby-Courthouse,LINCOLN,US,48.3841,-115.548
NGEL_OAPM_00991,Omak-Colville-Tribe,OKANOGAN,US,48.39999,-119.518959
NGEL_OAPM_00992,Mt-Vernon-2nd-Ave,Mount-Vernon-Anacortes,US,48.410198,-122.337601
NGEL_OAPM_00993,Victoria-Topaz,BRITISH-COLUMBIA,CA,48.4292,-123.3583
NGEL_OAPM_00994,Anacortes-Bartholome,SKAGIT,US,48.465401,-122.559998
NGEL_OAPM_00995,Winthrop-Chewuch-Rd,OKANOGAN,US,48.4772,-120.1906
NGEL_OAPM_00996,Anacortes-202-Ave-(S,SKAGIT,US,48.52059,-122.61428
NGEL_OAPM_00997,Colville-E-1st-St,STEVENS,US,48.54469,-117.903222
NGEL_OAPM_00998,Boundary-County,BOUNDARY,US,48.705551,-116.368965
NGEL_OAPM_00999,Bellingham-Yew-St,Bellingham,US,48.762699,-122.440201
NGEL_OAPM_01000,Mt-Hall,BOUNDARY,US,48.894014,-116.359419
NGEL_OAPM_01001,Porthill,BOUNDARY,US,48.998333,-116.359419
NGEL_OAPM_01002,Abbotsford-Airport,BRITISH-COLUMBIA,CA,49.021506,-122.326556
NGEL_OAPM_01003,North-Delta,BRITISH-COLUMBIA,CA,49.15833,-122.90167
NGEL_OAPM_01004,Kensington-Park,BRITISH-COLUMBIA,CA,49.2794,-122.9711
NGEL_OAPM_01005,Rocky-Point-Park,BRITISH-COLUMBIA,CA,49.28083,-122.84917
NGEL_OAPM_01006,Lethbridge,ALBERTA,CA,49.7164,-112.8006
NGEL_OAPM_01007,Brandon,MANITOBA,CA,49.8422,-99.9189
NGEL_OAPM_01008,Powell-River-Wildwoo,BRITISH-COLUMBIA,CA,49.8875,-124.5583
NGEL_OAPM_01009,Powell-River-James-T,BRITISH-COLUMBIA,CA,49.8891,-124.5625
NGEL_OAPM_01010,Medicine-Hat---Cresc,ALBERTA,CA,50.0492,-110.6814
NGEL_OAPM_01011,Plymouth-Centre,Plymouth,GB,50.37167,-4.142361
NGEL_OAPM_01012,Saltash-Callington-Road,Saltash,GB,50.411463,-4.227678
NGEL_OAPM_01013,Eastbourne,Eastbourne,GB,50.805778,0.271611
NGEL_OAPM_01014,Portsmouth,Portsmouth,GB,50.82881,-1.068583
NGEL_OAPM_01015,Maastricht-A2-Nassaulaan,Maastricht,NL,50.8459,5.71475
NGEL_OAPM_01016,Maastricht-Hoge-Fronten,Maastricht,NL,50.8521,5.6758
NGEL_OAPM_01017,Maastricht-A2-Kasteel-Hillenraadweg,Maastricht,NL,50.8598,5.71381
NGEL_OAPM_01018,Heerlen-Looierstraat,Heerlen,NL,50.888,5.9705
NGEL_OAPM_01019,Heerlen-Jamboreepad,Heerlen,NL,50.9003,5.98685
NGEL_OAPM_01020,Southampton-Centre,Southampton,GB,50.90814,-1.395778
NGEL_OAPM_01021,Geleen-Asterstraat,Geleen,NL,50.9844,5.82223
NGEL_OAPM_01022,Barnstaple-A39,Barnstaple,GB,51.074793,-4.041924
NGEL_OAPM_01023,Calgary-Northwest,ALBERTA,CA,51.0814,-114.1403
NGEL_OAPM_01024,Chilbolton-Observatory,Stockbridge,GB,51.149617,-1.438228
NGEL_OAPM_01025,Veldhoven-Europalaan,Veldhoven,NL,51.4074,5.39333
NGEL_OAPM_01026,London-Teddington-Bushy-Park,London,GB,51.425286,-0.345606
NGEL_OAPM_01027,London-Eltham,London,GB,51.45258,0.070766
NGEL_OAPM_01028,Reading-New-Town,Reading,GB,51.45309,-0.944067
NGEL_OAPM_01029,Horst-a/d-Maas-Hoogheide,Horst-a/d-Maas,NL,51.4541,6.1082
NGEL_OAPM_01030,Rochester-Stoke,Rochester,GB,51.45617,0.634889
NGEL_OAPM_01031,Bristol-St-Paul's,Bristol,GB,51.462839,-2.584482
NGEL_OAPM_01032,London-Bexley,London,GB,51.46603,0.184806
NGEL_OAPM_01033,Cardiff-Centre,Cardiff,GB,51.48178,-3.17625
NGEL_OAPM_01034,London-Harlington,London,GB,51.48879,-0.441614
NGEL_OAPM_01035,Stanford-le-Hope-Roadside,Stanford-le-Hope,GB,51.518167,0.439548
NGEL_OAPM_01036,Biest-Houtakker-Biestsestraat,Biest-Houtakker,NL,51.5184,5.14845
NGEL_OAPM_01037,London-N.-Kensington,London,GB,51.52105,-0.213492
NGEL_OAPM_01038,London-Bloomsbury,London,GB,51.52229,-0.125889
NGEL_OAPM_01039,London-Marylebone-Road,London,GB,51.52253,-0.154611
NGEL_OAPM_01040,Vredepeel-Vredeweg,Vredepeel,NL,51.5405,5.85307
NGEL_OAPM_01041,Southend-on-Sea,London,GB,51.544206,0.678408
NGEL_OAPM_01042,Camden-Kerbside,London,GB,51.54421,-0.175269
NGEL_OAPM_01043,Port-Talbot-Margam,Port-Talbot,GB,51.58395,-3.770822
NGEL_OAPM_01044,Breda-Tilburgseweg,Breda,NL,51.5935,4.82494
NGEL_OAPM_01045,Breda-Bastenakenstraat,Breda,NL,51.6031,4.78102
NGEL_OAPM_01046,Swansea-Roadside,Swansea,GB,51.632696,-3.947374
NGEL_OAPM_01047,Chepstow-A48,Chepstow,GB,51.638094,-2.678731
NGEL_OAPM_01048,Oxford-St-Ebbes,Oxford,GB,51.744806,-1.260278
NGEL_OAPM_01049,Nijmegen-Ruyterstraat,Nijmegen,NL,51.8382,5.85694
NGEL_OAPM_01050,Nijmegen-Graafseweg,Nijmegen,NL,51.8414,5.85778
NGEL_OAPM_01051,Ridderkerk-Hogeweg,Ridderkerk,NL,51.8694,4.58006
NGEL_OAPM_01052,Rotterdam-Zuid-Pleinweg,Rotterdam-Zuid,NL,51.8911,4.48069
NGEL_OAPM_01053,Rotterdam-Zuid-Zwartewaalstraat,Rotterdam-Zuid,NL,51.8936,4.48753
NGEL_OAPM_01054,Vlaardingen-Floreslaan,Vlaardingen,NL,51.9105,4.3263
NGEL_OAPM_01055,Rotterdam-Schiedamsevest,Rotterdam,NL,51.9142,4.47992
NGEL_OAPM_01056,Schiedam-Alphons-Arienstraat,Schiedam,NL,51.9214,4.40139
NGEL_OAPM_01057,Rotterdam-Bentinckplein,Rotterdam,NL,51.9271,4.46134
NGEL_OAPM_01058,Maassluis-Kwartellaan,Maassluis,NL,51.932,4.22802
NGEL_OAPM_01059,Rotterdam-Oost-Sidelinge-A13,Rotterdam,NL,51.9385,4.43069
NGEL_OAPM_01060,Cabauw-Wielsekade,Cabauw,NL,51.9745,4.9233
NGEL_OAPM_01061,Hoek-v.-Holland-Berghaven,Hoek-v.-Holland,NL,51.9778,4.12194
NGEL_OAPM_01062,Den-Haag-Rebecquestraat,Den-Haag,NL,52.0771,4.28919
NGEL_OAPM_01063,Utrecht-Griftpark,Utrecht,NL,52.1013,5.12818
NGEL_OAPM_01064,Utrecht-de-Jongweg,Utrecht,NL,52.105,5.12446
NGEL_OAPM_01065,Wekerom-Riemterdijk,Wekerom,NL,52.1116,5.70842
NGEL_OAPM_01066,Williams-Lake-Column,BRITISH-COLUMBIA,CA,52.1342,-122.1528
NGEL_OAPM_01067,Breukelen-Snelweg,Breukelen,NL,52.2015,4.98744
NGEL_OAPM_01068,Enschede-Winkelhorst,Enschede,NL,52.2345,6.91949
NGEL_OAPM_01069,Hilversum-J.-Gerardtsweg,Hilversum,NL,52.2351,5.18155
NGEL_OAPM_01070,Leamington-Spa,Leamington-Spa,GB,52.28881,-1.533119
NGEL_OAPM_01071,Leamington-Spa-Rugby-Road,Leamington-Spa,GB,52.294884,-1.542911
NGEL_OAPM_01072,De-Zilk-Vogelaarsdreef,De-Zilk,NL,52.2966,4.51082
NGEL_OAPM_01073,Red-Deer,ALBERTA,CA,52.2989,-113.7942
NGEL_OAPM_01074,Badhoevedorp-Sloterweg,Badhoevedorp,NL,52.334,4.77401
NGEL_OAPM_01075,Amsterdam-Stadhouderskade,Amsterdam,NL,52.358,4.8997
NGEL_OAPM_01076,Amsterdam-Vondelpark,Amsterdam,NL,52.3597,4.86621
NGEL_OAPM_01077,Amsterdam-Einsteinweg,Amsterdam,NL,52.3813,4.84523
NGEL_OAPM_01078,Amsterdam-Van-Diemenstraat,Amsterdam,NL,52.39,4.88781
NGEL_OAPM_01079,Amsterdam-Westerpark,Amsterdam,NL,52.394,4.87016
NGEL_OAPM_01080,Amsterdam-Spaarnwoude,Amsterdam,NL,52.3984,4.72858
NGEL_OAPM_01081,Coventry-Allesley,Coventry,GB,52.411563,-1.560228
NGEL_OAPM_01082,Amsterdam-Hoogtij,Amsterdam,NL,52.428,4.77348
NGEL_OAPM_01083,Birmingham-Acocks-Green,Birmingham,GB,52.437165,-1.829999
NGEL_OAPM_01084,Zaandam-Wagenschotpad,Zaandam,NL,52.448,4.81671
NGEL_OAPM_01085,IJmuiden-Kanaaldijk,IJmuiden,NL,52.463,4.60184
NGEL_OAPM_01086,Velsen-Staalstraat,Velsen,NL,52.4744,4.6288
NGEL_OAPM_01087,Birmingham-A4540-Roadside,West-Midlands,GB,52.47609,-1.875024
NGEL_OAPM_01088,Velsen-Reijndersweg,Velsen,NL,52.4789,4.57934
NGEL_OAPM_01089,Beverwijk-West-Creutzberglaan,Beverwijk-West,NL,52.4893,4.64053
NGEL_OAPM_01090,Wijk-aan-Zee-Burgemeester-Rothestraat,Wijk-aan-Zee,NL,52.494,4.60199
NGEL_OAPM_01091,Norwich-Lakenfields,Norwich,GB,52.614193,1.301976
NGEL_OAPM_01092,Leicester-University,Leicester,GB,52.619823,-1.127311
NGEL_OAPM_01093,Wieringerwerf-Medemblikkerweg,Wieringerwerf,NL,52.8037,5.05051
NGEL_OAPM_01094,Nottingham-Centre,Nottingham,GB,52.95473,-1.146447
NGEL_OAPM_01095,Quesnel-Senior-Secon,BRITISH-COLUMBIA,CA,52.9822,-122.4922
NGEL_OAPM_01096,Stoke-on-Trent-Centre,Stoke-on-Trent,GB,53.02821,-2.175133
NGEL_OAPM_01097,Groningen-Europaweg,Groningen,NL,53.2178,6.5789
NGEL_OAPM_01098,Chesterfield-Roadside,Chesterfield,GB,53.231722,-1.456944
NGEL_OAPM_01099,Chesterfield-Loundsley-Green,Chesterfield,GB,53.244131,-1.454946
NGEL_OAPM_01100,Groningen-Nijensteinheerd,Groningen,NL,53.2465,6.60894
NGEL_OAPM_01101,Liverpool-Speke,Liverpool,GB,53.34633,-2.844333
NGEL_OAPM_01102,Tomahawk,ALBERTA,CA,53.37,-115.1906
NGEL_OAPM_01103,Wirral-Tranmere,Liverpool,GB,53.37287,-3.022722
NGEL_OAPM_01104,Sheffield-Devonshire-Green,Sheffield,GB,53.378622,-1.478096
NGEL_OAPM_01105,Warrington,Warrington,GB,53.38928,-2.615358
NGEL_OAPM_01106,Manchester-Piccadilly,Manchester,GB,53.48152,-2.237881
NGEL_OAPM_01107,Salford-Eccles,Manchester,GB,53.48481,-2.334139
NGEL_OAPM_01108,Edmonton-South,ALBERTA,CA,53.5028,-113.6111
NGEL_OAPM_01109,Edmonton-Central,ALBERTA,CA,53.5453,-113.4992
NGEL_OAPM_01110,Edmonton-East,ALBERTA,CA,53.5472,-113.3681
NGEL_OAPM_01111,Wigan-Centre,Wigan,GB,53.54914,-2.638139
NGEL_OAPM_01112,Elk-Island,ALBERTA,CA,53.6825,-112.8686
NGEL_OAPM_01113,Fort-Saskatchewan,ALBERTA,CA,53.6989,-113.2233
NGEL_OAPM_01114,Hull-Freetown,Hull,GB,53.74878,-0.341222
NGEL_OAPM_01115,Preston,Preston,GB,53.76559,-2.680353
NGEL_OAPM_01116,Leeds-Centre,Leeds,GB,53.80378,-1.546472
NGEL_OAPM_01117,Blackpool-Marton,Blackpool,GB,53.80489,-3.007175
NGEL_OAPM_01118,Leeds-Headingley-Kerbside,Leeds,GB,53.819972,-1.576361
NGEL_OAPM_01119,York-Fishergate,York,GB,53.951889,-1.075861
NGEL_OAPM_01120,York-Bootham,York,GB,53.967513,-1.086514
NGEL_OAPM_01121,Kitimat-Riverlodge,BRITISH-COLUMBIA,CA,54.0558,-128.6739
NGEL_OAPM_01122,Cold-Lake-South,ALBERTA,CA,54.4138,-110.2331
NGEL_OAPM_01123,Stockton-on-Tees-Eaglescliffe,Stockton-on-Tees,GB,54.516667,-1.358547
NGEL_OAPM_01124,Stockton-on-Tees-A1305-Roadside,Stockton-on-Tees,GB,54.565819,-1.3159
NGEL_OAPM_01125,Middlesbrough,Middlesbrough,GB,54.569297,-1.220874
NGEL_OAPM_01126,Belfast-Centre,Belfast,GB,54.59965,-5.928833
NGEL_OAPM_01127,Smithers-St-Josephs,BRITISH-COLUMBIA,CA,54.7831,-127.1775
NGEL_OAPM_01128,Sunderland-Silksworth,Sunderland,GB,54.88361,-1.406878
NGEL_OAPM_01129,Carlisle-Roadside,Carlisle,GB,54.894834,-2.945307
NGEL_OAPM_01130,Newcastle-Centre,Newcastle,GB,54.97825,-1.610528
NGEL_OAPM_01131,Derry-Rosemount,Derry,GB,55.002818,-7.331179
NGEL_OAPM_01132,Beaverlodge,ALBERTA,CA,55.1964,-119.3967
NGEL_OAPM_01133,Auchencorth-Moss,Auchencorth,GB,55.79216,-3.2429
NGEL_OAPM_01134,Glasgow-High-Street,Glasgow,GB,55.860936,-4.238214
NGEL_OAPM_01135,Glasgow-Townhead,Glasgow,GB,55.865782,-4.243631
NGEL_OAPM_01136,Greenock-A8-Roadside,Central-Scotland,GB,55.944079,-4.734421
NGEL_OAPM_01137,Edinburgh-St-Leonards,Edinburgh,GB,55.945589,-3.182186
NGEL_OAPM_01138,Grangemouth,Grangemouth,GB,56.010319,-3.704399
NGEL_OAPM_01139,Athabasca-Valley,ALBERTA,CA,56.7328,-111.39
NGEL_OAPM_01140,Patricia-McInnes,ALBERTA,CA,56.7522,-111.4761
NGEL_OAPM_01141,Aberdeen,Aberdeen,GB,57.15736,-2.094278
NGEL_OAPM_01142,Fort-McKay,ALBERTA,CA,57.1889,-111.6406
NGEL_OAPM_01143,Floyd-Dryden,JUNEAU,US,58.388889,-134.565556
NGEL_OAPM_01144,Fort-Chipewyan,ALBERTA,CA,58.7083,-111.1764
NGEL_OAPM_01145,Våland,Stavanger,NO,58.96173,5.73147
NGEL_OAPM_01146,Kannik,Stavanger,NO,58.96415,5.72785
NGEL_OAPM_01147,Furulund,Grenland,NO,59.057304,9.695568
NGEL_OAPM_01148,Lensmannsdalen,Grenland,NO,59.15927,9.63565
NGEL_OAPM_01149,St.Croix,Fredrikstad,NO,59.2103,10.9454
NGEL_OAPM_01150,Alvim,Sarpsborg,NO,59.27377544,11.08919017
NGEL_OAPM_01151,Hornsgatan,Stockholm,SE,59.31713214,18.04878744
NGEL_OAPM_01152,Lilla-Essingen-(E4/E20),Stockholm,SE,59.32551867,18.00396061
NGEL_OAPM_01153,Sveavägen,Stockholm,SE,59.34516113,18.05428175
NGEL_OAPM_01154,Kransen,Moss,NO,59.433471,10.66176236
NGEL_OAPM_01155,Uppsala-Kungsgatan,Uppsala,SE,59.85953006,17.64248414
NGEL_OAPM_01156,Manglerud,Oslo,NO,59.89869,10.81495
NGEL_OAPM_01157,Eilif-Dues-vei,Bærum,NO,59.90608,10.61195
NGEL_OAPM_01158,Hjortnes,Oslo,NO,59.91132,10.70407
NGEL_OAPM_01159,Bekkestua,Bærum,NO,59.9181,10.5839
NGEL_OAPM_01160,Bygdøy-Alle,Oslo,NO,59.91898,10.69707
NGEL_OAPM_01161,Breivoll,Oslo,NO,59.9211,10.83363
NGEL_OAPM_01162,Sofienbergparken,Oslo,NO,59.92295,10.76573
NGEL_OAPM_01163,Alnabru,Oslo,NO,59.92773,10.84633
NGEL_OAPM_01164,Smestad,Oslo,NO,59.93255,10.66984
NGEL_OAPM_01165,Rv-4--Aker-sykehus,Oslo,NO,59.94103,10.79803
NGEL_OAPM_01166,Vigernes,Lillestrøm,NO,59.955477,11.073983
NGEL_OAPM_01167,Loddefjord,Bergen,NO,60.361135,5.23686
NGEL_OAPM_01168,Danmarks-plass,Bergen,NO,60.37408,5.34042
NGEL_OAPM_01169,Rådhuset,Bergen,NO,60.39213,5.32805
NGEL_OAPM_01170,Rolland--Åsane,Bergen,NO,60.462665,5.332447
NGEL_OAPM_01171,Minnesundvegen--Gjøvik,Gjøvik,NO,60.79089,10.6967
NGEL_OAPM_01172,Leiret,Elverum,NO,60.88364255,11.55930063
NGEL_OAPM_01173,Bankplassen,Lillehammer,NO,61.11288,10.46497
NGEL_OAPM_01174,Lillehammer-barnehage,Lillehammer,NO,61.12087,10.46563
NGEL_OAPM_01175,Garden,Anchorage,US,61.205861,-149.8246
NGEL_OAPM_01176,Parkgate-(Eagle-Rive,Anchorage,US,61.3267,-149.569707
NGEL_OAPM_01177,Butte-(Harrison-Cour,MATANUSKA-SUSITNA,US,61.534163,-149.031655
NGEL_OAPM_01178,Palmer,MATANUSKA-SUSITNA,US,61.5989,-149.106216
NGEL_OAPM_01179,E6-Tiller,Trondheim,NO,63.3576,10.3719
NGEL_OAPM_01180,Elgeseter,Trondheim,NO,63.419239,10.395945
NGEL_OAPM_01181,Torvet,Trondheim,NO,63.43038,10.39355
NGEL_OAPM_01182,Bakke-kirke,Trondheim,NO,63.43293,10.41067
NGEL_OAPM_01183,North-Pole-Fire-Stat,Fairbanks,US,64.762973,-147.310297
NGEL_OAPM_01184,NCore,Fairbanks,US,64.8458,-147.72727
NGEL_OAPM_01185,Sentrum,Narvik,NO,68.435397,17.424891
NGEL_OAPM_01186,Hansjordnesbukta,Tromsø,NO,69.65625,18.96372
NGEL_OAPM_01187,US-Diplomatic-Post:-Addis-Ababa-Central,Addis-Ababa,ET,9.058498,38.761642
NGEL_CITY_01189,Aba,Aba,NG,5.100397968,7.34998002
NGEL_CITY_01190,Abadan,Abadan,IR,30.33074424,48.2796781
NGEL_CITY_01191,Abbottabad,Abbottabad,PK,34.1495034,73.19950069
NGEL_CITY_01192,Abeche,Abeche,TD,13.83999371,20.82998409
NGEL_CITY_01193,Abeokuta,Abeokuta,NG,7.160427265,3.350017455
NGEL_CITY_01194,Abha,Abha,SA,18.2300875,42.50013424
NGEL_CITY_01195,Abidjan,Abidjan,CI,5.319996967,-4.04004826
NGEL_CITY_01196,Abu-Dhabi,Abu-Dhabi,AE,24.46668357,54.36659338
NGEL_CITY_01197,Abuja,Abuja,NG,9.083333149,7.533328002
NGEL_CITY_01198,Accra,Accra,GH,5.550034606,-0.21671574
NGEL_CITY_01199,Ad-Damazin,Ad-Damazin,SD,11.77040428,34.34998572
NGEL_CITY_01200,Ad-Damman,Ad-Damman,SA,26.42819175,50.09967037
NGEL_CITY_01201,Ad-Diwaniyah,Ad-Diwaniyah,IQ,31.9889376,44.92396562
NGEL_CITY_01202,Adana,Adana,TR,36.99498863,35.32000403
NGEL_CITY_01203,Addis-Ababa,Addis-Ababa,ET,9.033310363,38.70000443
NGEL_CITY_01204,Adelaide,Adelaide,AU,-34.93498777,138.6000048
NGEL_CITY_01205,Aden,Aden,YE,12.77972251,45.00949011
NGEL_CITY_01206,Adigrat,Adigrat,ET,14.28043194,39.46998328
NGEL_CITY_01207,Adiyaman,Adiyaman,TR,37.77039349,38.27992672
NGEL_CITY_01208,Ado-Ekiti,Ado-Ekiti,NG,7.630372741,5.219980834
NGEL_CITY_01209,Agadez,Agadez,NE,16.99587343,7.98280961
NGEL_CITY_01210,Agadir,Agadir,MA,30.43998822,-9.620043581
NGEL_CITY_01211,Agra,Agra,IN,27.17042035,78.01502071
NGEL_CITY_01212,Ahmedabad,Ahmedabad,IN,23.03005292,72.58000362
NGEL_CITY_01213,Ahvaz,Ahvaz,IR,31.27998863,48.72001298
NGEL_CITY_01214,Ajdabiya,Ajdabiya,LY,30.76999392,20.21999548
NGEL_CITY_01215,Akure,Akure,NG,7.250395934,5.199982054
NGEL_CITY_01216,Al-Amarah,Al-Amarah,IQ,31.84160809,47.15116817
NGEL_CITY_01217,Al-Ayn,Al-Ayn,AE,24.2304706,55.73999792
NGEL_CITY_01218,Al-Fallujah,Al-Fallujah,IQ,33.34766604,43.77726558
NGEL_CITY_01219,Al-Hasakah,Al-Hasakah,SY,36.48328859,40.7500085
NGEL_CITY_01220,Al-Hillah,Al-Hillah,IQ,32.47213808,44.42172237
NGEL_CITY_01221,Al-Hudaydah,Al-Hudaydah,YE,14.79794558,42.95297481
NGEL_CITY_01222,Al-Hufuf,Al-Hufuf,SA,25.3487486,49.58559322
NGEL_CITY_01223,Al-Jahra,Al-Jahra,KW,29.33747154,47.6580623
NGEL_CITY_01224,Al-Jubayl,Al-Jubayl,SA,27.00464235,49.64600297
NGEL_CITY_01225,Al-Khalil,Al-Khalil,PS,31.54059287,35.09557328
NGEL_CITY_01226,Al-Kharj,Al-Kharj,SA,24.15556561,47.3120369
NGEL_CITY_01227,Al-Khums,Al-Khums,LY,32.66042116,14.25999752
NGEL_CITY_01228,Al-Kut,Al-Kut,IQ,32.49071576,45.83037024
NGEL_CITY_01229,Al-Ladhiqiyah,Al-Ladhiqiyah,SY,35.539987,35.77997595
NGEL_CITY_01230,Al-Marj,Al-Marj,LY,32.50045677,20.82998409
NGEL_CITY_01231,Al-Mubarraz,Al-Mubarraz,SA,25.42905377,49.5659045
NGEL_CITY_01232,Al-Mukalla,Al-Mukalla,YE,14.54116538,49.12593135
NGEL_CITY_01233,Al-Qamishli,Al-Qamishli,SY,37.03002525,41.22997921
NGEL_CITY_01234,Al-Qatif,Al-Qatif,SA,26.5196332,50.01151037
NGEL_CITY_01235,Aleppo,Aleppo,SY,36.22997072,37.1700203
NGEL_CITY_01236,Alexandria,Alexandria,EG,31.20001935,29.94999589
NGEL_CITY_01237,Algeciras,Algeciras,ES,36.12671215,-5.466530363
NGEL_CITY_01238,Algiers,Algiers,DZ,36.7630648,3.05055253
NGEL_CITY_01239,Allahabad,Allahabad,IN,25.45499534,81.84000688
NGEL_CITY_01240,Almaty,Almaty,KZ,43.32498985,76.91503617
NGEL_CITY_01241,Almeria,Almeria,ES,36.83034751,-2.429991497
NGEL_CITY_01242,Amman,Amman,JO,31.95002525,35.93329993
NGEL_CITY_01243,Amol,Amol,IR,36.4713255,52.36330481
NGEL_CITY_01244,Amritsar,Amritsar,IN,31.63999249,74.86999304
NGEL_CITY_01245,Amsterdam,Amsterdam,NL,52.34996869,4.916640176
NGEL_CITY_01246,An-Najaf,An-Najaf,IQ,32.00033225,44.33537105
NGEL_CITY_01247,An-Nasiriyah,An-Nasiriyah,IQ,31.04294883,46.26755286
NGEL_CITY_01248,Ankang,Ankang,CN,32.67998069,109.0200016
NGEL_CITY_01249,Ankara,Ankara,TR,39.92723859,32.86439164
NGEL_CITY_01250,Annaba,Annaba,DZ,36.92000612,7.759980834
NGEL_CITY_01251,Anshan,Anshan,CN,41.11502138,122.9400305
NGEL_CITY_01252,Antalya,Antalya,TR,36.88998212,30.69997595
NGEL_CITY_01253,Antananarivo,Antananarivo,MG,-18.91663735,47.5166239
NGEL_CITY_01254,Antioch,Antioch,TR,36.23333409,36.11667656
NGEL_CITY_01255,Antsirabe,Antsirabe,MG,-19.85001707,47.03329423
NGEL_CITY_01256,Anyang,Anyang,CN,36.07997988,114.3500122
NGEL_CITY_01257,Ar-Ramadi,Ar-Ramadi,IQ,33.42001304,43.29998205
NGEL_CITY_01258,Ar-Raqqah,Ar-Raqqah,SY,35.93037661,39.0199849
NGEL_CITY_01259,Arak,Arak,DZ,25.2799931,3.749993041
NGEL_CITY_01260,Arar,Arar,SA,30.99000633,41.02068966
NGEL_CITY_01261,Arua,Arua,UG,3.020369892,30.90001542
NGEL_CITY_01262,Arusha,Arusha,TZ,-3.36001585,36.66999914
NGEL_CITY_01263,As-Salt,As-Salt,JO,32.03919293,35.72721431
NGEL_CITY_01264,As-Samawah,As-Samawah,IQ,31.3098576,45.28027462
NGEL_CITY_01265,As-Sib,As-Sib,OM,23.68024579,58.18253617
NGEL_CITY_01266,As-Sulaymaniyah,As-Sulaymaniyah,IQ,35.56127769,45.43085974
NGEL_CITY_01267,Asansol,Asansol,IN,23.6833333,86.9833333
NGEL_CITY_01268,Ash-Shatrah,Ash-Shatrah,IQ,31.41752545,46.17722245
NGEL_CITY_01269,Ashgabat,Ashgabat,TM,37.94999493,58.38329911
NGEL_CITY_01270,Asmara,Asmara,ER,15.33333925,38.93332353
NGEL_CITY_01271,Assab,Assab,ER,13.01001853,42.72999101
NGEL_CITY_01272,Asuncion,Asuncion,PY,-25.29640298,-57.64150517
NGEL_CITY_01273,Aswan,Aswan,EG,24.08750775,32.8989115
NGEL_CITY_01274,Asyut,Asyut,EG,27.18997988,31.17994665
NGEL_CITY_01275,At-Taif,At-Taif,SA,21.26222801,40.38227901
NGEL_CITY_01276,Atbara,Atbara,SD,17.70999005,33.97998246
NGEL_CITY_01277,Athens,Athens,GR,37.98332623,23.73332108
NGEL_CITY_01278,Atlanta,Atlanta,US,33.83001385,-84.39994938
NGEL_CITY_01279,Austin,Austin,US,30.26694969,-97.74277836
NGEL_CITY_01280,Awasa,Awasa,ET,7.059996077,38.47699862
NGEL_CITY_01281,Awka,Awka,NG,6.210433572,7.06999711
NGEL_CITY_01282,Aydin,Aydin,TR,37.8499752,27.85002071
NGEL_CITY_01283,Az-Aubayr,Az-Aubayr,IQ,30.38916445,47.70798173
NGEL_CITY_01284,Az-Zarqa,Az-Zarqa,JO,32.06999208,36.1000081
NGEL_CITY_01285,Az-Zawiyah,Az-Zawiyah,LY,32.76041506,12.71998816
NGEL_CITY_01286,Bafoussam,Bafoussam,CM,5.490425841,10.40994828
NGEL_CITY_01287,Baghdad,Baghdad,IQ,33.3386485,44.39386877
NGEL_CITY_01288,Bahir-Dar,Bahir-Dar,ET,11.60005292,37.38328894
NGEL_CITY_01289,Baku,Baku,AZ,40.39527203,49.86221716
NGEL_CITY_01290,Baltimore,Baltimore,US,39.29999005,-76.61998499
NGEL_CITY_01291,Bamako,Bamako,ML,12.65001467,-8.000039105
NGEL_CITY_01292,Bamenda,Bamenda,CM,5.959983743,10.15001583
NGEL_CITY_01293,Bandar-Lampung,Bandar-Lampung,ID,-5.449604066,105.3000219
NGEL_CITY_01294,Bandar-e-Bushehr,Bandar-e-Bushehr,IR,28.91997764,50.83001339
NGEL_CITY_01295,Bandar-e-Abbas,Bandar-e-Abbas,IR,27.20405978,56.27213554
NGEL_CITY_01296,Bandundu,Bandundu,CD,-3.309993063,17.37996212
NGEL_CITY_01297,Bandung,Bandung,ID,-6.950029278,107.5700126
NGEL_CITY_01298,Bangalore,Bangalore,IN,12.96999514,77.56000972
NGEL_CITY_01299,Banghazi,Banghazi,LY,32.11673342,20.06672318
NGEL_CITY_01300,Bangkok,Bangkok,TH,13.74999921,100.5166447
NGEL_CITY_01301,Bangui,Bangui,CF,4.366644306,18.55828813
NGEL_CITY_01302,Baoding,Baoding,CN,38.87042971,115.4800207
NGEL_CITY_01303,Baoshan,Baoshan,CN,25.11997703,99.15000972
NGEL_CITY_01304,Baotou,Baotou,CN,40.65220725,109.8220198
NGEL_CITY_01305,Baqubah,Baqubah,IQ,33.74764162,44.65726355
NGEL_CITY_01306,Barcelona,Barcelona,ES,41.38329958,2.183370319
NGEL_CITY_01307,Barquisimeto,Barquisimeto,VE,10.04999249,-69.29996668
NGEL_CITY_01308,Barranquilla,Barranquilla,CO,10.95998863,-74.79996688
NGEL_CITY_01309,Basra,Basra,IQ,30.51352378,47.81355668
NGEL_CITY_01310,Bata,Bata,GQ,1.870000833,9.769987344
NGEL_CITY_01311,Batman,Batman,TR,37.89041201,41.14001054
NGEL_CITY_01312,Batna,Batna,DZ,35.56995933,6.170000365
NGEL_CITY_01313,Bauchi,Bauchi,NG,10.3103642,9.84000891
NGEL_CITY_01314,Baydhabo,Baydhabo,SO,3.119976216,43.64998653
NGEL_CITY_01315,Bechar,Bechar,DZ,31.61110537,-2.230003704
NGEL_CITY_01316,Beer-Sheva,Beer-Sheva,IL,31.2500163,34.8300081
NGEL_CITY_01317,Beijing,Beijing,CN,39.92889223,116.3882857
NGEL_CITY_01318,Beira,Beira,MZ,-19.82004474,34.87000565
NGEL_CITY_01319,Beirut,Beirut,LB,33.87197512,35.50970821
NGEL_CITY_01320,Bejaia,Bejaia,DZ,36.76037762,5.070015827
NGEL_CITY_01321,Bekasi,Bekasi,ID,-6.217257468,106.972323
NGEL_CITY_01322,Belem,Belem,BR,-1.450003236,-48.48002303
NGEL_CITY_01323,Belgrade,Belgrade,RS,44.81864545,20.46799068
NGEL_CITY_01324,Belo-Horizonte,Belo-Horizonte,BR,-19.91502602,-43.91500452
NGEL_CITY_01325,Benguela,Benguela,AO,-12.57826455,13.40723303
NGEL_CITY_01326,Benha,Benha,EG,30.46666512,31.18333563
NGEL_CITY_01327,Beni,Beni,CD,0.490446797,29.45002641
NGEL_CITY_01328,Beni-Suef,Beni-Suef,EG,29.08038129,31.09002966
NGEL_CITY_01329,Benin-City,Benin-City,NG,6.340477314,5.620008096
NGEL_CITY_01330,Benoni,Benoni,ZA,-26.14958087,28.32993974
NGEL_CITY_01331,Benxi,Benxi,CN,41.33038291,123.7500069
NGEL_CITY_01332,Berbera,Berbera,-99,10.43555035,45.01641475
NGEL_CITY_01333,Berlin,Berlin,DE,52.52181866,13.40154862
NGEL_CITY_01334,Bertoua,Bertoua,CM,4.580429707,13.67998124
NGEL_CITY_01335,Bhilai,Bhilai,IN,21.2166667,81.4333333
NGEL_CITY_01336,Bhisho,Bhisho,ZA,-32.86999754,27.38999711
NGEL_CITY_01337,Bhopal,Bhopal,IN,23.24998781,77.40999304
NGEL_CITY_01338,Bhubaneshwar,Bhubaneshwar,IN,20.27042808,85.82736039
NGEL_CITY_01339,Bida,Bida,NG,9.080413431,6.01001013
NGEL_CITY_01340,Birjand,Birjand,IR,32.88002016,59.21994055
NGEL_CITY_01341,Birmingham,Birmingham,GB,52.47497398,-1.919996787
NGEL_CITY_01342,Birnin-Kebbi,Birnin-Kebbi,NG,12.45041445,4.199939737
NGEL_CITY_01343,Bishkek,Bishkek,KG,42.87307945,74.58520422
NGEL_CITY_01344,Biskra,Biskra,DZ,34.85997683,5.73002722
NGEL_CITY_01345,Bissau,Bissau,GW,11.86502382,-15.59836084
NGEL_CITY_01346,Bizerte,Bizerte,TN,37.29042279,9.854995075
NGEL_CITY_01347,Blantyre,Blantyre,MW,-15.79000649,34.98994665
NGEL_CITY_01348,Blida,Blida,DZ,36.4203467,2.829997517
NGEL_CITY_01349,Bloemfontein,Bloemfontein,ZA,-29.11999388,26.22991288
NGEL_CITY_01350,Bo,Bo,SL,7.970016092,-11.74001754
NGEL_CITY_01351,Bobo-Dioulasso,Bobo-Dioulasso,BF,11.1799752,-4.289981325
NGEL_CITY_01352,Bogor,Bogor,ID,-6.570000795,106.7500109
NGEL_CITY_01353,Bogota,Bogota,CO,4.596423563,-74.08334396
NGEL_CITY_01354,Bojnurd,Bojnurd,IR,37.46999839,57.32000484
NGEL_CITY_01355,Boke,Boke,GN,10.93998985,-14.29999048
NGEL_CITY_01356,Boma,Boma,CD,-5.829994284,13.04999385
NGEL_CITY_01357,Bongor,Bongor,TD,10.28594708,15.38716386
NGEL_CITY_01358,Bordj-Bou-Arreridj,Bordj-Bou-Arreridj,DZ,36.05900401,4.629996466
NGEL_CITY_01359,Borujerd,Borujerd,IR,33.91995668,48.8000081
NGEL_CITY_01360,Boston,Boston,US,42.32996014,-71.07001367
NGEL_CITY_01361,Bouake,Bouake,CI,7.689981505,-5.030013673
NGEL_CITY_01362,Bouira,Bouira,DZ,36.38047833,3.900009724
NGEL_CITY_01363,Brasilia,Brasilia,BR,-15.78334023,-47.91605229
NGEL_CITY_01364,Brazzaville,Brazzaville,CG,-4.259185772,15.28468949
NGEL_CITY_01365,Brikama,Brikama,GM,13.28036379,-16.65994979
NGEL_CITY_01366,Brisbane,Brisbane,AU,-27.45503091,153.0350927
NGEL_CITY_01367,Brussels,Brussels,BE,50.83331708,4.333316608
NGEL_CITY_01368,Bucharest,Bucharest,RO,44.4333718,26.09994665
NGEL_CITY_01369,Budapest,Budapest,HU,47.50000633,19.08332068
NGEL_CITY_01370,Buenos-Aires,Buenos-Aires,AR,-34.60250161,-58.39753137
NGEL_CITY_01371,Bujumbura,Bujumbura,BI,-3.37608722,29.36000606
NGEL_CITY_01372,Bukavu,Bukavu,CD,-2.509990215,28.8400378
NGEL_CITY_01373,Bulawayo,Bulawayo,ZW,-20.16999754,28.58000199
NGEL_CITY_01374,Bumba,Bumba,CD,2.189981302,22.45996212
NGEL_CITY_01375,Bur-Said,Bur-Said,EG,31.25998985,32.2900081
NGEL_CITY_01376,Buraydah,Buraydah,SA,26.36638674,43.96283565
NGEL_CITY_01377,Burco,Burco,-99,9.520386575,45.54000037
NGEL_CITY_01378,Bursa,Bursa,TR,40.1999868,29.06999792
NGEL_CITY_01379,Busan,Busan,KR,35.09505292,129.0100476
NGEL_CITY_01380,Butembo,Butembo,CD,0.130003681,29.28001094
NGEL_CITY_01381,Cagayan-de-Oro,Cagayan-de-Oro,PH,8.450839456,124.6852986
NGEL_CITY_01382,Cairo,Cairo,EG,30.04996035,31.24996822
NGEL_CITY_01383,Calabar,Calabar,NG,4.960406513,8.330023558
NGEL_CITY_01384,Calgary,Calgary,CA,51.08299176,-114.0799982
NGEL_CITY_01385,Cali,Cali,CO,3.399959126,-76.49996647
NGEL_CITY_01386,Campinas,Campinas,BR,-22.90001178,-47.10002975
NGEL_CITY_01387,Cape-Coast,Cape-Coast,GH,5.11037152,-1.249986004
NGEL_CITY_01388,Cape-Town,Cape-Town,ZA,-33.92001097,18.43498816
NGEL_CITY_01389,Caracas,Caracas,VE,10.50099855,-66.91703719
NGEL_CITY_01390,Cartagena,Cartagena,CO,10.39973859,-75.51439356
NGEL_CITY_01391,Casablanca,Casablanca,MA,33.59997622,-7.616367433
NGEL_CITY_01392,Catania,Catania,IT,37.49997072,15.07999914
NGEL_CITY_01393,Cebu,Cebu,PH,10.31997601,123.9000752
NGEL_CITY_01394,Ceerigaabo,Ceerigaabo,,10.58329807,47.33330461
NGEL_CITY_01395,Chandigarh,Chandigarh,IN,30.71999697,76.78000565
NGEL_CITY_01396,Changchun,Changchun,CN,43.86500856,125.3399873
NGEL_CITY_01397,Changde,Changde,CN,29.02999676,111.6800459
NGEL_CITY_01398,Changsha,Changsha,CN,28.19996991,112.969993
NGEL_CITY_01399,Changwon,Changwon,KR,35.21910219,128.583562
NGEL_CITY_01400,Changzhou,Changzhou,CN,31.77998395,119.9699792
NGEL_CITY_01401,Charlotte,Charlotte,US,35.20499453,-80.83003809
NGEL_CITY_01402,Chelyabinsk,Chelyabinsk,RU,55.15499127,61.43866817
NGEL_CITY_01403,Chengdu,Chengdu,CN,30.67000002,104.0700195
NGEL_CITY_01404,Chennai,Chennai,IN,13.08998781,80.27999874
NGEL_CITY_01405,Chicago,Chicago,US,41.82999066,-87.75005497
NGEL_CITY_01406,Chifeng,Chifeng,CN,42.27001548,118.9499898
NGEL_CITY_01407,Chimoio,Chimoio,MZ,-19.12003579,33.47003943
NGEL_CITY_01408,Chingola,Chingola,ZM,-12.53961058,27.85002071
NGEL_CITY_01409,Chittagong,Chittagong,BD,22.32999229,91.79996741
NGEL_CITY_01410,Chitungwiza,Chitungwiza,ZW,-18.00000079,31.10000321
NGEL_CITY_01411,Chlef,Chlef,DZ,36.17041363,1.319960489
NGEL_CITY_01412,Chongqing,Chongqing,CN,29.56497703,106.5949816
NGEL_CITY_01413,Cilacap,Cilacap,ID,-7.718819561,109.0154024
NGEL_CITY_01414,Cincinnati,Cincinnati,US,39.16188479,-84.45692265
NGEL_CITY_01415,Ciudad-Juárez,Ciudad-Juárez,MX,31.69037701,-106.4900481
NGEL_CITY_01416,Cleveland,Cleveland,US,41.4699868,-81.69499821
NGEL_CITY_01417,Cochabamba,Cochabamba,BO,-17.41001097,-66.16997685
NGEL_CITY_01418,Coimbatore,Coimbatore,IN,10.99996035,76.95002112
NGEL_CITY_01419,Cologne,Cologne,DE,50.93000368,6.950004434
NGEL_CITY_01420,Conakry,Conakry,GN,9.531522846,-13.68023503
NGEL_CITY_01421,Constantine,Constantine,DZ,36.35998863,6.599948281
NGEL_CITY_01422,Cotonou,Cotonou,BJ,6.400008564,2.519990599
NGEL_CITY_01423,Curepipe,Curepipe,MU,-20.31619017,57.51663367
NGEL_CITY_01424,Curitiba,Curitiba,BR,-25.420013,-49.3199976
NGEL_CITY_01425,Córdoba,Córdoba,AR,-31.39995807,-64.18229456
NGEL_CITY_01426,Da-Nang,Da-Nang,VN,16.06003908,108.2499711
NGEL_CITY_01427,Daegu,Daegu,KR,35.86678876,128.6069714
NGEL_CITY_01428,Daejeon,Daejeon,KR,36.33554567,127.425028
NGEL_CITY_01429,Dahuk,Dahuk,IQ,36.86670013,43.00000263
NGEL_CITY_01430,Dakar,Dakar,SN,14.71583173,-17.47313013
NGEL_CITY_01431,Dalian,Dalian,CN,38.92283839,121.6298308
NGEL_CITY_01432,Dallas,Dallas,US,32.82002382,-96.84001693
NGEL_CITY_01433,Daloa,Daloa,CI,6.889978657,-6.450004518
NGEL_CITY_01434,Damanhûr,Damanhûr,EG,31.05044191,30.47001583
NGEL_CITY_01435,Damascus,Damascus,SY,33.500034,36.29999589
NGEL_CITY_01436,Damaturu,Damaturu,NG,11.74899608,11.96600457
NGEL_CITY_01437,Daqing,Daqing,CN,46.57995913,125.0000081
NGEL_CITY_01438,Dar-es-Salaam,Dar-es-Salaam,TZ,-6.800012595,39.26834184
NGEL_CITY_01439,Dar'a,Dar'a,SY,32.62500014,36.10500351
NGEL_CITY_01440,Darnah,Darnah,LY,32.76481113,22.63913928
NGEL_CITY_01441,Datong,Datong,CN,40.08001996,113.2999987
NGEL_CITY_01442,Davao,Davao,PH,7.110016906,125.6299955
NGEL_CITY_01443,Dayr-az-Zawr,Dayr-az-Zawr,SY,35.33038739,40.12999467
NGEL_CITY_01444,Delhi,Delhi,IN,28.6699929,77.23000403
NGEL_CITY_01445,Denizli,Denizli,TR,37.77039349,29.08002315
NGEL_CITY_01446,Denver,Denver,US,39.73918805,-104.984016
NGEL_CITY_01447,Dese,Dese,ET,11.12997825,39.63002519
NGEL_CITY_01448,Detroit,Detroit,US,42.32996014,-83.08005579
NGEL_CITY_01449,Dezful,Dezful,IR,32.38038658,48.4700024
NGEL_CITY_01450,Dhaka,Dhaka,BD,23.72305971,90.40857947
NGEL_CITY_01451,Dhamar,Dhamar,YE,14.5574693,44.3874609
NGEL_CITY_01452,Diourbel,Diourbel,SN,14.66038291,-16.24000126
NGEL_CITY_01453,Dire-Dawa,Dire-Dawa,ET,9.58999473,41.86001827
NGEL_CITY_01454,Divo,Divo,CI,5.839002037,-5.360003483
NGEL_CITY_01455,Diyarbakir,Diyarbakir,TR,37.92043601,40.23004024
NGEL_CITY_01456,Djelfa,Djelfa,DZ,34.67998781,3.250023558
NGEL_CITY_01457,Djibouti,Djibouti,DJ,11.59501446,43.14800167
NGEL_CITY_01458,Djougou,Djougou,BJ,9.700427265,1.680041869
NGEL_CITY_01459,Dnipropetrovsk,Dnipropetrovsk,UA,48.47997235,35.00002356
NGEL_CITY_01460,Dodoma,Dodoma,TZ,-6.183306052,35.75000362
NGEL_CITY_01461,Doha,Doha,QA,25.28655601,51.53296789
NGEL_CITY_01462,Donetsk,Donetsk,UA,48.00000165,37.82998002
NGEL_CITY_01463,Dongguan,Dongguan,CN,23.0488889,113.7447222
NGEL_CITY_01464,Douala,Douala,CM,4.060409769,9.709991006
NGEL_CITY_01465,Douma,Douma,SY,33.5833364,36.39998979
NGEL_CITY_01466,Dubai,Dubai,AE,25.22999615,55.27997432
NGEL_CITY_01467,Dublin,Dublin,IE,53.33306114,-6.248905682
NGEL_CITY_01468,Duisburg,Duisburg,DE,51.42997316,6.750016641
NGEL_CITY_01469,Dumyat,Dumyat,EG,31.42039349,31.82001094
NGEL_CITY_01470,Duque-de-Caxias,Duque-de-Caxias,BR,-22.76999388,-43.30997685
NGEL_CITY_01471,Durban,Durban,ZA,-29.865013,30.98001054
NGEL_CITY_01472,Dushanbe,Dushanbe,TJ,38.56003522,68.77387935
NGEL_CITY_01473,Düsseldorf,Düsseldorf,DE,51.22037355,6.779988972
NGEL_CITY_01474,East-London,East-London,ZA,-32.97004311,27.87001949
NGEL_CITY_01475,Edea,Edea,CM,3.800477314,10.11999182
NGEL_CITY_01476,Edmonton,Edmonton,CA,53.55002464,-113.4999819
NGEL_CITY_01477,El-Arish,El-Arish,EG,31.12488181,33.80056189
NGEL_CITY_01478,El-Faiyum,El-Faiyum,EG,29.31003135,30.83996741
NGEL_CITY_01479,El-Fasher,El-Fasher,SD,13.62998069,25.35001827
NGEL_CITY_01480,El-Giza,El-Giza,EG,30.00998863,31.19002356
NGEL_CITY_01481,El-Jadida,El-Jadida,MA,33.2603587,-8.509982138
NGEL_CITY_01482,El-Manaqil,El-Manaqil,SD,14.2503821,32.97999182
NGEL_CITY_01483,El-Mansura,El-Mansura,EG,31.05044191,31.3800378
NGEL_CITY_01484,El-Minya,El-Minya,EG,28.09000246,30.74999874
NGEL_CITY_01485,El-Obeid,El-Obeid,SD,13.18328961,30.21669796
NGEL_CITY_01486,El-Oued,El-Oued,DZ,33.37040367,6.859984089
NGEL_CITY_01487,Eldoret,Eldoret,KE,0.520005716,35.26998124
NGEL_CITY_01488,Entebbe,Entebbe,UG,0.060395527,32.46002356
NGEL_CITY_01489,Enugu,Enugu,NG,6.450031351,7.499996703
NGEL_CITY_01490,Er-Rachidia,Er-Rachidia,MA,31.94041343,-4.449971559
NGEL_CITY_01491,Essen,Essen,DE,51.44999778,7.016615355
NGEL_CITY_01492,Faisalabad,Faisalabad,PK,31.40998069,73.10999711
NGEL_CITY_01493,Faridabad,Faridabad,IN,28.4333333,77.3166667
NGEL_CITY_01494,Fasa,Fasa,IR,28.97183494,53.67149369
NGEL_CITY_01495,Fez,Fez,MA,34.05459963,-5.000377239
NGEL_CITY_01496,Fianarantsoa,Fianarantsoa,MG,-21.43333128,47.08326534
NGEL_CITY_01497,Florence,Florence,IT,43.78000083,11.25000036
NGEL_CITY_01498,Fort-Lauderdale,Fort-Lauderdale,US,26.13606488,-80.14178552
NGEL_CITY_01499,Fortaleza,Fortaleza,BR,-3.750017884,-38.57998132
NGEL_CITY_01500,Frankfurt,Frankfurt,DE,50.09997683,8.67501542
NGEL_CITY_01501,Freetown,Freetown,SL,8.470011412,-13.23421574
NGEL_CITY_01502,Ft.-Worth,Ft.-Worth,US,32.73997703,-97.34003809
NGEL_CITY_01503,Fukuoka,Fukuoka,JP,33.59501528,130.4100138
NGEL_CITY_01504,Funchal,Funchal,PT,32.64998252,-16.88003972
NGEL_CITY_01505,Funtua,Funtua,NG,11.5203937,7.320007689
NGEL_CITY_01506,Fushun,Fushun,CN,41.86538902,123.8699996
NGEL_CITY_01507,Fuzhou,Fuzhou,CN,26.07999595,119.3000459
NGEL_CITY_01508,Gabes,Gabes,TN,33.90042299,10.09999304
NGEL_CITY_01509,Gaborone,Gaborone,BW,-24.64631346,25.91194779
NGEL_CITY_01510,Gafsa,Gafsa,TN,34.42044293,8.780021931
NGEL_CITY_01511,Gagnoa,Gagnoa,CI,6.150411396,-5.879987632
NGEL_CITY_01512,Gandajika,Gandajika,CD,-6.739602845,23.96002559
NGEL_CITY_01513,Ganzhou,Ganzhou,CN,25.91997988,114.9500272
NGEL_CITY_01514,Garoua,Garoua,CM,9.30001243,13.39002478
NGEL_CITY_01515,Gaza,Gaza,PS,31.52999921,34.44501868
NGEL_CITY_01516,Gaziantep,Gaziantep,TR,37.07498374,37.38499426
NGEL_CITY_01517,Gedaref,Gedaref,SD,14.03998151,35.38000036
NGEL_CITY_01518,Gemena,Gemena,CD,3.260019347,19.76999711
NGEL_CITY_01519,Geneina,Geneina,SD,13.45001752,22.44001501
NGEL_CITY_01520,George,George,ZA,-33.95003497,22.45004024
NGEL_CITY_01521,Ghardaia,Ghardaia,DZ,32.48999229,3.669997923
NGEL_CITY_01522,Gharyan,Gharyan,LY,32.17037355,13.01996985
NGEL_CITY_01523,Ghaziabad,Ghaziabad,IN,28.66038108,77.40839107
NGEL_CITY_01524,Gibraltar,Gibraltar,GI,36.13243495,-5.37807483
NGEL_CITY_01525,Girga,Girga,EG,26.33036826,31.88000728
NGEL_CITY_01526,Glasgow,Glasgow,GB,55.87440472,-4.250707236
NGEL_CITY_01527,Goiania,Goiania,BR,-16.72002724,-49.30002466
NGEL_CITY_01528,Goma,Goma,CD,-1.678799101,29.2217868
NGEL_CITY_01529,Gombe,Gombe,NG,10.29044293,11.16995357
NGEL_CITY_01530,Gonbad-e-Kavus,Gonbad-e-Kavus,IR,37.25182049,55.17145382
NGEL_CITY_01531,Gonder,Gonder,ET,12.61004295,37.46002844
NGEL_CITY_01532,Gorgan,Gorgan,IR,36.83034751,54.48002315
NGEL_CITY_01533,Goulimine,Goulimine,MA,28.97997398,-10.07001611
NGEL_CITY_01534,Goyang,Goyang,KR,37.65273586,126.8372485
NGEL_CITY_01535,Guadalajara,Guadalajara,MX,20.67001609,-103.3300342
NGEL_CITY_01536,Guangzhou,Guangzhou,CN,23.1449813,113.3250101
NGEL_CITY_01537,Guatemala,Guatemala,GT,14.62113466,-90.52696558
NGEL_CITY_01538,Guayaquil,Guayaquil,EC,-2.220033754,-79.92004195
NGEL_CITY_01539,Gueckedou,Gueckedou,GN,8.553996122,-10.1510005
NGEL_CITY_01540,Guelma,Guelma,DZ,36.46600213,7.427997486
NGEL_CITY_01541,Guilin,Guilin,CN,25.2799931,110.280028
NGEL_CITY_01542,Guiyang,Guiyang,CN,26.58004295,106.7200386
NGEL_CITY_01543,Gujranwala,Gujranwala,PK,32.16042584,74.18502193
NGEL_CITY_01544,Gulu,Gulu,UG,2.779996967,32.28003454
NGEL_CITY_01545,Gusau,Gusau,NG,12.1704057,6.659996296
NGEL_CITY_01546,Gwalior,Gwalior,IN,26.2299868,78.18007523
NGEL_CITY_01547,Gwangju,Gwangju,KR,35.1709656,126.9104341
NGEL_CITY_01548,Gweru,Gweru,ZW,-19.45004148,29.82002966
NGEL_CITY_01549,Hafar-al-Batin,Hafar-al-Batin,SA,28.43365074,45.96007808
NGEL_CITY_01550,Haifa,Haifa,IL,32.8204114,34.98002478
NGEL_CITY_01551,Haikou,Haikou,CN,20.05000226,110.3200256
NGEL_CITY_01552,Hail,Hail,SA,27.52357709,41.70007971
NGEL_CITY_01553,Haiphong,Haiphong,VN,20.83000633,106.6800927
NGEL_CITY_01554,Hajjah,Hajjah,YE,15.69174115,43.60213415
NGEL_CITY_01555,Hamadan,Hamadan,IR,34.79602724,48.51501257
NGEL_CITY_01556,Hamah,Hamah,SY,35.1503467,36.72999548
NGEL_CITY_01557,Hamamatsu,Hamamatsu,JP,34.71807334,137.7327193
NGEL_CITY_01558,Hamburg,Hamburg,DE,53.55002464,9.999999144
NGEL_CITY_01559,Handan,Handan,CN,36.5799752,114.4799784
NGEL_CITY_01560,Hangzhou,Hangzhou,CN,30.24997398,120.1700187
NGEL_CITY_01561,Hanoi,Hanoi,VN,21.03332725,105.8500142
NGEL_CITY_01562,Haora,Haora,IN,22.58039044,88.32994665
NGEL_CITY_01563,Harar,Harar,ET,9.319959533,42.15002641
NGEL_CITY_01564,Harare,Harare,ZW,-17.81778969,31.04470943
NGEL_CITY_01565,Harbin,Harbin,CN,45.74998395,126.6499849
NGEL_CITY_01566,Hargeysa,Hargeysa,-99,9.560022399,44.06531002
NGEL_CITY_01567,Hatay,Hatay,TR,36.2303583,36.12000688
NGEL_CITY_01568,Havana,Havana,CU,23.13195884,-82.36418217
NGEL_CITY_01569,Hawalli,Hawalli,KW,29.33334002,47.99999756
NGEL_CITY_01570,Hechi,Hechi,CN,23.09653465,109.6091129
NGEL_CITY_01571,Hefei,Hefei,CN,31.85003135,117.2800142
NGEL_CITY_01572,Helsinki,Helsinki,FI,60.17556337,24.93412634
NGEL_CITY_01573,Hengyang,Hengyang,CN,26.88002464,112.5900162
NGEL_CITY_01574,Hims,Hims,SY,34.72995892,36.72002193
NGEL_CITY_01575,Hiroshima,Hiroshima,JP,34.3878351,132.442913
NGEL_CITY_01576,Ho-Chi-Minh-City,Ho-Chi-Minh-City,VN,10.78002545,106.6950272
NGEL_CITY_01577,Hohhot,Hohhot,CN,40.81997479,111.6599955
NGEL_CITY_01578,Hong-Kong,Hong-Kong,HK,22.3049809,114.1850093
NGEL_CITY_01579,Houston,Houston,US,29.81997438,-95.33997929
NGEL_CITY_01580,Huaibei,Huaibei,CN,33.95036826,116.7500207
NGEL_CITY_01581,Huainan,Huainan,CN,32.62998374,116.9799808
NGEL_CITY_01582,Huaiyin,Huaiyin,CN,33.58000327,119.0299849
NGEL_CITY_01583,Huambo,Huambo,AO,-12.74998533,15.76000932
NGEL_CITY_01584,Hubli,Hubli,IN,15.35997845,75.12501623
NGEL_CITY_01585,Huelva,Huelva,ES,37.25037355,-6.929949383
NGEL_CITY_01586,Hurghada,Hurghada,EG,27.23000327,33.83001745
NGEL_CITY_01587,Hyderabad,Hyderabad,IN,17.39998313,78.47995357
NGEL_CITY_01588,Ibadan,Ibadan,NG,7.380026264,3.929982054
NGEL_CITY_01589,Ibb,Ibb,YE,13.97585105,44.17088497
NGEL_CITY_01590,Ibri,Ibri,OM,23.22538983,56.51695308
NGEL_CITY_01591,Icel,Icel,TR,36.79998761,34.61999508
NGEL_CITY_01592,Idlib,Idlib,SY,35.92970481,36.63165523
NGEL_CITY_01593,Ife,Ife,NG,7.480433572,4.560021117
NGEL_CITY_01594,Ijebu-Ode,Ijebu-Ode,NG,6.820448017,3.920008503
NGEL_CITY_01595,Ikare,Ikare,NG,7.530430521,5.759999551
NGEL_CITY_01596,Ilam,Ilam,IR,33.63041363,46.43002356
NGEL_CITY_01597,Ilorin,Ilorin,NG,8.490010192,4.549995889
NGEL_CITY_01598,Incheon,Incheon,KR,37.47614789,126.6422334
NGEL_CITY_01599,Indianapolis,Indianapolis,US,39.74998842,-86.17004806
NGEL_CITY_01600,Indore,Indore,IN,22.71505922,75.86502274
NGEL_CITY_01601,Iraklio,Iraklio,GR,35.32501304,25.13049678
NGEL_CITY_01602,Irbid,Irbid,JO,32.54998863,35.84999752
NGEL_CITY_01603,Irbil,Irbil,IQ,36.1790436,44.00862097
NGEL_CITY_01604,Iringa,Iringa,TZ,-7.769617494,35.69000728
NGEL_CITY_01605,Irvine,Irvine,US,33.68041058,-117.8299502
NGEL_CITY_01606,Isfahan,Isfahan,IR,32.70000531,51.7000378
NGEL_CITY_01607,Isiro,Isiro,CD,2.75997235,27.62000891
NGEL_CITY_01608,Iskenderun,Iskenderun,TR,36.58041445,36.17002966
NGEL_CITY_01609,Ismailia,Ismailia,EG,30.5903408,32.25998409
NGEL_CITY_01610,Isparta,Isparta,TR,37.76998008,30.52996049
NGEL_CITY_01611,Istanbul,Istanbul,TR,41.10499615,29.01000159
NGEL_CITY_01612,Iwo,Iwo,NG,7.629959329,4.179992634
NGEL_CITY_01613,Izmir,Izmir,TR,38.43614968,27.15179401
NGEL_CITY_01614,Jabalpur,Jabalpur,IN,23.17505699,79.95505733
NGEL_CITY_01615,Jaipur,Jaipur,IN,26.92113324,75.80998734
NGEL_CITY_01616,Jakarta,Jakarta,ID,-6.174417705,106.8294376
NGEL_CITY_01617,Jalingo,Jalingo,NG,8.900372741,11.36001949
NGEL_CITY_01618,Jamaame,Jamaame,SO,0.072177754,42.75055823
NGEL_CITY_01619,Jamshedpur,Jamshedpur,IN,22.78753542,86.19751868
NGEL_CITY_01620,Jeddah,Jeddah,SA,21.51688946,39.21919755
NGEL_CITY_01621,Jerusalem,Jerusalem,IL,31.77840782,35.20662593
NGEL_CITY_01622,Jianmen,Jianmen,CN,30.65005292,113.1600073
NGEL_CITY_01623,Jijel,Jijel,DZ,36.82199703,5.76600356
NGEL_CITY_01624,Jilin,Jilin,CN,43.84997072,126.5500427
NGEL_CITY_01625,Jima,Jima,ET,7.679982116,36.83004106
NGEL_CITY_01626,Jinan,Jinan,CN,36.67498232,116.9950187
NGEL_CITY_01627,Jining,Jining,CN,35.40040895,116.5500329
NGEL_CITY_01628,Jinja,Jinja,UG,0.44042401,33.19992672
NGEL_CITY_01629,Jinxi,Jinxi,CN,40.7503408,120.8299784
NGEL_CITY_01630,Jizan,Jizan,SA,16.90655072,42.5565649
NGEL_CITY_01631,Joao-Pessoa,Joao-Pessoa,BR,-7.10113513,-34.87607117
NGEL_CITY_01632,Jodhpur,Jodhpur,IN,26.29176597,73.01677283
NGEL_CITY_01633,Johannesburg,Johannesburg,ZA,-26.17004474,28.03000972
NGEL_CITY_01634,Johor-Bahru,Johor-Bahru,MY,1.480024637,103.7300402
NGEL_CITY_01635,Jos,Jos,NG,9.929973978,8.890041055
NGEL_CITY_01636,Juba,Juba,SS,4.829975198,31.58002559
NGEL_CITY_01637,Jullundur,Jullundur,IN,31.33492067,75.56902014
NGEL_CITY_01638,Kabul,Kabul,AF,34.51669029,69.18326005
NGEL_CITY_01639,Kabwe,Kabwe,ZM,-14.44001137,28.44998409
NGEL_CITY_01640,Kadugli,Kadugli,SD,11.00995974,29.70003699
NGEL_CITY_01641,Kaduna,Kaduna,NG,10.52001548,7.440000365
NGEL_CITY_01642,Kafr-el-Sheikh,Kafr-el-Sheikh,EG,31.109004,30.93599763
NGEL_CITY_01643,Kahramanmaras,Kahramanmaras,TR,37.60998985,36.94502112
NGEL_CITY_01644,Kaifeng,Kaifeng,CN,34.85000327,114.3500122
NGEL_CITY_01645,Kalemie,Kalemie,CD,-5.933295472,29.20001583
NGEL_CITY_01646,Kalyan,Kalyan,IN,19.25023195,73.16017493
NGEL_CITY_01647,Kamina,Kamina,CD,-8.730023988,25.00998734
NGEL_CITY_01648,Kampala,Kampala,UG,0.316658955,32.58332353
NGEL_CITY_01649,Kananga,Kananga,CD,-5.890042299,22.40001745
NGEL_CITY_01650,Kankan,Kankan,GN,10.38999758,-9.310010825
NGEL_CITY_01651,Kano,Kano,NG,11.99997683,8.5200378
NGEL_CITY_01652,Kanpur,Kanpur,IN,26.4599986,80.3199963
NGEL_CITY_01653,Kaohsiung,Kaohsiung,TW,22.63330711,120.2666019
NGEL_CITY_01654,Kaolack,Kaolack,SN,14.14997479,-16.10000981
NGEL_CITY_01655,Karachi,Karachi,PK,24.86999229,66.99000891
NGEL_CITY_01656,Karaj,Karaj,IR,35.8003587,50.97000484
NGEL_CITY_01657,Karaman,Karaman,TR,37.18154055,33.21501623
NGEL_CITY_01658,Karbala,Karbala,IQ,32.61492006,44.02448564
NGEL_CITY_01659,Kasama,Kasama,ZM,-10.19959837,31.17994665
NGEL_CITY_01660,Kashan,Kashan,IR,33.98041811,51.57999345
NGEL_CITY_01661,Kashmar,Kashmar,IR,35.18143007,58.45146033
NGEL_CITY_01662,Kassala,Kassala,SD,15.45997235,36.39001623
NGEL_CITY_01663,Kathmandu,Kathmandu,NP,27.71669191,85.31664221
NGEL_CITY_01664,Katowice,Katowice,PL,50.26038047,19.02001705
NGEL_CITY_01665,Katsina,Katsina,NG,12.99040733,7.599990599
NGEL_CITY_01666,Kawasaki,Kawasaki,JP,35.52998761,139.705002
NGEL_CITY_01667,Kazan,Kazan,RU,55.74994204,49.12634477
NGEL_CITY_01668,Kelang,Kelang,MY,3.020369892,101.5500183
NGEL_CITY_01669,Kenema,Kenema,SL,7.880409158,-11.18997359
NGEL_CITY_01670,Kenitra,Kenitra,MA,34.27040041,-6.579996583
NGEL_CITY_01671,Keren,Keren,ER,15.68039817,38.44999385
NGEL_CITY_01672,Kerman,Kerman,IR,30.29999676,57.08001949
NGEL_CITY_01673,Kermanshah,Kermanshah,IR,34.38000612,47.06001094
NGEL_CITY_01674,Kharkiv,Kharkiv,UA,49.99998293,36.25002478
NGEL_CITY_01675,Khartoum,Khartoum,SD,15.58807823,32.53417924
NGEL_CITY_01676,Khomeini-Shahr,Khomeini-Shahr,IR,32.70041872,51.46997432
NGEL_CITY_01677,Khorramabad,Khorramabad,IR,33.48042279,48.35000972
NGEL_CITY_01678,Khulna,Khulna,BD,22.839987,89.56000077
NGEL_CITY_01679,Kiev,Kiev,UA,50.43336733,30.51662797
NGEL_CITY_01680,Kigali,Kigali,RW,-1.953590069,30.06053178
NGEL_CITY_01681,Kigoma,Kigoma,TZ,-4.879613018,29.61001664
NGEL_CITY_01682,Kikwit,Kikwit,CD,-5.030043112,18.85000159
NGEL_CITY_01683,Kimberley,Kimberley,ZA,-28.74683836,24.77000199
NGEL_CITY_01684,Kindu,Kindu,CD,-2.963915996,25.90998409
NGEL_CITY_01685,Kinshasa,Kinshasa,CD,-4.329724102,15.31497188
NGEL_CITY_01686,Kirkuk,Kirkuk,IQ,35.4722392,44.3922668
NGEL_CITY_01687,Kisangani,Kisangani,CD,0.520005716,25.22000036
NGEL_CITY_01688,Kismaayo,Kismaayo,SO,-0.356633282,42.51832434
NGEL_CITY_01689,Kisumu,Kisumu,KE,-0.090034567,34.75001298
NGEL_CITY_01690,Kitakyushu,Kitakyushu,JP,33.87039899,130.8200146
NGEL_CITY_01691,Kitale,Kitale,KE,1.030465514,34.98994665
NGEL_CITY_01692,Kitwe,Kitwe,ZM,-12.81003335,28.22002397
NGEL_CITY_01693,Klerksdorp,Klerksdorp,ZA,-26.88002724,26.62001827
NGEL_CITY_01694,Kobe,Kobe,JP,34.67998781,135.1699816
NGEL_CITY_01695,Kochi,Kochi,IN,10.01500755,76.22391557
NGEL_CITY_01696,Koforidua,Koforidua,GH,6.090415058,-0.260020591
NGEL_CITY_01697,Kolkata,Kolkata,IN,22.4949693,88.32467566
NGEL_CITY_01698,Kolwezi,Kolwezi,CD,-10.71672443,25.47243974
NGEL_CITY_01699,Kom-Ombo,Kom-Ombo,EG,24.46999086,32.95001949
NGEL_CITY_01700,Konya,Konya,TR,37.87501243,32.47500972
NGEL_CITY_01701,Korhogo,Korhogo,CI,9.459976826,-5.639950604
NGEL_CITY_01702,Kosti,Kosti,SD,13.16998293,32.66001135
NGEL_CITY_01703,Koutiala,Koutiala,ML,12.39041811,-5.469986818
NGEL_CITY_01704,Ksar-El-Kebir,Ksar-El-Kebir,MA,35.02038047,-5.909985801
NGEL_CITY_01705,Kuala-Lumpur,Kuala-Lumpur,MY,3.166665872,101.6999833
NGEL_CITY_01706,Kuito,Kuito,AO,-12.38003375,16.93998897
NGEL_CITY_01707,Kumasi,Kumasi,GH,6.689990864,-1.630014487
NGEL_CITY_01708,Kumba,Kumba,CM,4.640374368,9.439981647
NGEL_CITY_01709,Kunming,Kunming,CN,25.06998008,102.6799751
NGEL_CITY_01710,Kuwait,Kuwait,KW,29.36971763,47.97830115
NGEL_CITY_01711,Kyoto,Kyoto,JP,35.02999229,135.7499979
NGEL_CITY_01712,København,København,DK,55.67856419,12.56348575
NGEL_CITY_01713,Laayoune,Laayoune,MA,27.14998232,-13.20000594
NGEL_CITY_01714,Laghouat,Laghouat,DZ,33.80998924,2.880020303
NGEL_CITY_01715,Lagos,Lagos,NG,6.443261653,3.391531071
NGEL_CITY_01716,Lahore,Lahore,PK,31.55997154,74.35002478
NGEL_CITY_01717,Lanzhou,Lanzhou,CN,36.05602785,103.7920003
NGEL_CITY_01718,Larache,Larache,MA,35.20042116,-6.160022218
NGEL_CITY_01719,Las-Palmas,Las-Palmas,ES,28.09997601,-15.42999902
NGEL_CITY_01720,Leeds,Leeds,GB,53.83000755,-1.580017539
NGEL_CITY_01721,Lemosos,Lemosos,CY,34.67541445,33.0333219
NGEL_CITY_01722,Leon,Leon,MX,21.1499868,-101.7000304
NGEL_CITY_01723,Libreville,Libreville,GA,0.38538861,9.457965046
NGEL_CITY_01724,Likasi,Likasi,CD,-10.9700423,26.7800085
NGEL_CITY_01725,Lilongwe,Lilongwe,MW,-13.98329507,33.78330196
NGEL_CITY_01726,Lima,Lima,PE,-12.04801268,-77.05006209
NGEL_CITY_01727,Limbe,Limbe,CM,4.030385761,9.190022744
NGEL_CITY_01728,Lingyuan,Lingyuan,CN,41.24,119.4011111
NGEL_CITY_01729,Linyi,Linyi,CN,35.07998924,118.329976
NGEL_CITY_01730,Lira,Lira,UG,2.260390441,32.89002315
NGEL_CITY_01731,Lisbon,Lisbon,PT,38.72272288,-9.144866305
NGEL_CITY_01732,Liuzhou,Liuzhou,CN,24.28000246,109.2500134
NGEL_CITY_01733,Livingstone,Livingstone,ZM,-17.86000934,25.86001298
NGEL_CITY_01734,Lobito,Lobito,AO,-12.37000853,13.54123002
NGEL_CITY_01735,Lome,Lome,TG,6.131937072,1.222757119
NGEL_CITY_01736,Long-Beach,Long-Beach,US,33.78696739,-118.1580439
NGEL_CITY_01737,Luan,Luan,CN,31.75034751,116.4800114
NGEL_CITY_01738,Luanda,Luanda,AO,-8.838286114,13.23442704
NGEL_CITY_01739,Luanshya,Luanshya,ZM,-13.13332111,28.40001298
NGEL_CITY_01740,Lubango,Lubango,AO,-14.91000853,13.49001868
NGEL_CITY_01741,Lubumbashi,Lubumbashi,CD,-11.6800248,27.48001745
NGEL_CITY_01742,Lucknow,Lucknow,IN,26.85503908,80.91499874
NGEL_CITY_01743,Ludhiana,Ludhiana,IN,30.92776206,75.87225745
NGEL_CITY_01744,Luoyang,Luoyang,CN,34.67998781,112.4700752
NGEL_CITY_01745,Lupanshui,Lupanshui,CN,26.59443483,104.8333321
NGEL_CITY_01746,Lusaka,Lusaka,ZM,-15.41664427,28.28332759
NGEL_CITY_01747,Luxor,Luxor,EG,25.70001914,32.6500378
NGEL_CITY_01748,Luzhou,Luzhou,CN,28.87998008,105.380017
NGEL_CITY_01749,Lyon,Lyon,FR,45.77000856,4.830030475
NGEL_CITY_01750,M'sila,M'sila,DZ,35.7000031,4.545000584
NGEL_CITY_01751,Maanshan,Maanshan,CN,31.73040041,118.4800443
NGEL_CITY_01752,Maceio,Maceio,BR,-9.619995505,-35.72997441
NGEL_CITY_01753,Madrid,Madrid,ES,40.40002626,-3.683351686
NGEL_CITY_01754,Madurai,Madurai,IN,9.920026264,78.12002722
NGEL_CITY_01755,Mahabad,Mahabad,IR,36.77037701,45.72004106
NGEL_CITY_01756,Mahajanga,Mahajanga,MG,-15.67001382,46.34501583
NGEL_CITY_01757,Maiduguri,Maiduguri,NG,11.84996014,13.16001298
NGEL_CITY_01758,Makkah,Makkah,SA,21.43002138,39.82003943
NGEL_CITY_01759,Makurdi,Makurdi,NG,7.729979064,8.530011351
NGEL_CITY_01760,Malabo,Malabo,GQ,3.750015278,8.783277546
NGEL_CITY_01761,Malaga,Malaga,ES,36.7204059,-4.419999228
NGEL_CITY_01762,Malakal,Malakal,SS,9.536897195,31.65598995
NGEL_CITY_01763,Malanje,Malanje,AO,-9.540000388,16.34002559
NGEL_CITY_01764,Malayer,Malayer,IR,34.31998395,48.84997921
NGEL_CITY_01765,Mallawi,Mallawi,EG,27.73041201,30.83996741
NGEL_CITY_01766,Man,Man,CI,7.400412617,-7.549989056
NGEL_CITY_01767,Managua,Managua,NI,12.15301658,-86.26849166
NGEL_CITY_01768,Manama,Manama,BH,26.23613629,50.58305172
NGEL_CITY_01769,Manaus,Manaus,BR,-3.100031719,-60.00001754
NGEL_CITY_01770,Manchester,Manchester,GB,53.50041526,-2.247987103
NGEL_CITY_01771,Mandalay,Mandalay,MM,21.96998842,96.08502885
NGEL_CITY_01772,Manila,Manila,PH,14.60415895,120.9822172
NGEL_CITY_01773,Mannheim,Mannheim,DE,49.50037518,8.470015013
NGEL_CITY_01774,Manzini,Manzini,SZ,-26.49500106,31.3880045
NGEL_CITY_01775,Maoming,Maoming,CN,21.92040489,110.8700179
NGEL_CITY_01776,Maputo,Maputo,MZ,-25.95527749,32.58916296
NGEL_CITY_01777,Maracaibo,Maracaibo,VE,10.72997683,-71.65997766
NGEL_CITY_01778,Maracay,Maracay,VE,10.2468797,-67.59580713
NGEL_CITY_01779,Maradi,Maradi,NE,13.49164288,7.096403767
NGEL_CITY_01780,Maragheh,Maragheh,IR,37.42038902,46.22001054
NGEL_CITY_01781,Marbella,Marbella,ES,36.51661989,-4.88333012
NGEL_CITY_01782,Maroua,Maroua,CM,10.59556643,14.32469641
NGEL_CITY_01783,Marrakesh,Marrakesh,MA,31.6299931,-7.999987428
NGEL_CITY_01784,Marseille,Marseille,FR,43.28997906,5.37501013
NGEL_CITY_01785,Marv-Dasht,Marv-Dasht,IR,29.80144838,52.82146806
NGEL_CITY_01786,Mascara,Mascara,DZ,35.40040895,0.14003251
NGEL_CITY_01787,Maseru,Maseru,LS,-29.31667438,27.48327307
NGEL_CITY_01788,Mashhad,Mashhad,IR,36.27001996,59.5699967
NGEL_CITY_01789,Masjed-Soleyman,Masjed-Soleyman,IR,31.97999758,49.2999259
NGEL_CITY_01790,Massawa,Massawa,ER,15.61011822,39.45003617
NGEL_CITY_01791,Matadi,Matadi,CD,-5.816610088,13.45002112
NGEL_CITY_01792,Matola,Matola,MZ,-25.96959186,32.46002356
NGEL_CITY_01793,Maxixe,Maxixe,MZ,-23.86602274,35.38855095
NGEL_CITY_01794,Mbale,Mbale,UG,1.090410175,34.1699967
NGEL_CITY_01795,Mbandaka,Mbandaka,CD,0.040035013,18.26001176
NGEL_CITY_01796,Mbanza-Ngungu,Mbanza-Ngungu,CD,-5.249616273,14.86001257
NGEL_CITY_01797,Mbeya,Mbeya,TZ,-8.890014222,33.43004187
NGEL_CITY_01798,Mbombela,Mbombela,ZA,-25.46962238,30.98001054
NGEL_CITY_01799,Mbuji-Mayi,Mbuji-Mayi,CD,-6.150026429,23.59999589
NGEL_CITY_01800,Medan,Medan,ID,3.579973978,98.65004024
NGEL_CITY_01801,Medani,Medani,SD,14.39995953,33.52001054
NGEL_CITY_01802,Medea,Medea,DZ,36.27040753,2.770001179
NGEL_CITY_01803,Medellin,Medellin,CO,6.275003274,-75.57501001
NGEL_CITY_01804,Medina,Medina,SA,24.49998903,39.5800024
NGEL_CITY_01805,Meerut,Meerut,IN,29.00041201,77.70000118
NGEL_CITY_01806,Meknes,Meknes,MA,33.90042299,-5.559981325
NGEL_CITY_01807,Melbourne,Melbourne,AU,-37.82003131,144.9750162
NGEL_CITY_01808,Melilla,Melilla,ES,35.30000165,-2.950011435
NGEL_CITY_01809,Mendefera,Mendefera,ER,14.88597638,38.81632808
NGEL_CITY_01810,Mendoza,Mendoza,AR,-32.88333006,-68.81661117
NGEL_CITY_01811,Merida,Merida,MX,20.96663881,-89.61663355
NGEL_CITY_01812,Mexico-City,Mexico-City,MX,19.44244244,-99.1309882
NGEL_CITY_01813,Miami,Miami,US,25.7876107,-80.22410608
NGEL_CITY_01814,Mianyang,Mianyang,CN,31.46997703,104.7699768
NGEL_CITY_01815,Milan,Milan,IT,45.4699752,9.20500891
NGEL_CITY_01816,Milwaukee,Milwaukee,US,43.05265505,-87.91996708
NGEL_CITY_01817,Minna,Minna,NG,9.619992898,6.550028848
NGEL_CITY_01818,Minneapolis,Minneapolis,US,44.97997927,-93.25178634
NGEL_CITY_01819,Minsk,Minsk,BY,53.89997744,27.56662716
NGEL_CITY_01820,Misratah,Misratah,LY,32.37997316,15.09999792
NGEL_CITY_01821,Moanda,Moanda,CD,-5.922908509,12.35499752
NGEL_CITY_01822,Mogadishu,Mogadishu,SO,2.066681334,45.36667761
NGEL_CITY_01823,Mombasa,Mombasa,KE,-4.040026022,39.68991817
NGEL_CITY_01824,Monrovia,Monrovia,LR,6.31055666,-10.80475163
NGEL_CITY_01825,Monterrey,Monterrey,MX,25.66999514,-100.3299848
NGEL_CITY_01826,Montréal,Montréal,CA,45.49999921,-73.58329696
NGEL_CITY_01827,Morogoro,Morogoro,TZ,-6.820011374,37.66001623
NGEL_CITY_01828,Moscow,Moscow,RU,55.75216412,37.61552283
NGEL_CITY_01829,Moshi,Moshi,TZ,-3.339603659,37.33998409
NGEL_CITY_01830,Mostaganem,Mostaganem,DZ,35.940376,0.089983885
NGEL_CITY_01831,Mosul,Mosul,IQ,36.34500246,43.14500443
NGEL_CITY_01832,Moundou,Moundou,TD,8.549980691,16.09001501
NGEL_CITY_01833,Mubi,Mubi,NG,10.2703408,13.2700321
NGEL_CITY_01834,Mudangiang,Mudangiang,CN,44.57501691,129.5900122
NGEL_CITY_01835,Mufulira,Mufulira,ZM,-12.54999754,28.25996985
NGEL_CITY_01836,Multan,Multan,PK,30.19997703,71.45500769
NGEL_CITY_01837,Mumbai,Mumbai,IN,19.01699038,72.8569893
NGEL_CITY_01838,Munich,Munich,DE,48.12994204,11.57499345
NGEL_CITY_01839,Murcia,Murcia,ES,37.9799931,-1.12996749
NGEL_CITY_01840,Muscat,Muscat,OM,23.61332481,58.59331213
NGEL_CITY_01841,Musoma,Musoma,TZ,-1.489587383,33.79999345
NGEL_CITY_01842,Mutare,Mutare,ZW,-18.97001911,32.6500378
NGEL_CITY_01843,Mwene-Ditu,Mwene-Ditu,CD,-7.000000388,23.44000565
NGEL_CITY_01844,Mysore,Mysore,IN,12.30998374,76.66001298
NGEL_CITY_01845,Mzuzu,Mzuzu,MW,-11.45998655,34.01998002
NGEL_CITY_01846,Nabeul,Nabeul,TN,36.46034426,10.7300321
NGEL_CITY_01847,Nablus,Nablus,PS,32.22148155,35.25442663
NGEL_CITY_01848,Nacala,Nacala,MZ,-14.51861123,40.71502356
NGEL_CITY_01849,Nagoya,Nagoya,JP,35.15499758,136.9149914
NGEL_CITY_01850,Nagpur,Nagpur,IN,21.16995974,79.08999385
NGEL_CITY_01851,Nairobi,Nairobi,KE,-1.283346742,36.81665686
NGEL_CITY_01852,Najran,Najran,SA,17.50653994,44.1315592
NGEL_CITY_01853,Nakuru,Nakuru,KE,-0.279997132,36.06998409
NGEL_CITY_01854,Namibe,Namibe,AO,-15.19004311,12.16002234
NGEL_CITY_01855,Nampula,Nampula,MZ,-15.13604124,39.29304317
NGEL_CITY_01856,Nanchang,Nanchang,CN,28.67999229,115.8799963
NGEL_CITY_01857,Nanchong,Nanchong,CN,30.78043256,106.1299971
NGEL_CITY_01858,Nanjing,Nanjing,CN,32.05001914,118.7799743
NGEL_CITY_01859,Nanning,Nanning,CN,22.81998822,108.3200443
NGEL_CITY_01860,Nantong,Nantong,CN,32.0303821,120.8250175
NGEL_CITY_01861,Nanyang,Nanyang,CN,33.00040041,112.5300199
NGEL_CITY_01862,Naples,Naples,IT,40.84002525,14.24501135
NGEL_CITY_01863,Nasik,Nasik,IN,20.00041872,73.77998205
NGEL_CITY_01864,Natal,Natal,BR,-6.983825664,-60.26994938
NGEL_CITY_01865,Nazareth,Nazareth,IL,32.70398439,35.2955094
NGEL_CITY_01866,Nazret,Nazret,ET,8.549980691,39.26999548
NGEL_CITY_01867,Ndjamena,Ndjamena,TD,12.11309654,15.04914831
NGEL_CITY_01868,Ndola,Ndola,ZM,-12.99994424,28.65002356
NGEL_CITY_01869,Neijiang,Neijiang,CN,29.58037661,105.0500114
NGEL_CITY_01870,Nema,Nema,MR,16.61705935,-7.250007366
NGEL_CITY_01871,New-Taipei,New-Taipei,TW,25.01277778,121.465
NGEL_CITY_01872,New-York,New-York,US,40.74997906,-73.98001693
NGEL_CITY_01873,Newcastle,Newcastle,AU,-32.84534788,151.8150122
NGEL_CITY_01874,Neyshabur,Neyshabur,IR,36.22002301,58.82001664
NGEL_CITY_01875,Nezahualcoyotl,Nezahualcoyotl,MX,19.41001548,-99.02998661
NGEL_CITY_01876,Ngaoundere,Ngaoundere,CM,7.320365823,13.57998734
NGEL_CITY_01877,Niamey,Niamey,NE,13.51670595,2.116656045
NGEL_CITY_01878,Nicosia,Nicosia,CY,35.16667645,33.36663489
NGEL_CITY_01879,Ningbo,Ningbo,CN,29.87997072,121.5500378
NGEL_CITY_01880,Niteroi,Niteroi,BR,-22.90001178,-43.09998967
NGEL_CITY_01881,Niyala,Niyala,SD,12.05997316,24.88999467
NGEL_CITY_01882,Nizhny-Novgorod,Nizhny-Novgorod,RU,56.33300722,44.00009436
NGEL_CITY_01883,Nkongsamba,Nkongsamba,CM,4.960406513,9.940002806
NGEL_CITY_01884,Nouakchott,Nouakchott,MR,18.08642702,-15.97534041
NGEL_CITY_01885,Nova-Iguacu,Nova-Iguacu,BR,-22.74002155,-43.46996708
NGEL_CITY_01886,Novosibirsk,Novosibirsk,RU,55.02996014,82.96004187
NGEL_CITY_01887,Nsukka,Nsukka,NG,6.867034321,7.383362995
NGEL_CITY_01888,Nusaybin,Nusaybin,TR,37.07498374,41.21835201
NGEL_CITY_01889,Nyanza,Nyanza,RW,-2.349586569,29.74003454
NGEL_CITY_01890,Nzerekore,Nzerekore,GN,7.760003071,-8.829988445
NGEL_CITY_01891,Oakland,Oakland,US,37.76892071,-122.2211034
NGEL_CITY_01892,Obuasi,Obuasi,GH,6.190408955,-1.659986818
NGEL_CITY_01893,Odessa,Odessa,UA,46.4900163,30.71000118
NGEL_CITY_01894,Ogbomosho,Ogbomosho,NG,8.130006326,4.239988972
NGEL_CITY_01895,Omdurman,Omdurman,SD,15.61668113,32.48002234
NGEL_CITY_01896,Omsk,Omsk,RU,54.98998842,73.39995357
NGEL_CITY_01897,Ondo,Ondo,NG,7.0904057,4.840004027
NGEL_CITY_01898,Oran,Oran,DZ,35.71000246,-0.61997278
NGEL_CITY_01899,Osaka,Osaka,JP,34.75003522,135.4601448
NGEL_CITY_01900,Oshogbo,Oshogbo,NG,7.770364196,4.560021117
NGEL_CITY_01901,Ottawa,Ottawa,CA,45.4166968,-75.7000153
NGEL_CITY_01902,Ouagadougou,Ouagadougou,BF,12.37031598,-1.524723756
NGEL_CITY_01903,Ouargla,Ouargla,DZ,31.96997235,5.340025186
NGEL_CITY_01904,Oujda,Oujda,MA,34.69001304,-1.909971559
NGEL_CITY_01905,Oum-el-Bouaghi,Oum-el-Bouaghi,DZ,35.84999715,7.149996522
NGEL_CITY_01906,Owerri,Owerri,NG,5.492997053,7.026003588
NGEL_CITY_01907,Owo,Owo,NG,7.200398986,5.589984089
NGEL_CITY_01908,Oyo,Oyo,NG,7.850436828,3.929982054
NGEL_CITY_01909,Paarl,Paarl,ZA,-33.69955931,18.96002071
NGEL_CITY_01910,Padang,Padang,ID,-0.960007305,100.3600134
NGEL_CITY_01911,Palembang,Palembang,ID,-2.980039043,104.7500297
NGEL_CITY_01912,Panama-City,Panama-City,PA,8.96801719,-79.53303715
NGEL_CITY_01913,Parakou,Parakou,BJ,9.340009988,2.620036172
NGEL_CITY_01914,Paris,Paris,FR,48.86669293,2.333335326
NGEL_CITY_01915,Patna,Patna,IN,25.62495913,85.13003861
NGEL_CITY_01916,Pemba,Pemba,MZ,-12.98304604,40.53234737
NGEL_CITY_01917,Perm,Perm,RU,57.99995974,56.24999263
NGEL_CITY_01918,Perth,Perth,AU,-31.95501463,115.8399987
NGEL_CITY_01919,Peshawar,Peshawar,PK,34.00501609,71.53500281
NGEL_CITY_01920,Philadelphia,Philadelphia,US,39.99997316,-75.16999597
NGEL_CITY_01921,Phnom-Penh,Phnom-Penh,KH,11.55003013,104.9166345
NGEL_CITY_01922,Phoenix,Phoenix,US,33.53997988,-112.0699917
NGEL_CITY_01923,Pietermaritzburg,Pietermaritzburg,ZA,-29.61004148,30.39002071
NGEL_CITY_01924,Pingdingshan,Pingdingshan,CN,33.73040753,113.2999987
NGEL_CITY_01925,Piraiévs,Piraiévs,GR,37.95002077,23.69998979
NGEL_CITY_01926,Pittsburgh,Pittsburgh,US,40.4299986,-79.99998539
NGEL_CITY_01927,Pointe-Noire,Pointe-Noire,CG,-4.770007305,11.88003943
NGEL_CITY_01928,Polokwane,Polokwane,ZA,-23.89002887,29.45002641
NGEL_CITY_01929,Port-Elizabeth,Port-Elizabeth,ZA,-33.97003375,25.60002885
NGEL_CITY_01930,Port-Harcourt,Port-Harcourt,NG,4.810002257,7.010000772
NGEL_CITY_01931,Port-Louis,Port-Louis,MU,-20.16663857,57.49999385
NGEL_CITY_01932,Port-Sudan,Port-Sudan,SD,19.61579103,37.21642574
NGEL_CITY_01933,Port-Gentil,Port-Gentil,GA,-0.720021953,8.780021931
NGEL_CITY_01934,Port-au-Prince,Port-au-Prince,HT,18.5410246,-72.33603459
NGEL_CITY_01935,Porto-Alegre,Porto-Alegre,BR,-30.05001463,-51.20001205
NGEL_CITY_01936,Porto-Novo,Porto-Novo,BJ,6.483310973,2.616625528
NGEL_CITY_01937,Potchefstroom,Potchefstroom,ZA,-26.69957314,27.09998897
NGEL_CITY_01938,Pretoria,Pretoria,ZA,-25.70692055,28.22942908
NGEL_CITY_01939,Puch'on,Puch'on,KR,37.4988889,126.7830556
NGEL_CITY_01940,Puebla,Puebla,MX,19.04995994,-98.20003727
NGEL_CITY_01941,Pune,Pune,IN,18.53001752,73.85000362
NGEL_CITY_01942,Pyongyang,Pyongyang,KP,39.0194387,125.7546907
NGEL_CITY_01943,Qairouan,Qairouan,TN,35.68039187,10.09999304
NGEL_CITY_01944,Qazvin,Qazvin,IR,36.27001996,49.99998653
NGEL_CITY_01945,Qena,Qena,EG,26.15045677,32.72000769
NGEL_CITY_01946,Qingdao,Qingdao,CN,36.08997927,120.3300089
NGEL_CITY_01947,Qinhuangdao,Qinhuangdao,CN,39.93036501,119.6200264
NGEL_CITY_01948,Qiqihar,Qiqihar,CN,47.34497703,123.9899922
NGEL_CITY_01949,Qom,Qom,IR,34.65001548,50.95000606
NGEL_CITY_01950,Qomsheh,Qomsheh,IR,32.01149436,51.85971798
NGEL_CITY_01951,Quanzhou,Quanzhou,CN,24.9000163,118.5799865
NGEL_CITY_01952,Quchan,Quchan,IR,37.11182904,58.50148311
NGEL_CITY_01953,Quelimane,Quelimane,MZ,-17.88000812,36.88998572
NGEL_CITY_01954,Quezon-City,Quezon-City,PH,14.6504352,121.0299662
NGEL_CITY_01955,Quito,Quito,EC,-0.214988181,-78.50005111
NGEL_CITY_01956,Rabat,Rabat,MA,34.02529909,-6.83613082
NGEL_CITY_01957,Rajkot,Rajkot,IN,22.31001935,70.80000891
NGEL_CITY_01958,Ranchi,Ranchi,IN,23.37000633,85.33002641
NGEL_CITY_01959,Rangoon,Rangoon,MM,16.7833541,96.16667761
NGEL_CITY_01960,Ras-al-Khaymah,Ras-al-Khaymah,AE,25.79153811,55.94277624
NGEL_CITY_01961,Rashid,Rashid,EG,31.46039105,30.39002071
NGEL_CITY_01962,Rasht,Rasht,IR,37.29998293,49.62998328
NGEL_CITY_01963,Rawalpindi,Rawalpindi,PK,33.59997622,73.04002722
NGEL_CITY_01964,Recife,Recife,BR,-8.075645326,-34.91560551
NGEL_CITY_01965,Rio-de-Janeiro,Rio-de-Janeiro,BR,-22.92502317,-43.22502079
NGEL_CITY_01966,Riyadh,Riyadh,SA,24.64083315,46.77274166
NGEL_CITY_01967,Rome,Rome,IT,41.89595563,12.48325842
NGEL_CITY_01968,Rosario,Rosario,AR,-32.95112954,-60.66630762
NGEL_CITY_01969,Rotterdam,Rotterdam,NL,51.9199691,4.479974323
NGEL_CITY_01970,Rustenburg,Rustenburg,ZA,-25.6500248,27.2400321
NGEL_CITY_01971,Sabha,Sabha,LY,27.0332711,14.43332027
NGEL_CITY_01972,Sabzewar,Sabzewar,IR,36.22002301,57.63001176
NGEL_CITY_01973,Sacramento,Sacramento,US,38.57502138,-121.4700381
NGEL_CITY_01974,Sadah,Sadah,YE,16.93977867,43.84976762
NGEL_CITY_01975,Safi,Safi,MA,32.31997683,-9.239989259
NGEL_CITY_01976,Saida,Saida,DZ,34.84039146,0.14003251
NGEL_CITY_01977,Saidu,Saidu,PK,34.75003522,72.34999182
NGEL_CITY_01978,Saint-Louis,Saint-Louis,MR,16.01998985,-16.51001062
NGEL_CITY_01979,Sakakah,Sakakah,SA,29.99999706,40.13330454
NGEL_CITY_01980,Salalah,Salalah,OM,17.02545819,54.08521521
NGEL_CITY_01981,Salem,Salem,IN,11.66999697,78.18007523
NGEL_CITY_01982,Salvador,Salvador,BR,-12.9699719,-38.47998743
NGEL_CITY_01983,Samalut,Samalut,EG,28.30042889,30.71000118
NGEL_CITY_01984,Samara,Samara,RU,53.19500755,50.15129512
NGEL_CITY_01985,Samarra,Samarra,IQ,34.19399705,43.87500062
NGEL_CITY_01986,San-Bernardino,San-Bernardino,US,34.12038373,-117.3000342
NGEL_CITY_01987,San-Diego,San-Diego,US,32.82002382,-117.1799899
NGEL_CITY_01988,San-Luis-Potosi,San-Luis-Potosi,MX,22.16997622,-100.9999956
NGEL_CITY_01989,San-Pedro,San-Pedro,CI,4.77041811,-6.639967083
NGEL_CITY_01990,Sanaa,Sanaa,YE,15.3547333,44.20659338
NGEL_CITY_01991,Sanandaj,Sanandaj,IR,35.30000165,47.02001339
NGEL_CITY_01992,Sanliurfa,Sanliurfa,TR,37.16999086,38.79498572
NGEL_CITY_01993,Santa-Cruz,Santa-Cruz,BO,-17.75391762,-63.22599634
NGEL_CITY_01994,Santa-Cruz-de-Tenerife,Santa-Cruz-de-Tenerife,ES,28.46997927,-16.25000065
NGEL_CITY_01995,Santiago,Santiago,CL,-33.45001382,-70.66704085
NGEL_CITY_01996,Santo-Domingo,Santo-Domingo,DO,18.47007285,-69.90008508
NGEL_CITY_01997,Santos,Santos,BR,-23.95372393,-46.33294266
NGEL_CITY_01998,Sao-Paulo,Sao-Paulo,BR,-23.55867959,-46.62501998
NGEL_CITY_01999,Sapele,Sapele,NG,5.890427265,5.680004434
NGEL_CITY_02000,Sapporo,Sapporo,JP,43.07497927,141.3400443
NGEL_CITY_02001,Saratov,Saratov,RU,51.57998985,46.0299963
NGEL_CITY_02002,Sarh,Sarh,TD,9.149969909,18.39002966
NGEL_CITY_02003,Sari,Sari,IR,36.55039044,53.10000403
NGEL_CITY_02004,Saveh,Saveh,IR,35.02182741,50.33143917
NGEL_CITY_02005,Seattle,Seattle,US,47.57000205,-122.339985
NGEL_CITY_02006,Segou,Segou,ML,13.43999229,-6.260016115
NGEL_CITY_02007,Sekondi,Sekondi,GH,4.943275776,-1.704015138
NGEL_CITY_02008,Semarang,Semarang,ID,-6.966617412,110.4200195
NGEL_CITY_02009,Semnan,Semnan,IR,35.5547923,53.37430253
NGEL_CITY_02010,Sendai,Sendai,JP,38.28710614,141.0217175
NGEL_CITY_02011,Sennar,Sennar,SD,13.54995974,33.60000565
NGEL_CITY_02012,Seoul,Seoul,KR,37.5663491,126.999731
NGEL_CITY_02013,Setif,Setif,DZ,36.18002545,5.399969847
NGEL_CITY_02014,Settat,Settat,MA,33.01042564,-7.620010622
NGEL_CITY_02015,Seville,Seville,ES,37.40501528,-5.980007366
NGEL_CITY_02016,Sfax,Sfax,TN,34.75003522,10.72000688
NGEL_CITY_02017,Shahrud,Shahrud,IR,36.42287884,54.96288773
NGEL_CITY_02018,Shanghai,Shanghai,CN,31.21645245,121.4365047
NGEL_CITY_02019,Shangqiu,Shangqiu,CN,34.45041526,115.6500362
NGEL_CITY_02020,Shangrao,Shangrao,CN,28.47039268,117.9699979
NGEL_CITY_02021,Shantou,Shantou,CN,23.37000633,116.6700256
NGEL_CITY_02022,Shar-e-Kord,Shar-e-Kord,IR,32.32099805,50.85399659
NGEL_CITY_02023,Sharjah,Sharjah,AE,25.37138287,55.40647823
NGEL_CITY_02024,Shashemene,Shashemene,ET,7.200398986,38.59003699
NGEL_CITY_02025,Sheffield,Sheffield,GB,53.36667666,-1.499996583
NGEL_CITY_02026,Shendi,Shendi,SD,16.68049217,33.42001664
NGEL_CITY_02027,Shenyeng,Shenyeng,CN,41.80497927,123.4499735
NGEL_CITY_02028,Shenzhen,Shenzhen,CN,22.55237051,114.1221231
NGEL_CITY_02029,Shibin-el-Kom,Shibin-el-Kom,EG,30.59199913,30.89999749
NGEL_CITY_02030,Shijianzhuang,Shijianzhuang,CN,38.05001467,114.4799784
NGEL_CITY_02031,Shiraz,Shiraz,IR,29.62996014,52.57001054
NGEL_CITY_02032,Sholapur,Sholapur,IN,17.6704059,75.90000769
NGEL_CITY_02033,Shuyang,Shuyang,CN,34.12986635,118.7733597
NGEL_CITY_02034,Sidi-bel-Abbes,Sidi-bel-Abbes,DZ,35.19034426,-0.639971559
NGEL_CITY_02035,Siirt,Siirt,TR,37.94400007,41.93299858
NGEL_CITY_02036,Sikasso,Sikasso,ML,11.3204059,-5.679999839
NGEL_CITY_02037,Singapore,Singapore,SG,1.293033466,103.8558207
NGEL_CITY_02038,Siracusa,Siracusa,IT,37.0703587,15.28996049
NGEL_CITY_02039,Sirjan,Sirjan,IR,29.46996991,55.73002437
NGEL_CITY_02040,Skikda,Skikda,DZ,36.88042198,6.899981647
NGEL_CITY_02041,Sofia,Sofia,BG,42.68334943,23.31665401
NGEL_CITY_02042,Sohag,Sohag,EG,26.55040651,31.70001827
NGEL_CITY_02043,Sokoto,Sokoto,NG,13.06001548,5.240031289
NGEL_CITY_02044,Songea,Songea,TZ,-10.68003416,35.65000972
NGEL_CITY_02045,Songnam,Songnam,KR,37.4386111,127.1377778
NGEL_CITY_02046,Souk-Ahras,Souk-Ahras,DZ,36.29038047,7.949995075
NGEL_CITY_02047,Sousse,Sousse,TN,35.82999514,10.62502559
NGEL_CITY_02048,Springs,Springs,ZA,-26.26957355,28.43003699
NGEL_CITY_02049,Srinagar,Srinagar,IN,34.09997154,74.81500932
NGEL_CITY_02050,St.-Louis,St.-Louis,US,38.63501772,-90.23998051
NGEL_CITY_02051,St.-Petersburg,St.-Petersburg,RU,59.93901451,30.31602006
NGEL_CITY_02052,St.-Denis,St.-Denis,RE,-20.87889484,55.44807776
NGEL_CITY_02053,Stockholm,Stockholm,SE,59.35075995,18.09733473
NGEL_CITY_02054,Stuttgart,Stuttgart,DE,48.77997988,9.199996296
NGEL_CITY_02055,Suez,Suez,EG,30.00497601,32.54994055
NGEL_CITY_02056,Suhar,Suhar,OM,24.36197335,56.73441896
NGEL_CITY_02057,Suining,Suining,CN,30.5333333,105.5333333
NGEL_CITY_02058,Surabaya,Surabaya,ID,-7.249235821,112.7508333
NGEL_CITY_02059,Surat,Surat,IN,21.19998374,72.84003943
NGEL_CITY_02060,Surt,Surt,LY,31.2099929,16.59003617
NGEL_CITY_02061,Suwon,Suwon,KR,37.25778912,127.0108931
NGEL_CITY_02062,Suzhou,Suzhou,CN,31.30047833,120.620017
NGEL_CITY_02063,Sydney,Sydney,AU,-33.92001097,151.1851798
NGEL_CITY_02064,Tabora,Tabora,TZ,-5.020017884,32.80000281
NGEL_CITY_02065,Tabriz,Tabriz,IR,38.08629152,46.30124589
NGEL_CITY_02066,Tabuk,Tabuk,SA,28.38383465,36.55496741
NGEL_CITY_02067,Taian,Taian,CN,36.19999839,117.1200756
NGEL_CITY_02068,Taichung,Taichung,TW,24.15207745,120.681667
NGEL_CITY_02069,Tainan,Tainan,TW,23.00000307,120.2000427
NGEL_CITY_02070,Taipei,Taipei,TW,25.03583333,121.5683333
NGEL_CITY_02071,Taiyuan,Taiyuan,CN,37.87501243,112.5450577
NGEL_CITY_02072,Taizz,Taizz,YE,13.60445253,44.03942012
NGEL_CITY_02073,Tall-Afar,Tall-Afar,IQ,36.37598248,42.44974971
NGEL_CITY_02074,Tamale,Tamale,GH,9.400419738,-0.83998519
NGEL_CITY_02075,Tampa,Tampa,US,27.94698793,-82.45862085
NGEL_CITY_02076,Tanga,Tanga,TZ,-5.070040671,39.09000647
NGEL_CITY_02077,Tangier,Tangier,MA,35.74728701,-5.832703696
NGEL_CITY_02078,Tangshan,Tangshan,CN,39.62433718,118.194377
NGEL_CITY_02079,Tanta,Tanta,EG,30.79043194,31.00000932
NGEL_CITY_02080,Tarsus,Tarsus,TR,36.9203937,34.87997921
NGEL_CITY_02081,Tartus,Tartus,SY,34.88463448,35.88658405
NGEL_CITY_02082,Tashkent,Tashkent,UZ,41.31170188,69.29493282
NGEL_CITY_02083,Taza,Taza,MA,34.22037762,-4.019971966
NGEL_CITY_02084,Tbilisi,Tbilisi,GE,41.72500999,44.79079545
NGEL_CITY_02085,Tebessa,Tebessa,DZ,35.41043418,8.120010537
NGEL_CITY_02086,Tegucigalpa,Tegucigalpa,HN,14.1020449,-87.21752934
NGEL_CITY_02087,Tehran,Tehran,IR,35.67194277,51.42434403
NGEL_CITY_02088,Tel-Aviv-Yafo,Tel-Aviv-Yafo,IL,32.07999147,34.77001176
NGEL_CITY_02089,Tema,Tema,GH,5.640365009,0.010014606
NGEL_CITY_02090,Tete,Tete,MZ,-16.17003497,33.58000688
NGEL_CITY_02091,The-Hague,The-Hague,NL,52.08003684,4.269961302
NGEL_CITY_02092,Thies,Thies,SN,14.8103996,-16.93001083
NGEL_CITY_02093,Thiruvananthapuram,Thiruvananthapuram,IN,8.499983743,76.95002112
NGEL_CITY_02094,Thohoyandou,Thohoyandou,ZA,-22.95003457,30.48004106
NGEL_CITY_02095,Tianjin,Tianjin,CN,39.13002626,117.2000191
NGEL_CITY_02096,Tiarat,Tiarat,DZ,35.38043601,1.319960489
NGEL_CITY_02097,Tijuana,Tijuana,MX,32.50001752,-117.079996
NGEL_CITY_02098,Tiruchirappalli,Tiruchirappalli,IN,10.80999778,78.68996659
NGEL_CITY_02099,Tizi-Ouzou,Tizi-Ouzou,DZ,36.80000111,4.033332556
NGEL_CITY_02100,Tlimcen,Tlimcen,DZ,34.89041424,-1.32000757
NGEL_CITY_02101,Toamasina,Toamasina,MG,-18.18179848,49.40498409
NGEL_CITY_02102,Tokyo,Tokyo,JP,35.68501691,139.7514074
NGEL_CITY_02103,Toliara,Toliara,MG,-23.35683144,43.68998409
NGEL_CITY_02104,Toluca,Toluca,MX,19.3303821,-99.66999923
NGEL_CITY_02105,Toronto,Toronto,CA,43.69997988,-79.42002079
NGEL_CITY_02106,Torreon,Torreon,MX,25.57005292,-103.4200029
NGEL_CITY_02107,Trablous,Trablous,LB,34.42000368,35.8699963
NGEL_CITY_02108,Tshikapa,Tshikapa,CD,-6.409958884,20.77003943
NGEL_CITY_02109,Tubruq,Tubruq,LY,32.07999147,23.96002559
NGEL_CITY_02110,Tunis,Tunis,TN,36.80277814,10.1796781
NGEL_CITY_02111,Turin,Turin,IT,45.07038719,7.669960489
NGEL_CITY_02112,Ufa,Ufa,RU,54.78997479,56.04003129
NGEL_CITY_02113,Uitenhage,Uitenhage,ZA,-33.75960732,25.39001583
NGEL_CITY_02114,Ujungpandang,Ujungpandang,ID,-5.139958884,119.4320275
NGEL_CITY_02115,Ulaanbaatar,Ulaanbaatar,MN,47.9166734,106.9166158
NGEL_CITY_02116,Ulsan,Ulsan,KR,35.54673077,129.3169539
NGEL_CITY_02117,Umtata,Umtata,ZA,-31.57999876,28.79001501
NGEL_CITY_02118,Umuahia,Umuahia,NG,5.532003041,7.486002487
NGEL_CITY_02119,Urmia,Urmia,IR,37.52999473,44.99998165
NGEL_CITY_02120,Urumqi,Urumqi,CN,43.80501223,87.57500565
NGEL_CITY_02121,Uvira,Uvira,CD,-3.369989401,29.14001949
NGEL_CITY_02122,Uyo,Uyo,NG,5.007996056,7.849998524
NGEL_CITY_02123,Vadodara,Vadodara,IN,22.31001935,73.18001868
NGEL_CITY_02124,Valencia,Valencia,ES,39.48501752,-0.400012046
NGEL_CITY_02125,Valletta,Valletta,MT,35.89973248,14.51471065
NGEL_CITY_02126,Vancouver,Vancouver,CA,49.27341658,-123.1216442
NGEL_CITY_02127,Varamin,Varamin,IR,35.31658978,51.64660437
NGEL_CITY_02128,Varanasi,Varanasi,IN,25.32999005,83.00003943
NGEL_CITY_02129,Vereeniging,Vereeniging,ZA,-26.64960203,27.95998816
NGEL_CITY_02130,Vienna,Vienna,AT,48.20001528,16.36663896
NGEL_CITY_02131,Vijayawada,Vijayawada,IN,16.51995933,80.63000321
NGEL_CITY_02132,Virginia-Beach,Virginia-Beach,US,36.85321433,-75.97831873
NGEL_CITY_02133,Vishakhapatnam,Vishakhapatnam,IN,17.73001467,83.30498205
NGEL_CITY_02134,Vitória,Vitória,BR,-20.32399331,-40.36599634
NGEL_CITY_02135,Volgograd,Volgograd,RU,48.71000999,44.49996049
NGEL_CITY_02136,Vryheid,Vryheid,ZA,-27.76002521,30.7899963
NGEL_CITY_02137,Wanzhou,Wanzhou,CN,30.81999086,108.4000394
NGEL_CITY_02138,Warangal,Warangal,IN,18.00999758,79.57998979
NGEL_CITY_02139,Warri,Warri,NG,5.519958922,5.759999551
NGEL_CITY_02140,Warsaw,Warsaw,PL,52.25000063,20.99999955
NGEL_CITY_02141,Washington--D.C.,Washington--D.C.,US,38.89954938,-77.00941858
NGEL_CITY_02142,Weifang,Weifang,CN,36.7204059,119.1001098
NGEL_CITY_02143,Welkom,Welkom,ZA,-27.96998655,26.72998572
NGEL_CITY_02144,Wenzhou,Wenzhou,CN,28.0199809,120.6500927
NGEL_CITY_02145,Windhoek,Windhoek,NA,-22.57000608,17.0835461
NGEL_CITY_02146,Worcester,Worcester,ZA,-33.64002806,19.43993974
NGEL_CITY_02147,Wuhan,Wuhan,CN,30.58003135,114.270017
NGEL_CITY_02148,Wuxi,Wuxi,CN,31.57999615,120.2999849
NGEL_CITY_02149,Xai-Xai,Xai-Xai,MZ,-25.03998452,33.64000321
NGEL_CITY_02150,Xiamen,Xiamen,CN,24.44999208,118.080017
NGEL_CITY_02151,Xian,Xian,CN,34.27502545,108.8949963
NGEL_CITY_02152,Xiangtan,Xiangtan,CN,27.85043052,112.9000232
NGEL_CITY_02153,Xiantao,Xiantao,CN,30.3704059,113.4400419
NGEL_CITY_02154,Xianyang,Xianyang,CN,34.3455556,108.7147222
NGEL_CITY_02155,Xining,Xining,CN,36.6199986,101.7700048
NGEL_CITY_02156,Xinxiang,Xinxiang,CN,35.32043968,113.8699898
NGEL_CITY_02157,Xinyang,Xinyang,CN,32.130376,114.0699776
NGEL_CITY_02158,Xinyi,Xinyi,CN,34.38000612,118.3500264
NGEL_CITY_02159,Xuanzhou,Xuanzhou,CN,30.9525,118.7552778
NGEL_CITY_02160,Xuzhou,Xuzhou,CN,34.28001223,117.1800203
NGEL_CITY_02161,Yamoussoukro,Yamoussoukro,CI,6.81838096,-5.275502565
NGEL_CITY_02162,Yanbu-al-Bahr,Yanbu-al-Bahr,SA,24.09427736,38.0492948
NGEL_CITY_02163,Yancheng,Yancheng,CN,33.3855556,120.1252778
NGEL_CITY_02164,Yangquan,Yangquan,CN,37.86997398,113.5700081
NGEL_CITY_02165,Yantai,Yantai,CN,37.53040814,121.4000211
NGEL_CITY_02166,Yaounde,Yaounde,CM,3.866700662,11.51665076
NGEL_CITY_02167,Yazd,Yazd,IR,31.92005292,54.37000403
NGEL_CITY_02168,Yei,Yei,SS,4.090382099,30.68002885
NGEL_CITY_02169,Yekaterinburg,Yekaterinburg,RU,56.85002993,60.59995967
NGEL_CITY_02170,Yerevan,Yerevan,AM,40.18115074,44.51355139
NGEL_CITY_02171,Yokohama,Yokohama,JP,35.32002626,139.5800484
NGEL_CITY_02172,Yueyang,Yueyang,CN,29.38005292,113.1000109
NGEL_CITY_02173,Zabid,Zabid,YE,14.19508832,43.31553666
NGEL_CITY_02174,Zagazig,Zagazig,EG,30.58333209,31.5166596
NGEL_CITY_02175,Zakho,Zakho,IQ,37.14454022,42.68720292
NGEL_CITY_02176,Zanjan,Zanjan,IR,36.67002138,48.50002641
NGEL_CITY_02177,Zanzibar,Zanzibar,TZ,-6.159999981,39.20002559
NGEL_CITY_02178,Zaozhuang,Zaozhuang,CN,34.88000144,117.5700223
NGEL_CITY_02179,Zaria,Zaria,NG,11.0799813,7.710009724
NGEL_CITY_02180,Zarzis,Zarzis,TN,33.51039512,11.09998368
NGEL_CITY_02181,Zhangjiakou,Zhangjiakou,CN,40.83000002,114.9299768
NGEL_CITY_02182,Zhangzhou,Zhangzhou,CN,24.52037539,117.6700162
NGEL_CITY_02183,Zhanjiang,Zhanjiang,CN,21.19998374,110.3800219
NGEL_CITY_02184,Zhengzhou,Zhengzhou,CN,34.75499615,113.6650927
NGEL_CITY_02185,Zhongli,Zhongli,TW,24.96502525,121.2167765
NGEL_CITY_02186,Zhucheng,Zhucheng,CN,35.98995953,119.3800927
NGEL_CITY_02187,Zhuhai,Zhuhai,CN,22.2769444,113.5677778
NGEL_CITY_02188,Zhuzhou,Zhuzhou,CN,27.82999249,113.1500337
NGEL_CITY_02189,Zibo,Zibo,CN,36.79998761,118.049993
NGEL_CITY_02190,Zigong,Zigong,CN,29.40000002,104.780002
NGEL_CITY_02191,Ziguinchor,Ziguinchor,SN,12.58999249,-16.28999821
NGEL_CITY_02192,Zinder,Zinder,NE,13.79999615,8.983317015
NGEL_CITY_02193,Zuwarah,Zuwarah,LY,32.93440961,12.07914872
